{"type":"FeatureCollection","name":"captive_offgrid_systems","atlas_release":{"version":"0.9.0","date":"2026-07-25","title":"Distributed Energy Coverage Expansion"},"metadata":{"description":"Captive and institutional off-grid systems serving a defined campus, hospital, department, or facility.","source":"REA/NEP/DARES; ECREEE; institutional sources","source_date":"2026-07-25","license":"Mixed public-source terms; review each record and source","quality":"B","quality_note":"10 records classified from captive_off_grid, public_institution_off_grid, and facility-specific off_grid_solar asset types. These are not community mini-grids.","path":"data/processed/07_renewables/renewable_offgrid_minigrid_nigeria.csv","coverage_audit_path":"data/processed/07_renewables/minigrid_state_coverage_audit.csv","supplement_path":"data/curated/07_renewables/verified_public_offgrid_supplement.csv","key":"captive_offgrid_systems","label":"Captive & Institutional Off-grid","category":"renewables","category_label":"Distributed Energy","record_count":10,"download_url":"https://raw.githubusercontent.com/Diamonds10/nigeria-infrastructure-atlas/main/data/processed/07_renewables/renewable_offgrid_minigrid_nigeria.csv","refresh":{"cadence":"quarterly","last_checked":"2026-07-25","next_review_due":"2026-10-25","review_status":"current"},"coverage_audit_url":"https://raw.githubusercontent.com/Diamonds10/nigeria-infrastructure-atlas/main/data/processed/07_renewables/minigrid_state_coverage_audit.csv","supplement_url":"https://raw.githubusercontent.com/Diamonds10/nigeria-infrastructure-atlas/main/data/curated/07_renewables/verified_public_offgrid_supplement.csv"},"features":[{"type":"Feature","properties":{"asset_id":"rea-eep-unizik","asset_name":"Nnamdi Azikiwe University Awka solar-hybrid plant","asset_type":"captive_off_grid","distributed_energy_class":"captive_institutional_off_grid","classification_basis":"deterministic_asset_type_mapping","classification_confidence":"high","program_name":"Energizing Education Programme Phase I","state":"Anambra","lga":"Awka North","community":"Awka campus","technology":"solar_hybrid","status":"commissioned","capacity_kw":4400.0,"developer":"Rural Electrification Agency","owner_operator":"Nnamdi Azikiwe University","financing_source":"Federal Government of Nigeria","geocode_precision":"campus","coordinate_source":"OpenStreetMap university centroid; facility position within campus not identified","source_name":"REA Energizing Education Programme sustainability release","source_url":"https://www.dares.rea.gov.ng/energizing-education-rea-secures-universitys-commitment-to-eep-sustainability.html","source_date_accessed":"2026-07-24","evidence_level":"official_commissioned","record_origin":"official_supplement","notes":"REA page spells Awka as Akwa and lists 4.4 MW; current operating performance requires verification.","_label":"Nnamdi Azikiwe University Awka solar-hybrid plant","_status_group":"operating","_states":["Anambra"]},"geometry":{"type":"Point","coordinates":[7.11673,6.24771]}},{"type":"Feature","properties":{"asset_id":"rea-eep-atbu","asset_name":"Abubakar Tafawa Balewa University solar-hybrid plant","asset_type":"captive_off_grid","distributed_energy_class":"captive_institutional_off_grid","classification_basis":"deterministic_asset_type_mapping","classification_confidence":"high","program_name":"Energizing Education Programme Phase I","state":"Bauchi","lga":"Ganjuwa","community":"Gubi Campus","technology":"solar_hybrid","status":"commissioned","capacity_kw":1100.0,"developer":"Rural Electrification Agency","owner_operator":"Abubakar Tafawa Balewa University","financing_source":"Federal Government of Nigeria","geocode_precision":"campus","coordinate_source":"Published Gubi Campus coordinate; facility position within campus not identified","source_name":"REA Energizing Education Programme sustainability release","source_url":"https://www.dares.rea.gov.ng/energizing-education-rea-secures-universitys-commitment-to-eep-sustainability.html","source_date_accessed":"2026-07-24","evidence_level":"official_commissioned","record_origin":"official_supplement","notes":"REA lists 1.1 MW and states that seven Phase I solar-hybrid sites were commissioned; current operating performance requires verification.","_label":"Abubakar Tafawa Balewa University solar-hybrid plant","_status_group":"operating","_states":["Bauchi"]},"geometry":{"type":"Point","coordinates":[9.82,10.75]}},{"type":"Feature","properties":{"asset_id":"rea-eep-jostum","asset_name":"Joseph Sarwuan Tarka University Makurdi solar-hybrid plant","asset_type":"captive_off_grid","distributed_energy_class":"captive_institutional_off_grid","classification_basis":"deterministic_asset_type_mapping","classification_confidence":"high","program_name":"Energizing Education Programme Phase I","state":"Benue","lga":"Makurdi","community":"University campus","technology":"solar_hybrid","status":"commissioned","capacity_kw":8300.0,"developer":"Rural Electrification Agency","owner_operator":"Joseph Sarwuan Tarka University Makurdi","financing_source":"Federal Government of Nigeria","geocode_precision":"campus","coordinate_source":"OpenStreetMap university centroid","source_name":"REA Energizing Education Programme sustainability release","source_url":"https://www.dares.rea.gov.ng/energizing-education-rea-secures-universitys-commitment-to-eep-sustainability.html","source_date_accessed":"2026-07-24","evidence_level":"official_commissioned","record_origin":"official_supplement","notes":"REA source uses the former name Federal University of Agriculture Makurdi and lists 8.3 MW; current operating performance requires verification.","_label":"Joseph Sarwuan Tarka University Makurdi solar-hybrid plant","_status_group":"operating","_states":["Benue"]},"geometry":{"type":"Point","coordinates":[8.61842,7.78421]}},{"type":"Feature","properties":{"asset_id":"rea-eep-fupre","asset_name":"Federal University of Petroleum Resources Effurun solar-hybrid plant","asset_type":"captive_off_grid","distributed_energy_class":"captive_institutional_off_grid","classification_basis":"deterministic_asset_type_mapping","classification_confidence":"high","program_name":"Energizing Education Programme Phase I","state":"Delta","lga":"Uvwie","community":"Ugbomro campus","technology":"solar_hybrid","status":"commissioned","capacity_kw":1100.0,"developer":"Rural Electrification Agency","owner_operator":"Federal University of Petroleum Resources Effurun","financing_source":"Federal Government of Nigeria","geocode_precision":"campus","coordinate_source":"Public university coordinate; facility position within campus not identified","source_name":"REA Energizing Education Programme sustainability release","source_url":"https://www.dares.rea.gov.ng/energizing-education-rea-secures-universitys-commitment-to-eep-sustainability.html","source_date_accessed":"2026-07-24","evidence_level":"official_commissioned","record_origin":"official_supplement","notes":"REA lists 1.1 MW and states that seven Phase I solar-hybrid sites were commissioned; current operating performance requires verification.","_label":"Federal University of Petroleum Resources Effurun solar-hybrid plant","_status_group":"operating","_states":["Delta"]},"geometry":{"type":"Point","coordinates":[5.78,5.5625]}},{"type":"Feature","properties":{"asset_id":"rea-eep-funai","asset_name":"Alex Ekwueme Federal University Ndufu-Alike solar-hybrid plant","asset_type":"captive_off_grid","distributed_energy_class":"captive_institutional_off_grid","classification_basis":"deterministic_asset_type_mapping","classification_confidence":"high","program_name":"Energizing Education Programme Phase I","state":"Ebonyi","lga":"Ikwo","community":"Ndufu-Alike campus","technology":"solar_hybrid","status":"commissioned","capacity_kw":2800.0,"developer":"Rural Electrification Agency","owner_operator":"Alex Ekwueme Federal University Ndufu-Alike","financing_source":"Federal Government of Nigeria","geocode_precision":"campus","coordinate_source":"OpenStreetMap university centroid; facility position within campus not identified","source_name":"REA Energizing Education Programme sustainability release","source_url":"https://www.dares.rea.gov.ng/energizing-education-rea-secures-universitys-commitment-to-eep-sustainability.html","source_date_accessed":"2026-07-24","evidence_level":"official_commissioned","record_origin":"official_supplement","notes":"REA lists 2.8 MW and states that seven Phase I solar-hybrid sites were commissioned; current operating performance requires verification.","_label":"Alex Ekwueme Federal University Ndufu-Alike solar-hybrid plant","_status_group":"operating","_states":["Ebonyi"]},"geometry":{"type":"Point","coordinates":[8.14358,6.13189]}},{"type":"Feature","properties":{"asset_id":"ecreee-buk-2024","asset_name":"Bayero University Chemical and Petroleum Engineering off-grid solar facility","asset_type":"off_grid_solar","distributed_energy_class":"captive_institutional_off_grid","classification_basis":"deterministic_asset_type_mapping","classification_confidence":"high","program_name":"ECOWAS Special Intervention Fund","state":"Kano","lga":"Ungogo","community":"New Campus Department of Chemical and Petroleum Engineering","technology":"solar_battery","status":"commissioned","capacity_kw":79.0,"developer":"ECREEE","owner_operator":"Bayero University Kano","financing_source":"ECOWAS Special Intervention Fund","geocode_precision":"campus","coordinate_source":"OpenStreetMap university centroid; department installation position not identified","source_name":"ECREEE inauguration of Bayero University solar PV installation","source_url":"https://www.ecreee.org/inauguration-solar-photovoltaic-installation-at-the-bayero-university/","source_date_accessed":"2026-07-24","evidence_level":"official_commissioned","record_origin":"official_supplement","notes":"Separate 79 kWp PV / 58 kW inverter / 60 kWh battery installation inaugurated 31 May 2024.","_label":"Bayero University Chemical and Petroleum Engineering off-grid solar facility","_status_group":"operating","_states":["Kano"]},"geometry":{"type":"Point","coordinates":[8.42697,11.97033]}},{"type":"Feature","properties":{"asset_id":"rea-eep-buk","asset_name":"Bayero University Kano EEP solar-hybrid plant","asset_type":"captive_off_grid","distributed_energy_class":"captive_institutional_off_grid","classification_basis":"deterministic_asset_type_mapping","classification_confidence":"high","program_name":"Energizing Education Programme Phase I","state":"Kano","lga":"Ungogo","community":"New Campus","technology":"solar_hybrid","status":"under_rehabilitation","capacity_kw":6000.0,"developer":"Rural Electrification Agency","owner_operator":"Bayero University Kano","financing_source":"Federal Government of Nigeria","geocode_precision":"campus","coordinate_source":"OpenStreetMap university centroid; facility position within campus not identified","source_name":"Bayero University Kano solar upgrade announcement","source_url":"https://buk.edu.ng/node/808","source_date_accessed":"2026-07-24","evidence_level":"official_current_status","record_origin":"official_supplement","notes":"Commissioned as a 7.1 MW EEP project in 2019. BUK reported in November 2025 that the existing 3.5 MW infrastructure had gone down and a rehabilitation/upgrade to 6 MW had commenced; 6 MW is the upgrade target, not verified operating capacity.","_label":"Bayero University Kano EEP solar-hybrid plant","_status_group":"development","_states":["Kano"]},"geometry":{"type":"Point","coordinates":[8.42697,11.97033]}},{"type":"Feature","properties":{"asset_id":"rea-eep-udus","asset_name":"Usmanu Danfodiyo University Sokoto solar-hybrid plant","asset_type":"captive_off_grid","distributed_energy_class":"captive_institutional_off_grid","classification_basis":"deterministic_asset_type_mapping","classification_confidence":"high","program_name":"Energizing Education Programme Phase I","state":"Sokoto","lga":"Wamako","community":"Main campus","technology":"solar_hybrid","status":"commissioned","capacity_kw":4400.0,"developer":"Rural Electrification Agency","owner_operator":"Usmanu Danfodiyo University Sokoto","financing_source":"Federal Government of Nigeria","geocode_precision":"campus","coordinate_source":"OpenStreetMap university centroid; facility position within campus not identified","source_name":"REA Energizing Education Programme sustainability release","source_url":"https://www.dares.rea.gov.ng/energizing-education-rea-secures-universitys-commitment-to-eep-sustainability.html","source_date_accessed":"2026-07-24","evidence_level":"official_commissioned","record_origin":"official_supplement","notes":"REA lists 4.4 MW and states that seven Phase I solar-hybrid sites were commissioned; current operating performance requires verification.","_label":"Usmanu Danfodiyo University Sokoto solar-hybrid plant","_status_group":"operating","_states":["Sokoto"]},"geometry":{"type":"Point","coordinates":[5.20839,13.12657]}},{"type":"Feature","properties":{"asset_id":"rea-yobe-potiskum","asset_name":"General Hospital Potiskum containerized solar mini-grid","asset_type":"public_institution_off_grid","distributed_energy_class":"captive_institutional_off_grid","classification_basis":"deterministic_asset_type_mapping","classification_confidence":"high","program_name":"REA public-institution energy access","state":"Yobe","lga":"Potiskum","community":"General Hospital Potiskum","technology":"solar_battery","status":"commissioned","capacity_kw":50.0,"developer":"Rural Electrification Agency","owner_operator":"General Hospital Potiskum","financing_source":"Public funding","geocode_precision":"facility","coordinate_source":"OpenStreetMap hospital point","source_name":"REA June 2025 newsletter","source_url":"https://rea.gov.ng/june2025-newsletter.pdf","source_date_accessed":"2026-07-24","evidence_level":"official_deployed","record_origin":"official_supplement","notes":"REA described this 50 kW containerized system as part of its impact footprint in Yobe; current operating performance requires verification.","_label":"General Hospital Potiskum containerized solar mini-grid","_status_group":"operating","_states":["Yobe"]},"geometry":{"type":"Point","coordinates":[10.99074,11.72076]}},{"type":"Feature","properties":{"asset_id":"rea-yobe-damaturu","asset_name":"Yobe State Specialist Hospital containerized solar mini-grid","asset_type":"public_institution_off_grid","distributed_energy_class":"captive_institutional_off_grid","classification_basis":"deterministic_asset_type_mapping","classification_confidence":"high","program_name":"REA public-institution energy access","state":"Yobe","lga":"Damaturu","community":"Yobe State Specialist Hospital","technology":"solar_battery","status":"commissioned","capacity_kw":50.0,"developer":"Rural Electrification Agency","owner_operator":"Yobe State Specialist Hospital","financing_source":"Public funding","geocode_precision":"facility","coordinate_source":"OpenStreetMap hospital point","source_name":"REA June 2025 newsletter","source_url":"https://rea.gov.ng/june2025-newsletter.pdf","source_date_accessed":"2026-07-24","evidence_level":"official_deployed","record_origin":"official_supplement","notes":"REA described this 50 kW containerized system as part of its impact footprint in Yobe; current operating performance requires verification.","_label":"Yobe State Specialist Hospital containerized solar mini-grid","_status_group":"operating","_states":["Yobe"]},"geometry":{"type":"Point","coordinates":[11.95662,11.72965]}}]}
