{"type":"FeatureCollection","name":"community_minigrids","atlas_release":{"version":"0.8.0","date":"2026-07-25","title":"State Analytics and Downloadable Reports"},"metadata":{"description":"Community-serving mini-grids with a local generation system and distribution network.","source":"Nigeria SE4ALL Open Data Portal; REA/NEP/DARES; ECREEE; NEMSA; institutional sources","source_date":"2026-07-24","license":"Mixed public-source terms; review each record and source","quality":"B","quality_note":"68 records classified from explicit mini_grid asset types. This is a public-source screening inventory, not a complete national registry.","path":"data/processed/07_renewables/renewable_offgrid_minigrid_nigeria.csv","coverage_audit_path":"data/processed/07_renewables/minigrid_state_coverage_audit.csv","supplement_path":"data/curated/07_renewables/verified_public_offgrid_supplement.csv","key":"community_minigrids","label":"Community Mini-grids","category":"renewables","category_label":"Distributed Energy","record_count":68,"download_url":"https://raw.githubusercontent.com/Diamonds10/nigeria-infrastructure-atlas/main/data/processed/07_renewables/renewable_offgrid_minigrid_nigeria.csv","refresh":{"cadence":"quarterly","last_checked":"2026-07-24","next_review_due":"2026-10-24","review_status":"current"},"coverage_audit_url":"https://raw.githubusercontent.com/Diamonds10/nigeria-infrastructure-atlas/main/data/processed/07_renewables/minigrid_state_coverage_audit.csv","supplement_url":"https://raw.githubusercontent.com/Diamonds10/nigeria-infrastructure-atlas/main/data/curated/07_renewables/verified_public_offgrid_supplement.csv"},"features":[{"type":"Feature","properties":{"asset_id":"se4all-mg-63","asset_name":"Igu","asset_type":"mini_grid","distributed_energy_class":"community_mini_grid","classification_basis":"deterministic_asset_type_mapping","classification_confidence":"high","state":"Abuja Federal Capital Territory","lga":"Bwari","community":"Igu","technology":"solar","status":"operational","capacity_kw":3.0,"geocode_precision":"exact_site","coordinate_source":"Nigeria SE4ALL source coordinates","source_name":"Nigeria SE4ALL Open Data Portal","source_url":"https://data.nigeriase4all.gov.ng/catalogue/#/dataset/1","source_date_accessed":"2026-07-24","evidence_level":"source_portal_record","record_origin":"nigeria_se4all","notes":"raw status='Existing', condition='Operational'","_label":"Igu","_status_group":"operating","_states":["Abuja Federal Capital Territory"]},"geometry":{"type":"Point","coordinates":[7.47208,9.27784]}},{"type":"Feature","properties":{"asset_id":"se4all-mg-1","asset_name":"Kigbe","asset_type":"mini_grid","distributed_energy_class":"community_mini_grid","classification_basis":"deterministic_asset_type_mapping","classification_confidence":"high","program_name":"Havenhill","state":"Abuja Federal Capital Territory","lga":"Kwali","community":"Kigbe","technology":"solar","status":"operational","capacity_kw":20.0,"developer":"Havenhill","owner_operator":"Havenhill","financing_source":"Equity;Grant","geocode_precision":"exact_site","coordinate_source":"Nigeria SE4ALL source coordinates","source_name":"Nigeria SE4ALL Open Data Portal","source_url":"https://data.nigeriase4all.gov.ng/catalogue/#/dataset/1","source_date_accessed":"2026-07-24","evidence_level":"source_portal_record","record_origin":"nigeria_se4all","notes":"raw status='Existing', condition='Operational'","_label":"Kigbe","_status_group":"operating","_states":["Abuja Federal Capital Territory"]},"geometry":{"type":"Point","coordinates":[7.0945,8.6812]}},{"type":"Feature","properties":{"asset_id":"se4all-mg-22","asset_name":"Rije","asset_type":"mini_grid","distributed_energy_class":"community_mini_grid","classification_basis":"deterministic_asset_type_mapping","classification_confidence":"high","program_name":"USADF off-Grid Energy Program","state":"Abuja Federal Capital Territory","lga":"Kuje","community":"Rije","technology":"other","status":"unknown","capacity_kw":20.0,"customers_served":5555.0,"developer":"Ajima Farms & General Enterprises Nig. LTD","owner_operator":"Ajima Farms & General Enterprises Nig. LTD","geocode_precision":"exact_site","coordinate_source":"Nigeria SE4ALL source coordinates","source_name":"Nigeria SE4ALL Open Data Portal","source_url":"https://data.nigeriase4all.gov.ng/catalogue/#/dataset/1","source_date_accessed":"2026-07-24","evidence_level":"source_portal_record","record_origin":"nigeria_se4all","notes":"raw status='None', condition='Operational'","_label":"Rije","_status_group":"other","_states":["Abuja Federal Capital Territory"]},"geometry":{"type":"Point","coordinates":[7.29812,8.88402]}},{"type":"Feature","properties":{"asset_id":"se4all-mg-39","asset_name":"Yebu","asset_type":"mini_grid","distributed_energy_class":"community_mini_grid","classification_basis":"deterministic_asset_type_mapping","classification_confidence":"high","program_name":"Havenhill","state":"Abuja Federal Capital Territory","lga":"Kwali","community":"Yebu","technology":"solar","status":"operational","capacity_kw":40.0,"developer":"Havenhill","owner_operator":"Havenhill","financing_source":"Debt; Equity; Grant","geocode_precision":"exact_site","coordinate_source":"Nigeria SE4ALL source coordinates","source_name":"Nigeria SE4ALL Open Data Portal","source_url":"https://data.nigeriase4all.gov.ng/catalogue/#/dataset/1","source_date_accessed":"2026-07-24","evidence_level":"source_portal_record","record_origin":"nigeria_se4all","notes":"raw status='Existing', condition='Operational'","_label":"Yebu","_status_group":"operating","_states":["Abuja Federal Capital Territory"]},"geometry":{"type":"Point","coordinates":[7.09491,8.68306]}},{"type":"Feature","properties":{"asset_id":"se4all-mg-50","asset_name":"Dakkiti","asset_type":"mini_grid","distributed_energy_class":"community_mini_grid","classification_basis":"deterministic_asset_type_mapping","classification_confidence":"high","program_name":"REA-REF","state":"Adamawa","lga":"Dakkiti","community":"Dakkiti","technology":"hybrid_mini_grid","status":"under_construction","capacity_kw":85.0,"customers_served":506.0,"developer":"Leading Diagonal Engineering LTD","owner_operator":"Leading Diagonal Engineering LTD","financing_source":"Equity;Grant","geocode_precision":"exact_site","coordinate_source":"Nigeria SE4ALL source coordinates","source_name":"Nigeria SE4ALL Open Data Portal","source_url":"https://data.nigeriase4all.gov.ng/catalogue/#/dataset/1","source_date_accessed":"2026-07-24","evidence_level":"source_portal_record","record_origin":"nigeria_se4all","notes":"raw status='Under Construction', condition='Non Operational'","_label":"Dakkiti","_status_group":"development","_states":["Adamawa"]},"geometry":{"type":"Point","coordinates":[11.73938,9.42749]}},{"type":"Feature","properties":{"asset_id":"se4all-mg-43","asset_name":"Akpabom","asset_type":"mini_grid","distributed_energy_class":"community_mini_grid","classification_basis":"deterministic_asset_type_mapping","classification_confidence":"high","program_name":"GVE;Akwa Ibom Govt; REA-REF, All On, ElectriFI","state":"Akwa Ibom","lga":"Onna","community":"Akpabom","technology":"hybrid_mini_grid","status":"operational","capacity_kw":80.0,"customers_served":440.0,"developer":"GVE& Akwa Ibom","owner_operator":"GVE& Akwa Ibom","financing_source":"Debt; Equity;Grant","geocode_precision":"exact_site","coordinate_source":"Nigeria SE4ALL source coordinates","source_name":"Nigeria SE4ALL Open Data Portal","source_url":"https://data.nigeriase4all.gov.ng/catalogue/#/dataset/1","source_date_accessed":"2026-07-24","evidence_level":"source_portal_record","record_origin":"nigeria_se4all","notes":"raw status='Existing', condition='Operational'","_label":"Akpabom","_status_group":"operating","_states":["Akwa Ibom"]},"geometry":{"type":"Point","coordinates":[7.83518,4.58479]}},{"type":"Feature","properties":{"asset_id":"se4all-mg-14","asset_name":"Okpechalla/Atachile","asset_type":"mini_grid","distributed_energy_class":"community_mini_grid","classification_basis":"deterministic_asset_type_mapping","classification_confidence":"high","program_name":"BoI;UNDP;GVE","state":"Anambra","lga":"Anambra West","community":"Okpechalla/Atachile","technology":"solar","status":"operational","capacity_kw":27.0,"customers_served":100.0,"developer":"GVE","owner_operator":"GVE","financing_source":"Equity;Grant","geocode_precision":"exact_site","coordinate_source":"Nigeria SE4ALL source coordinates","source_name":"Nigeria SE4ALL Open Data Portal","source_url":"https://data.nigeriase4all.gov.ng/catalogue/#/dataset/1","source_date_accessed":"2026-07-24","evidence_level":"source_portal_record","record_origin":"nigeria_se4all","notes":"raw status='Existing', condition='Operational'","_label":"Okpechalla/Atachile","_status_group":"operating","_states":["Anambra"]},"geometry":{"type":"Point","coordinates":[6.70484,6.53147]}},{"type":"Feature","properties":{"asset_id":"se4all-mg-18","asset_name":"Onono-Anam","asset_type":"mini_grid","distributed_energy_class":"community_mini_grid","classification_basis":"deterministic_asset_type_mapping","classification_confidence":"high","program_name":"BoI;UNDP;IEEE","state":"Anambra","lga":"Anambra West","community":"Onono-Anam","technology":"solar","status":"operational","capacity_kw":40.0,"customers_served":200.0,"developer":"GVE","owner_operator":"GVE","financing_source":"Debt;Grant","geocode_precision":"exact_site","coordinate_source":"Nigeria SE4ALL source coordinates","source_name":"Nigeria SE4ALL Open Data Portal","source_url":"https://data.nigeriase4all.gov.ng/catalogue/#/dataset/1","source_date_accessed":"2026-07-24","evidence_level":"source_portal_record","record_origin":"nigeria_se4all","notes":"raw status='Existing', condition='Operational'","_label":"Onono-Anam","_status_group":"operating","_states":["Anambra"]},"geometry":{"type":"Point","coordinates":[6.76375,6.19866]}},{"type":"Feature","properties":{"asset_id":"se4all-mg-19","asset_name":"Onono-Anam Phase 2","asset_type":"mini_grid","distributed_energy_class":"community_mini_grid","classification_basis":"deterministic_asset_type_mapping","classification_confidence":"high","program_name":"BoI;UNDP;GVE","state":"Anambra","lga":"Anambra West","community":"Onono-Anam Phase 2","technology":"solar","status":"operational","capacity_kw":80.0,"customers_served":300.0,"developer":"GVE","owner_operator":"GVE","financing_source":"Equity;Grant","geocode_precision":"exact_site","coordinate_source":"Nigeria SE4ALL source coordinates","source_name":"Nigeria SE4ALL Open Data Portal","source_url":"https://data.nigeriase4all.gov.ng/catalogue/#/dataset/1","source_date_accessed":"2026-07-24","evidence_level":"source_portal_record","record_origin":"nigeria_se4all","notes":"raw status='Existing', condition='Operational'","_label":"Onono-Anam Phase 2","_status_group":"operating","_states":["Anambra"]},"geometry":{"type":"Point","coordinates":[6.764,6.198]}},{"type":"Feature","properties":{"asset_id":"se4all-mg-65","asset_name":"Bayan Fada","asset_type":"mini_grid","distributed_energy_class":"community_mini_grid","classification_basis":"deterministic_asset_type_mapping","classification_confidence":"high","state":"Bauchi","lga":"Ningi","community":"Bayan Fada","technology":"hybrid_mini_grid","status":"operational","capacity_kw":8.0,"geocode_precision":"exact_site","coordinate_source":"Nigeria SE4ALL source coordinates","source_name":"Nigeria SE4ALL Open Data Portal","source_url":"https://data.nigeriase4all.gov.ng/catalogue/#/dataset/1","source_date_accessed":"2026-07-24","evidence_level":"source_portal_record","record_origin":"nigeria_se4all","notes":"raw status='Existing', condition='Operational'","_label":"Bayan Fada","_status_group":"operating","_states":["Bauchi"]},"geometry":{"type":"Point","coordinates":[9.57291,11.07164]}},{"type":"Feature","properties":{"asset_id":"se4all-mg-57","asset_name":"Gaza","asset_type":"mini_grid","distributed_energy_class":"community_mini_grid","classification_basis":"deterministic_asset_type_mapping","classification_confidence":"high","state":"Bauchi","lga":"Shira","community":"Gaza","technology":"solar","status":"operational","capacity_kw":18.0,"geocode_precision":"exact_site","coordinate_source":"Nigeria SE4ALL source coordinates","source_name":"Nigeria SE4ALL Open Data Portal","source_url":"https://data.nigeriase4all.gov.ng/catalogue/#/dataset/1","source_date_accessed":"2026-07-24","evidence_level":"source_portal_record","record_origin":"nigeria_se4all","notes":"raw status='Existing', condition='Operational'","_label":"Gaza","_status_group":"operating","_states":["Bauchi"]},"geometry":{"type":"Point","coordinates":[10.10662,11.42839]}},{"type":"Feature","properties":{"asset_id":"se4all-mg-61","asset_name":"Gololo","asset_type":"mini_grid","distributed_energy_class":"community_mini_grid","classification_basis":"deterministic_asset_type_mapping","classification_confidence":"high","state":"Bauchi","lga":"Gamawa","community":"Gololo","technology":"solar","status":"operational","capacity_kw":10.0,"geocode_precision":"exact_site","coordinate_source":"Nigeria SE4ALL source coordinates","source_name":"Nigeria SE4ALL Open Data Portal","source_url":"https://data.nigeriase4all.gov.ng/catalogue/#/dataset/1","source_date_accessed":"2026-07-24","evidence_level":"source_portal_record","record_origin":"nigeria_se4all","notes":"raw status='Existing', condition='Operational'","_label":"Gololo","_status_group":"operating","_states":["Bauchi"]},"geometry":{"type":"Point","coordinates":[10.6906,12.31586]}},{"type":"Feature","properties":{"asset_id":"se4all-mg-28","asset_name":"Tarmasuwa","asset_type":"mini_grid","distributed_energy_class":"community_mini_grid","classification_basis":"deterministic_asset_type_mapping","classification_confidence":"high","program_name":"REA","state":"Bauchi","lga":"Gamawa","community":"Tarmasuwa","technology":"solar","status":"operational","capacity_kw":10.0,"geocode_precision":"exact_site","coordinate_source":"Nigeria SE4ALL source coordinates","source_name":"Nigeria SE4ALL Open Data Portal","source_url":"https://data.nigeriase4all.gov.ng/catalogue/#/dataset/1","source_date_accessed":"2026-07-24","evidence_level":"source_portal_record","record_origin":"nigeria_se4all","notes":"raw status='Existing', condition='Operational'","_label":"Tarmasuwa","_status_group":"operating","_states":["Bauchi"]},"geometry":{"type":"Point","coordinates":[10.77748,11.79754]}},{"type":"Feature","properties":{"asset_id":"se4all-mg-42","asset_name":"Akipelai","asset_type":"mini_grid","distributed_energy_class":"community_mini_grid","classification_basis":"deterministic_asset_type_mapping","classification_confidence":"high","program_name":"REA-NEP-WB","state":"Bayelsa","lga":"Ogbia","community":"Akipelai","technology":"hybrid_mini_grid","status":"operational","capacity_kw":67.0,"developer":"Renewvia Energy Cooperation","owner_operator":"Renewvia Energy Cooperation","financing_source":"Debt; Equity;Grant","geocode_precision":"exact_site","coordinate_source":"Nigeria SE4ALL source coordinates","source_name":"Nigeria SE4ALL Open Data Portal","source_url":"https://data.nigeriase4all.gov.ng/catalogue/#/dataset/1","source_date_accessed":"2026-07-24","evidence_level":"source_portal_record","record_origin":"nigeria_se4all","notes":"raw status='Existing', condition='Operational'","_label":"Akipelai","_status_group":"operating","_states":["Bayelsa"]},"geometry":{"type":"Point","coordinates":[6.33917,4.63029]}},{"type":"Feature","properties":{"asset_id":"se4all-mg-15","asset_name":"Oloibri","asset_type":"mini_grid","distributed_energy_class":"community_mini_grid","classification_basis":"deterministic_asset_type_mapping","classification_confidence":"high","program_name":"REA-NEP-WB","state":"Bayelsa","lga":"Ogbia","community":"Oloibri","technology":"hybrid_mini_grid","status":"operational","capacity_kw":67.0,"developer":"Renewvia Energy Cooperation","owner_operator":"Renewvia Energy Cooperation","financing_source":"Debt; Equity; Grant","geocode_precision":"exact_site","coordinate_source":"Nigeria SE4ALL source coordinates","source_name":"Nigeria SE4ALL Open Data Portal","source_url":"https://data.nigeriase4all.gov.ng/catalogue/#/dataset/1","source_date_accessed":"2026-07-24","evidence_level":"source_portal_record","record_origin":"nigeria_se4all","notes":"raw status='Existing', condition='Operational'","_label":"Oloibri","_status_group":"operating","_states":["Bayelsa"]},"geometry":{"type":"Point","coordinates":[6.31322,4.67016]}},{"type":"Feature","properties":{"asset_id":"se4all-mg-21","asset_name":"Pakau","asset_type":"mini_grid","distributed_energy_class":"community_mini_grid","classification_basis":"deterministic_asset_type_mapping","classification_confidence":"high","state":"Benue","lga":"Kagarko","community":"Pakau","technology":"solar","status":"operational","capacity_kw":24.0,"geocode_precision":"exact_site","coordinate_source":"Nigeria SE4ALL source coordinates","source_name":"Nigeria SE4ALL Open Data Portal","source_url":"https://data.nigeriase4all.gov.ng/catalogue/#/dataset/1","source_date_accessed":"2026-07-24","evidence_level":"source_portal_record","record_origin":"nigeria_se4all","notes":"raw status='Existing', condition='Not Operational'","_label":"Pakau","_status_group":"operating","_states":["Benue"]},"geometry":{"type":"Point","coordinates":[9.39678,7.31667]}},{"type":"Feature","properties":{"asset_id":"se4all-mg-56","asset_name":"Esham","asset_type":"mini_grid","distributed_energy_class":"community_mini_grid","classification_basis":"deterministic_asset_type_mapping","classification_confidence":"high","state":"Cross River","lga":"Ogoja","community":"Esham","technology":"solar","status":"commissioned","capacity_kw":18.0,"geocode_precision":"exact_site","coordinate_source":"Nigeria SE4ALL source coordinates","source_name":"Nigeria SE4ALL Open Data Portal","source_url":"https://data.nigeriase4all.gov.ng/catalogue/#/dataset/1","source_date_accessed":"2026-07-24","evidence_level":"source_portal_record","record_origin":"nigeria_se4all","notes":"raw status='Existing', condition='Non Operational'","_label":"Esham","_status_group":"operating","_states":["Cross River"]},"geometry":{"type":"Point","coordinates":[8.68824,6.44388]}},{"type":"Feature","properties":{"asset_id":"se4all-mg-32","asset_name":"Umon Island","asset_type":"mini_grid","distributed_energy_class":"community_mini_grid","classification_basis":"deterministic_asset_type_mapping","classification_confidence":"high","program_name":"EU; NESP","state":"Cross River","lga":"Biase","community":"Umon Island","technology":"solar","status":"operational","capacity_kw":50.0,"customers_served":65.0,"developer":"Community Research & Development Centre","owner_operator":"Community Research & Development Centre","geocode_precision":"exact_site","coordinate_source":"Nigeria SE4ALL source coordinates","source_name":"Nigeria SE4ALL Open Data Portal","source_url":"https://data.nigeriase4all.gov.ng/catalogue/#/dataset/1","source_date_accessed":"2026-07-24","evidence_level":"source_portal_record","record_origin":"nigeria_se4all","notes":"raw status='Existing', condition='Operational'","_label":"Umon Island","_status_group":"operating","_states":["Cross River"]},"geometry":{"type":"Point","coordinates":[8.08229,5.31941]}},{"type":"Feature","properties":{"asset_id":"se4all-mg-55","asset_name":"Eka Awoke","asset_type":"mini_grid","distributed_energy_class":"community_mini_grid","classification_basis":"deterministic_asset_type_mapping","classification_confidence":"high","program_name":"REA;REF","state":"Ebonyi","lga":"Ikwo","community":"Eka Awoke","technology":"hybrid_mini_grid","status":"operational","capacity_kw":100.0,"customers_served":855.0,"developer":"Cloud Energy","owner_operator":"Cloud Energy","financing_source":"Debt; Equity;Grant","geocode_precision":"exact_site","coordinate_source":"Nigeria SE4ALL source coordinates","source_name":"Nigeria SE4ALL Open Data Portal","source_url":"https://data.nigeriase4all.gov.ng/catalogue/#/dataset/1","source_date_accessed":"2026-07-24","evidence_level":"source_portal_record","record_origin":"nigeria_se4all","notes":"raw status='Existing', condition='Operational'","_label":"Eka Awoke","_status_group":"operating","_states":["Ebonyi"]},"geometry":{"type":"Point","coordinates":[8.1411,6.07249]}},{"type":"Feature","properties":{"asset_id":"se4all-mg-20","asset_name":"Orie Obeagu Isu","asset_type":"mini_grid","distributed_energy_class":"community_mini_grid","classification_basis":"deterministic_asset_type_mapping","classification_confidence":"high","program_name":"REA;REF","state":"Ebonyi","lga":"Obeagu Isu","community":"Orie Obeagu Isu","technology":"hybrid_mini_grid","status":"under_construction","capacity_kw":66.0,"customers_served":100.0,"developer":"Zylab Technologies Nigeria Limited","owner_operator":"Zylab Technologies Nigeria Limited","financing_source":"Debt;Equity; Grant","geocode_precision":"exact_site","coordinate_source":"Nigeria SE4ALL source coordinates","source_name":"Nigeria SE4ALL Open Data Portal","source_url":"https://data.nigeriase4all.gov.ng/catalogue/#/dataset/1","source_date_accessed":"2026-07-24","evidence_level":"source_portal_record","record_origin":"nigeria_se4all","notes":"raw status='Under Construction', condition='Non Operational'","_label":"Orie Obeagu Isu","_status_group":"development","_states":["Ebonyi"]},"geometry":{"type":"Point","coordinates":[7.76257,6.25707]}},{"type":"Feature","properties":{"asset_id":"se4all-mg-34","asset_name":"Umuntumuna Obeagu Isu","asset_type":"mini_grid","distributed_energy_class":"community_mini_grid","classification_basis":"deterministic_asset_type_mapping","classification_confidence":"high","state":"Ebonyi","lga":"Obeagu Isu","community":"Umuntumuna Obeagu Isu","technology":"hybrid_mini_grid","status":"under_construction","capacity_kw":33.0,"geocode_precision":"exact_site","coordinate_source":"Nigeria SE4ALL source coordinates","source_name":"Nigeria SE4ALL Open Data Portal","source_url":"https://data.nigeriase4all.gov.ng/catalogue/#/dataset/1","source_date_accessed":"2026-07-24","evidence_level":"source_portal_record","record_origin":"nigeria_se4all","notes":"raw status='Under Construction', condition='Non Operational'","_label":"Umuntumuna Obeagu Isu","_status_group":"development","_states":["Ebonyi"]},"geometry":{"type":"Point","coordinates":[7.76918,6.2589]}},{"type":"Feature","properties":{"asset_id":"se4all-mg-40","asset_name":"Adebayo","asset_type":"mini_grid","distributed_energy_class":"community_mini_grid","classification_basis":"deterministic_asset_type_mapping","classification_confidence":"high","program_name":"REA","state":"Edo","lga":"Ovia South West","community":"Adebayo","technology":"hybrid_mini_grid","status":"under_construction","capacity_kw":100.0,"developer":"ACOB","owner_operator":"ACOB","financing_source":"Debt; Equity;Grant","geocode_precision":"exact_site","coordinate_source":"Nigeria SE4ALL source coordinates","source_name":"Nigeria SE4ALL Open Data Portal","source_url":"https://data.nigeriase4all.gov.ng/catalogue/#/dataset/1","source_date_accessed":"2026-07-24","evidence_level":"source_portal_record","record_origin":"nigeria_se4all","notes":"raw status='Under Construction', condition='Non operational'","_label":"Adebayo","_status_group":"development","_states":["Edo"]},"geometry":{"type":"Point","coordinates":[5.10888,6.40228]}},{"type":"Feature","properties":{"asset_id":"se4all-mg-10","asset_name":"Obayantor","asset_type":"mini_grid","distributed_energy_class":"community_mini_grid","classification_basis":"deterministic_asset_type_mapping","classification_confidence":"high","state":"Edo","community":"Obayantor","technology":"solar","status":"operational","capacity_kw":24.0,"geocode_precision":"exact_site","coordinate_source":"Nigeria SE4ALL source coordinates","source_name":"Nigeria SE4ALL Open Data Portal","source_url":"https://data.nigeriase4all.gov.ng/catalogue/#/dataset/1","source_date_accessed":"2026-07-24","evidence_level":"source_portal_record","record_origin":"nigeria_se4all","notes":"raw status='Existing', condition='Operational'","_label":"Obayantor","_status_group":"operating","_states":["Edo"]},"geometry":{"type":"Point","coordinates":[5.56143,6.16849]}},{"type":"Feature","properties":{"asset_id":"se4all-mg-12","asset_name":"Ogbekpen, Ikpoba","asset_type":"mini_grid","distributed_energy_class":"community_mini_grid","classification_basis":"deterministic_asset_type_mapping","classification_confidence":"high","program_name":"BoI;UNDP","state":"Edo","lga":"Okha","community":"Ogbekpen, Ikpoba","technology":"solar","status":"operational","capacity_kw":24.0,"geocode_precision":"exact_site","coordinate_source":"Nigeria SE4ALL source coordinates","source_name":"Nigeria SE4ALL Open Data Portal","source_url":"https://data.nigeriase4all.gov.ng/catalogue/#/dataset/1","source_date_accessed":"2026-07-24","evidence_level":"source_portal_record","record_origin":"nigeria_se4all","notes":"raw status='Existing', condition='Operational'","_label":"Ogbekpen, Ikpoba","_status_group":"operating","_states":["Edo"]},"geometry":{"type":"Point","coordinates":[5.65024,6.35016]}},{"type":"Feature","properties":{"asset_id":"se4all-mg-37","asset_name":"Uniarho","asset_type":"mini_grid","distributed_energy_class":"community_mini_grid","classification_basis":"deterministic_asset_type_mapping","classification_confidence":"high","program_name":"ECREEE","state":"Edo","lga":" Ovia North - East","community":"Uniarho","technology":"solar","status":"operational","capacity_kw":2.0,"customers_served":19.0,"geocode_precision":"exact_site","coordinate_source":"Nigeria SE4ALL source coordinates","source_name":"Nigeria SE4ALL Open Data Portal","source_url":"https://data.nigeriase4all.gov.ng/catalogue/#/dataset/1","source_date_accessed":"2026-07-24","evidence_level":"source_portal_record","record_origin":"nigeria_se4all","notes":"raw status='Existing', condition='Operational'","_label":"Uniarho","_status_group":"operating","_states":["Edo"]},"geometry":{"type":"Point","coordinates":[5.95466,6.64257]}},{"type":"Feature","properties":{"asset_id":"se4all-mg-45","asset_name":"Ayaba","asset_type":"mini_grid","distributed_energy_class":"community_mini_grid","classification_basis":"deterministic_asset_type_mapping","classification_confidence":"high","program_name":"BoI;UNDP;GVE","state":"Gombe","lga":"Biliri","community":"Ayaba","technology":"solar","status":"operational","capacity_kw":18.0,"customers_served":250.0,"developer":"GVE","owner_operator":"GVE","financing_source":"Equity; Grant","geocode_precision":"exact_site","coordinate_source":"Nigeria SE4ALL source coordinates","source_name":"Nigeria SE4ALL Open Data Portal","source_url":"https://data.nigeriase4all.gov.ng/catalogue/#/dataset/1","source_date_accessed":"2026-07-24","evidence_level":"source_portal_record","record_origin":"nigeria_se4all","notes":"raw status='Existing', condition='Operational'","_label":"Ayaba","_status_group":"operating","_states":["Gombe"]},"geometry":{"type":"Point","coordinates":[11.03916,9.80465]}},{"type":"Feature","properties":{"asset_id":"se4all-mg-2","asset_name":"Kolaku","asset_type":"mini_grid","distributed_energy_class":"community_mini_grid","classification_basis":"deterministic_asset_type_mapping","classification_confidence":"high","program_name":"BoI;UNDP;GVE","state":"Gombe","lga":"Balanga","community":"Kolaku","technology":"solar","status":"operational","capacity_kw":47.0,"customers_served":350.0,"developer":"GVE","owner_operator":"GVE","financing_source":"Equity;Grant","geocode_precision":"exact_site","coordinate_source":"Nigeria SE4ALL source coordinates","source_name":"Nigeria SE4ALL Open Data Portal","source_url":"https://data.nigeriase4all.gov.ng/catalogue/#/dataset/1","source_date_accessed":"2026-07-24","evidence_level":"source_portal_record","record_origin":"nigeria_se4all","notes":"raw status='Existing', condition='Operational'","_label":"Kolaku","_status_group":"operating","_states":["Gombe"]},"geometry":{"type":"Point","coordinates":[11.77931,10.03913]}},{"type":"Feature","properties":{"asset_id":"se4all-mg-3","asset_name":"Kolwa","asset_type":"mini_grid","distributed_energy_class":"community_mini_grid","classification_basis":"deterministic_asset_type_mapping","classification_confidence":"high","program_name":"BoI;UNDP;IEEE","state":"Gombe","lga":"Kaltungo","community":"Kolwa","technology":"solar","status":"operational","capacity_kw":38.0,"customers_served":200.0,"developer":"GVE","owner_operator":"GVE","financing_source":"Debt; Grant","geocode_precision":"exact_site","coordinate_source":"Nigeria SE4ALL source coordinates","source_name":"Nigeria SE4ALL Open Data Portal","source_url":"https://data.nigeriase4all.gov.ng/catalogue/#/dataset/1","source_date_accessed":"2026-07-24","evidence_level":"source_portal_record","record_origin":"nigeria_se4all","notes":"raw status='Existing', condition='Operational'","_label":"Kolwa","_status_group":"operating","_states":["Gombe"]},"geometry":{"type":"Point","coordinates":[11.54226,9.70481]}},{"type":"Feature","properties":{"asset_id":"se4all-mg-41","asset_name":"Ahoto","asset_type":"mini_grid","distributed_energy_class":"community_mini_grid","classification_basis":"deterministic_asset_type_mapping","classification_confidence":"high","program_name":"US NGO Solar Electric Light Fund -SELF","state":"Jigawa","lga":"Buji","community":"Ahoto","technology":"solar","status":"operational","developer":"Electric Light Fund-SELF","owner_operator":"Electric Light Fund-SELF","geocode_precision":"exact_site","coordinate_source":"Nigeria SE4ALL source coordinates","source_name":"Nigeria SE4ALL Open Data Portal","source_url":"https://data.nigeriase4all.gov.ng/catalogue/#/dataset/1","source_date_accessed":"2026-07-24","evidence_level":"source_portal_record","record_origin":"nigeria_se4all","notes":"raw status='Existing', condition='Operational'","_label":"Ahoto","_status_group":"operating","_states":["Jigawa"]},"geometry":{"type":"Point","coordinates":[9.79364,11.63863]}},{"type":"Feature","properties":{"asset_id":"se4all-mg-49","asset_name":"Charwa/Chakun","asset_type":"mini_grid","distributed_energy_class":"community_mini_grid","classification_basis":"deterministic_asset_type_mapping","classification_confidence":"high","program_name":"BoI;UNDP","state":"Kaduna","lga":"Markafi","community":"Charwa/Chakun","technology":"solar","status":"operational","capacity_kw":24.0,"developer":"Anergy Solar","owner_operator":"Anergy Solar","geocode_precision":"exact_site","coordinate_source":"Nigeria SE4ALL source coordinates","source_name":"Nigeria SE4ALL Open Data Portal","source_url":"https://data.nigeriase4all.gov.ng/catalogue/#/dataset/1","source_date_accessed":"2026-07-24","evidence_level":"source_portal_record","record_origin":"nigeria_se4all","notes":"raw status='Existing', condition='Operational'","_label":"Charwa/Chakun","_status_group":"operating","_states":["Kaduna"]},"geometry":{"type":"Point","coordinates":[7.88147,11.37472]}},{"type":"Feature","properties":{"asset_id":"rea-damau-2026","asset_name":"Damau Village solar mini-grid","asset_type":"mini_grid","distributed_energy_class":"community_mini_grid","classification_basis":"deterministic_asset_type_mapping","classification_confidence":"high","program_name":"REA Federal Capital Project","state":"Kaduna","lga":"Kubau","community":"Damau","technology":"solar","status":"operational","capacity_kw":100.0,"customers_served":2500.0,"developer":"Rural Electrification Agency","financing_source":"Federal Government of Nigeria","geocode_precision":"community","coordinate_source":"OpenStreetMap Damau community centroid","source_name":"REA delivers 100 kWp mini-grid in Damau Village","source_url":"https://rea.gov.ng/news/REA-Delivers-100kWp-Mini-Grid-in-Damau-Village/REA-Delivers-100kWp-Mini-Grid.html","source_date_accessed":"2026-07-24","evidence_level":"official_operational","record_origin":"official_supplement","notes":"Commissioned January 2026; source says the system was already powering households, businesses, public infrastructure and a borehole. The 2,500 figure is residents impacted, stored in customers_served only as a broad beneficiary count.","_label":"Damau Village solar mini-grid","_status_group":"operating","_states":["Kaduna"]},"geometry":{"type":"Point","coordinates":[8.43514,10.90033]}},{"type":"Feature","properties":{"asset_id":"se4all-mg-60","asset_name":"Gnami","asset_type":"mini_grid","distributed_energy_class":"community_mini_grid","classification_basis":"deterministic_asset_type_mapping","classification_confidence":"high","program_name":"Huawei","state":"Kaduna","lga":"Kagarko","community":"Gnami","technology":"solar","status":"operational","capacity_kw":40.0,"customers_served":100.0,"developer":"Managed by the community","owner_operator":"Managed by the community","geocode_precision":"exact_site","coordinate_source":"Nigeria SE4ALL source coordinates","source_name":"Nigeria SE4ALL Open Data Portal","source_url":"https://data.nigeriase4all.gov.ng/catalogue/#/dataset/1","source_date_accessed":"2026-07-24","evidence_level":"source_portal_record","record_origin":"nigeria_se4all","notes":"raw status='Existing', condition='Operational'","_label":"Gnami","_status_group":"operating","_states":["Kaduna"]},"geometry":{"type":"Point","coordinates":[7.36816,9.37086]}},{"type":"Feature","properties":{"asset_id":"se4all-mg-7","asset_name":"Makami","asset_type":"mini_grid","distributed_energy_class":"community_mini_grid","classification_basis":"deterministic_asset_type_mapping","classification_confidence":"high","program_name":"ECREE","state":"Kaduna","lga":"Kauru","community":"Makami","technology":"hybrid_mini_grid","status":"under_construction","capacity_kw":50.0,"customers_served":320.0,"developer":"ACOB","owner_operator":"ACOB","geocode_precision":"exact_site","coordinate_source":"Nigeria SE4ALL source coordinates","source_name":"Nigeria SE4ALL Open Data Portal","source_url":"https://data.nigeriase4all.gov.ng/catalogue/#/dataset/1","source_date_accessed":"2026-07-24","evidence_level":"source_portal_record","record_origin":"nigeria_se4all","notes":"raw status='Under Construction', condition='Non Operational'","_label":"Makami","_status_group":"development","_states":["Kaduna"]},"geometry":{"type":"Point","coordinates":[8.06429,10.58723]}},{"type":"Feature","properties":{"asset_id":"se4all-mg-46","asset_name":"Bambami","asset_type":"mini_grid","distributed_energy_class":"community_mini_grid","classification_basis":"deterministic_asset_type_mapping","classification_confidence":"high","program_name":"REA-REF","state":"Katsina","lga":"Batagarawa","community":"Bambami","technology":"solar","status":"under_construction","capacity_kw":30.0,"customers_served":300.0,"developer":"IBK Services Limited","owner_operator":"IBK Services Limited","financing_source":"Equity; Grant","geocode_precision":"exact_site","coordinate_source":"Nigeria SE4ALL source coordinates","source_name":"Nigeria SE4ALL Open Data Portal","source_url":"https://data.nigeriase4all.gov.ng/catalogue/#/dataset/1","source_date_accessed":"2026-07-24","evidence_level":"source_portal_record","record_origin":"nigeria_se4all","notes":"raw status='Under Construction', condition='Non Operational'","_label":"Bambami","_status_group":"development","_states":["Katsina"]},"geometry":{"type":"Point","coordinates":[7.56132,12.91385]}},{"type":"Feature","properties":{"asset_id":"se4all-mg-64","asset_name":"Kindigi","asset_type":"mini_grid","distributed_energy_class":"community_mini_grid","classification_basis":"deterministic_asset_type_mapping","classification_confidence":"high","state":"Katsina","lga":"Mashi","community":"Kindigi","technology":"solar","status":"operational","capacity_kw":16.0,"geocode_precision":"exact_site","coordinate_source":"Nigeria SE4ALL source coordinates","source_name":"Nigeria SE4ALL Open Data Portal","source_url":"https://data.nigeriase4all.gov.ng/catalogue/#/dataset/1","source_date_accessed":"2026-07-24","evidence_level":"source_portal_record","record_origin":"nigeria_se4all","notes":"raw status='Existing', condition='Operational'","_label":"Kindigi","_status_group":"operating","_states":["Katsina"]},"geometry":{"type":"Point","coordinates":[8.022,13.21386]}},{"type":"Feature","properties":{"asset_id":"se4all-mg-0","asset_name":"Kare","asset_type":"mini_grid","distributed_energy_class":"community_mini_grid","classification_basis":"deterministic_asset_type_mapping","classification_confidence":"high","program_name":"REA;REF","state":"Kebbi","lga":"Arewa","community":"Kare","technology":"hybrid_mini_grid","status":"operational","capacity_kw":100.0,"customers_served":535.0,"developer":"Nayo Tropical Technologies Limited","owner_operator":"Nayo Tropical Technologies Limited","financing_source":"Equity; Grant","geocode_precision":"exact_site","coordinate_source":"Nigeria SE4ALL source coordinates","source_name":"Nigeria SE4ALL Open Data Portal","source_url":"https://data.nigeriase4all.gov.ng/catalogue/#/dataset/1","source_date_accessed":"2026-07-24","evidence_level":"source_portal_record","record_origin":"nigeria_se4all","notes":"raw status='Existing', condition='Operational'","_label":"Kare","_status_group":"operating","_states":["Kebbi"]},"geometry":{"type":"Point","coordinates":[4.06202,12.89867]}},{"type":"Feature","properties":{"asset_id":"se4all-mg-9","asset_name":"Obangede","asset_type":"mini_grid","distributed_energy_class":"community_mini_grid","classification_basis":"deterministic_asset_type_mapping","classification_confidence":"high","program_name":"REA;REF","state":"Kogi","lga":"Ajaokuta","community":"Obangede","technology":"hybrid_mini_grid","status":"operational","capacity_kw":80.0,"customers_served":60.0,"developer":"New Moon Nigeria Limited","owner_operator":"New Moon Nigeria Limited","financing_source":"Debt; Equity;Grant","geocode_precision":"exact_site","coordinate_source":"Nigeria SE4ALL source coordinates","source_name":"Nigeria SE4ALL Open Data Portal","source_url":"https://data.nigeriase4all.gov.ng/catalogue/#/dataset/1","source_date_accessed":"2026-07-24","evidence_level":"source_portal_record","record_origin":"nigeria_se4all","notes":"raw status='Existing', condition='Operational'","_label":"Obangede","_status_group":"operating","_states":["Kogi"]},"geometry":{"type":"Point","coordinates":[6.69525,7.46635]}},{"type":"Feature","properties":{"asset_id":"se4all-mg-38","asset_name":"Upake","asset_type":"mini_grid","distributed_energy_class":"community_mini_grid","classification_basis":"deterministic_asset_type_mapping","classification_confidence":"high","program_name":"REA;REF","state":"Kogi","lga":"Ajaokuta","community":"Upake","technology":"hybrid_mini_grid","status":"operational","capacity_kw":80.0,"customers_served":60.0,"developer":"New Moon Nigeria Limited","owner_operator":"New Moon Nigeria Limited","financing_source":"Debt; Equity; Grant","geocode_precision":"exact_site","coordinate_source":"Nigeria SE4ALL source coordinates","source_name":"Nigeria SE4ALL Open Data Portal","source_url":"https://data.nigeriase4all.gov.ng/catalogue/#/dataset/1","source_date_accessed":"2026-07-24","evidence_level":"source_portal_record","record_origin":"nigeria_se4all","notes":"raw status='Existing', condition='Operational'","_label":"Upake","_status_group":"operating","_states":["Kogi"]},"geometry":{"type":"Point","coordinates":[6.6232,7.3045]}},{"type":"Feature","properties":{"asset_id":"rea-offa-2026","asset_name":"Offa solar-hybrid mini-grid","asset_type":"mini_grid","distributed_energy_class":"community_mini_grid","classification_basis":"deterministic_asset_type_mapping","classification_confidence":"high","program_name":"REA distributed renewable energy programme","state":"Kwara","lga":"Offa","community":"Offa","technology":"solar_hybrid","status":"commissioned","capacity_kw":704.0,"customers_served":3000.0,"developer":"Rural Electrification Agency","financing_source":"Public programme","geocode_precision":"community","coordinate_source":"OpenStreetMap Offa town centroid","source_name":"REA Epe mini-grid commissioning release","source_url":"https://rea.gov.ng/news/REA-505kWp-MINI-GRID-COMMISIONING.html","source_date_accessed":"2026-07-24","evidence_level":"official_commissioned","record_origin":"official_supplement","notes":"REA's June 2026 release describes a recently commissioned 704 kW system in Offa serving over 3,000 customers. Coordinate is the Offa town centroid, not a verified plant parcel.","_label":"Offa solar-hybrid mini-grid","_status_group":"operating","_states":["Kwara"]},"geometry":{"type":"Point","coordinates":[4.72274,8.156]}},{"type":"Feature","properties":{"asset_id":"se4all-mg-24","asset_name":"Ruguwa","asset_type":"mini_grid","distributed_energy_class":"community_mini_grid","classification_basis":"deterministic_asset_type_mapping","classification_confidence":"high","program_name":"UNDP GEF Energy Efficiency Programme","state":"Nasarawa","lga":"Karu","community":"Ruguwa","technology":"solar","status":"operational","capacity_kw":4.0,"geocode_precision":"exact_site","coordinate_source":"Nigeria SE4ALL source coordinates","source_name":"Nigeria SE4ALL Open Data Portal","source_url":"https://data.nigeriase4all.gov.ng/catalogue/#/dataset/1","source_date_accessed":"2026-07-24","evidence_level":"source_portal_record","record_origin":"nigeria_se4all","notes":"raw status='Existing', condition='Operational'","_label":"Ruguwa","_status_group":"operating","_states":["Nasarawa"]},"geometry":{"type":"Point","coordinates":[7.72229,8.83587]}},{"type":"Feature","properties":{"asset_id":"se4all-mg-47","asset_name":"Bisanti","asset_type":"mini_grid","distributed_energy_class":"community_mini_grid","classification_basis":"deterministic_asset_type_mapping","classification_confidence":"high","program_name":"BoI;UNDP;IEEE","state":"Niger","lga":"Katcha","community":"Bisanti","technology":"solar","status":"operational","capacity_kw":38.0,"customers_served":350.0,"developer":"GVE","owner_operator":"GVE","financing_source":"Debt;Grant","geocode_precision":"exact_site","coordinate_source":"Nigeria SE4ALL source coordinates","source_name":"Nigeria SE4ALL Open Data Portal","source_url":"https://data.nigeriase4all.gov.ng/catalogue/#/dataset/1","source_date_accessed":"2026-07-24","evidence_level":"source_portal_record","record_origin":"nigeria_se4all","notes":"raw status='Existing', condition='Operational'","_label":"Bisanti","_status_group":"operating","_states":["Niger"]},"geometry":{"type":"Point","coordinates":[6.21253,9.32875]}},{"type":"Feature","properties":{"asset_id":"se4all-mg-62","asset_name":"Goton Sarki","asset_type":"mini_grid","distributed_energy_class":"community_mini_grid","classification_basis":"deterministic_asset_type_mapping","classification_confidence":"high","program_name":"REF;REA","state":"Niger","lga":"Paico","community":"Goton Sarki","technology":"solar","status":"operational","capacity_kw":40.0,"developer":"AY Global","owner_operator":"AY Global","financing_source":"Equity; Grant","geocode_precision":"exact_site","coordinate_source":"Nigeria SE4ALL source coordinates","source_name":"Nigeria SE4ALL Open Data Portal","source_url":"https://data.nigeriase4all.gov.ng/catalogue/#/dataset/1","source_date_accessed":"2026-07-24","evidence_level":"source_portal_record","record_origin":"nigeria_se4all","notes":"raw status='Existing', condition='Operational'","_label":"Goton Sarki","_status_group":"operating","_states":["Niger"]},"geometry":{"type":"Point","coordinates":[7.23983,9.66342]}},{"type":"Feature","properties":{"asset_id":"se4all-mg-23","asset_name":"Rokota","asset_type":"mini_grid","distributed_energy_class":"community_mini_grid","classification_basis":"deterministic_asset_type_mapping","classification_confidence":"high","program_name":"REA-NEP-WB","state":"Niger","lga":"Edati","community":"Rokota","technology":"hybrid_mini_grid","status":"operational","capacity_kw":64.0,"customers_served":326.0,"developer":"PowerGen Renewable Energy Nigeria Limited","owner_operator":"PowerGen Renewable Energy Nigeria Limited","financing_source":"Debt; Equity; Grant","geocode_precision":"exact_site","coordinate_source":"Nigeria SE4ALL source coordinates","source_name":"Nigeria SE4ALL Open Data Portal","source_url":"https://data.nigeriase4all.gov.ng/catalogue/#/dataset/1","source_date_accessed":"2026-07-24","evidence_level":"source_portal_record","record_origin":"nigeria_se4all","notes":"raw status='Existing', condition='Operational'","_label":"Rokota","_status_group":"operating","_states":["Niger"]},"geometry":{"type":"Point","coordinates":[5.44228,9.08412]}},{"type":"Feature","properties":{"asset_id":"se4all-mg-27","asset_name":"Swasun","asset_type":"mini_grid","distributed_energy_class":"community_mini_grid","classification_basis":"deterministic_asset_type_mapping","classification_confidence":"high","program_name":"BoI;UNDP;GVE","state":"Niger","lga":"Katcha","community":"Swasun","technology":"solar","status":"operational","capacity_kw":41.0,"customers_served":240.0,"developer":"GVE","owner_operator":"GVE","financing_source":"Equity;Grant","geocode_precision":"exact_site","coordinate_source":"Nigeria SE4ALL source coordinates","source_name":"Nigeria SE4ALL Open Data Portal","source_url":"https://data.nigeriase4all.gov.ng/catalogue/#/dataset/1","source_date_accessed":"2026-07-24","evidence_level":"source_portal_record","record_origin":"nigeria_se4all","notes":"raw status='Existing', condition='Operational'","_label":"Swasun","_status_group":"operating","_states":["Niger"]},"geometry":{"type":"Point","coordinates":[6.20718,9.35453]}},{"type":"Feature","properties":{"asset_id":"se4all-mg-30","asset_name":"Tunga Jika","asset_type":"mini_grid","distributed_energy_class":"community_mini_grid","classification_basis":"deterministic_asset_type_mapping","classification_confidence":"high","program_name":"EU;NESP","state":"Niger","lga":"Magama","community":"Tunga Jika","technology":"solar","status":"operational","capacity_kw":100.0,"customers_served":202.0,"developer":"Nayo Tropical Technologies","owner_operator":"Nayo Tropical Technologies","geocode_precision":"exact_site","coordinate_source":"Nigeria SE4ALL source coordinates","source_name":"Nigeria SE4ALL Open Data Portal","source_url":"https://data.nigeriase4all.gov.ng/catalogue/#/dataset/1","source_date_accessed":"2026-07-24","evidence_level":"source_portal_record","record_origin":"nigeria_se4all","notes":"raw status='Existing', condition='Operational'","_label":"Tunga Jika","_status_group":"operating","_states":["Niger"]},"geometry":{"type":"Point","coordinates":[4.76913,10.0221]}},{"type":"Feature","properties":{"asset_id":"se4all-mg-59","asset_name":"Gbamu Gbamu","asset_type":"mini_grid","distributed_energy_class":"community_mini_grid","classification_basis":"deterministic_asset_type_mapping","classification_confidence":"high","program_name":"Rubitec;GIZ;Bettervest","state":"Ogun","lga":"Ijebu East Central","community":"Gbamu Gbamu","technology":"hybrid_mini_grid","status":"operational","capacity_kw":85.0,"developer":"Rubitec Solar","owner_operator":"Rubitec Solar","financing_source":"Debt;Equity; Grant","geocode_precision":"exact_site","coordinate_source":"Nigeria SE4ALL source coordinates","source_name":"Nigeria SE4ALL Open Data Portal","source_url":"https://data.nigeriase4all.gov.ng/catalogue/#/dataset/1","source_date_accessed":"2026-07-24","evidence_level":"source_portal_record","record_origin":"nigeria_se4all","notes":"raw status='Existing', condition='Operational'","_label":"Gbamu Gbamu","_status_group":"operating","_states":["Ogun"]},"geometry":{"type":"Point","coordinates":[4.21262,6.84754]}},{"type":"Feature","properties":{"asset_id":"se4all-mg-13","asset_name":"OGD Farm E","asset_type":"mini_grid","distributed_energy_class":"community_mini_grid","classification_basis":"deterministic_asset_type_mapping","classification_confidence":"high","state":"Ogun","lga":"Ijebu Ode","community":"OGD Farm E","technology":"solar","status":"commissioned","capacity_kw":15.0,"geocode_precision":"exact_site","coordinate_source":"Nigeria SE4ALL source coordinates","source_name":"Nigeria SE4ALL Open Data Portal","source_url":"https://data.nigeriase4all.gov.ng/catalogue/#/dataset/1","source_date_accessed":"2026-07-24","evidence_level":"source_portal_record","record_origin":"nigeria_se4all","notes":"raw status='Existing', condition='Non Operational'","_label":"OGD Farm E","_status_group":"operating","_states":["Ogun"]},"geometry":{"type":"Point","coordinates":[3.91646,6.82998]}},{"type":"Feature","properties":{"asset_id":"se4all-mg-16","asset_name":"Olooji","asset_type":"mini_grid","distributed_energy_class":"community_mini_grid","classification_basis":"deterministic_asset_type_mapping","classification_confidence":"high","program_name":"REA","state":"Ogun","lga":"Ijebu Ode","community":"Olooji","technology":"hybrid_mini_grid","status":"under_construction","capacity_kw":100.0,"developer":"ACOB","owner_operator":"ACOB","financing_source":"Grant","geocode_precision":"exact_site","coordinate_source":"Nigeria SE4ALL source coordinates","source_name":"Nigeria SE4ALL Open Data Portal","source_url":"https://data.nigeriase4all.gov.ng/catalogue/#/dataset/1","source_date_accessed":"2026-07-24","evidence_level":"source_portal_record","record_origin":"nigeria_se4all","notes":"raw status='Under Construction', condition='Non Operational'","_label":"Olooji","_status_group":"development","_states":["Ogun"]},"geometry":{"type":"Point","coordinates":[4.4409,6.8915]}},{"type":"Feature","properties":{"asset_id":"se4all-mg-58","asset_name":"Gbagira","asset_type":"mini_grid","distributed_energy_class":"community_mini_grid","classification_basis":"deterministic_asset_type_mapping","classification_confidence":"high","program_name":"PIND","state":"Ondo","lga":"Ilaje","community":"Gbagira","technology":"solar","status":"operational","capacity_kw":15.0,"customers_served":18.0,"developer":"A4&T Power Solutions","owner_operator":"A4&T Power Solutions","financing_source":"Equity; Grant","geocode_precision":"exact_site","coordinate_source":"Nigeria SE4ALL source coordinates","source_name":"Nigeria SE4ALL Open Data Portal","source_url":"https://data.nigeriase4all.gov.ng/catalogue/#/dataset/1","source_date_accessed":"2026-07-24","evidence_level":"source_portal_record","record_origin":"nigeria_se4all","notes":"raw status='Existing', condition='Operational'","_label":"Gbagira","_status_group":"operating","_states":["Ondo"]},"geometry":{"type":"Point","coordinates":[4.96799,5.92044]}},{"type":"Feature","properties":{"asset_id":"se4all-mg-6","asset_name":"Ligun Water Side","asset_type":"mini_grid","distributed_energy_class":"community_mini_grid","classification_basis":"deterministic_asset_type_mapping","classification_confidence":"high","program_name":"A4&T Power Solutions","state":"Ondo","community":"Ligun Water Side","technology":"solar","status":"operational","capacity_kw":6.0,"customers_served":44.0,"developer":"A4&T Power Solutions","owner_operator":"A4&T Power Solutions","financing_source":"Equity;Grant","geocode_precision":"exact_site","coordinate_source":"Nigeria SE4ALL source coordinates","source_name":"Nigeria SE4ALL Open Data Portal","source_url":"https://data.nigeriase4all.gov.ng/catalogue/#/dataset/1","source_date_accessed":"2026-07-24","evidence_level":"source_portal_record","record_origin":"nigeria_se4all","notes":"raw status='Existing', condition='Operational'","_label":"Ligun Water Side","_status_group":"operating","_states":["Ondo"]},"geometry":{"type":"Point","coordinates":[4.84169,7.10001]}},{"type":"Feature","properties":{"asset_id":"se4all-mg-8","asset_name":"Obadoore","asset_type":"mini_grid","distributed_energy_class":"community_mini_grid","classification_basis":"deterministic_asset_type_mapping","classification_confidence":"high","program_name":"USADF Allon","state":"Ondo","lga":"Ogbadigbo","community":"Obadoore","technology":"hybrid_mini_grid","status":"under_construction","capacity_kw":30.0,"developer":"ACOB","owner_operator":"ACOB","financing_source":"Equity;Grant","geocode_precision":"exact_site","coordinate_source":"Nigeria SE4ALL source coordinates","source_name":"Nigeria SE4ALL Open Data Portal","source_url":"https://data.nigeriase4all.gov.ng/catalogue/#/dataset/1","source_date_accessed":"2026-07-24","evidence_level":"source_portal_record","record_origin":"nigeria_se4all","notes":"raw status='Under Construction', condition='Non Operational'","_label":"Obadoore","_status_group":"development","_states":["Ondo"]},"geometry":{"type":"Point","coordinates":[4.555,6.722]}},{"type":"Feature","properties":{"asset_id":"se4all-mg-11","asset_name":"Ofetebe","asset_type":"mini_grid","distributed_energy_class":"community_mini_grid","classification_basis":"deterministic_asset_type_mapping","classification_confidence":"high","program_name":"PREEEN Project GEF-SGP;UNDP","state":"Ondo","lga":"Ovia North-East","community":"Ofetebe","technology":"solar","status":"operational","capacity_kw":4.0,"customers_served":33.0,"geocode_precision":"exact_site","coordinate_source":"Nigeria SE4ALL source coordinates","source_name":"Nigeria SE4ALL Open Data Portal","source_url":"https://data.nigeriase4all.gov.ng/catalogue/#/dataset/1","source_date_accessed":"2026-07-24","evidence_level":"source_portal_record","record_origin":"nigeria_se4all","notes":"raw status='Existing', condition='Operational'","_label":"Ofetebe","_status_group":"operating","_states":["Ondo"]},"geometry":{"type":"Point","coordinates":[5.68883,6.74951]}},{"type":"Feature","properties":{"asset_id":"se4all-mg-31","asset_name":"Ugbonla","asset_type":"mini_grid","distributed_energy_class":"community_mini_grid","classification_basis":"deterministic_asset_type_mapping","classification_confidence":"high","program_name":"USADF","state":"Ondo","lga":"Ilaje","community":"Ugbonla","technology":"hybrid_mini_grid","status":"under_construction","capacity_kw":30.0,"customers_served":150.0,"developer":"A4&T Power Solutions","owner_operator":"A4&T Power Solutions","financing_source":"Equity;Grant","geocode_precision":"exact_site","coordinate_source":"Nigeria SE4ALL source coordinates","source_name":"Nigeria SE4ALL Open Data Portal","source_url":"https://data.nigeriase4all.gov.ng/catalogue/#/dataset/1","source_date_accessed":"2026-07-24","evidence_level":"source_portal_record","record_origin":"nigeria_se4all","notes":"raw status='Under Construction', condition='Non Operational'","_label":"Ugbonla","_status_group":"development","_states":["Ondo"]},"geometry":{"type":"Point","coordinates":[4.788,6.14135]}},{"type":"Feature","properties":{"asset_id":"se4all-mg-17","asset_name":"Onibambu & Idi Ita","asset_type":"mini_grid","distributed_energy_class":"community_mini_grid","classification_basis":"deterministic_asset_type_mapping","classification_confidence":"high","program_name":"BoI;UNDP","state":"Osun","lga":"Ife North","community":"Onibambu & Idi Ita","technology":"solar","status":"operational","capacity_kw":24.0,"geocode_precision":"exact_site","coordinate_source":"Nigeria SE4ALL source coordinates","source_name":"Nigeria SE4ALL Open Data Portal","source_url":"https://data.nigeriase4all.gov.ng/catalogue/#/dataset/1","source_date_accessed":"2026-07-24","evidence_level":"source_portal_record","record_origin":"nigeria_se4all","notes":"raw status='Existing', condition='Operational'","_label":"Onibambu & Idi Ita","_status_group":"operating","_states":["Osun"]},"geometry":{"type":"Point","coordinates":[4.42734,7.31813]}},{"type":"Feature","properties":{"asset_id":"se4all-mg-48","asset_name":"Budo Are","asset_type":"mini_grid","distributed_energy_class":"community_mini_grid","classification_basis":"deterministic_asset_type_mapping","classification_confidence":"high","program_name":"REA;REF","state":"Oyo","lga":"Itesiwaju","community":"Budo Are","technology":"hybrid_mini_grid","status":"under_construction","capacity_kw":100.0,"developer":"Havenhill","owner_operator":"Havenhill","geocode_precision":"exact_site","coordinate_source":"Nigeria SE4ALL source coordinates","source_name":"Nigeria SE4ALL Open Data Portal","source_url":"https://data.nigeriase4all.gov.ng/catalogue/#/dataset/1","source_date_accessed":"2026-07-24","evidence_level":"source_portal_record","record_origin":"nigeria_se4all","notes":"raw status='Under Construction', condition='Non Operational'","_label":"Budo Are","_status_group":"development","_states":["Oyo"]},"geometry":{"type":"Point","coordinates":[3.25052,8.34492]}},{"type":"Feature","properties":{"asset_id":"se4all-mg-44","asset_name":"Angwan Rina","asset_type":"mini_grid","distributed_energy_class":"community_mini_grid","classification_basis":"deterministic_asset_type_mapping","classification_confidence":"high","program_name":"GVE;EU NESP","state":"Plateau","lga":"Shendan","community":"Angwan Rina","technology":"solar","status":"operational","capacity_kw":53.0,"customers_served":346.0,"developer":"GVE & Plateau  Govt","owner_operator":"GVE & Plateau  Govt","financing_source":"Equity; Grant","geocode_precision":"exact_site","coordinate_source":"Nigeria SE4ALL source coordinates","source_name":"Nigeria SE4ALL Open Data Portal","source_url":"https://data.nigeriase4all.gov.ng/catalogue/#/dataset/1","source_date_accessed":"2026-07-24","evidence_level":"source_portal_record","record_origin":"nigeria_se4all","notes":"raw status='Existing', condition='Operational'","_label":"Angwan Rina","_status_group":"operating","_states":["Plateau"]},"geometry":{"type":"Point","coordinates":[9.47176,8.68409]}},{"type":"Feature","properties":{"asset_id":"se4all-mg-51","asset_name":"Demshin","asset_type":"mini_grid","distributed_energy_class":"community_mini_grid","classification_basis":"deterministic_asset_type_mapping","classification_confidence":"high","program_name":"GVE;EU NESP","state":"Plateau","lga":"Shendan","community":"Demshin","technology":"solar","status":"operational","capacity_kw":53.0,"customers_served":352.0,"developer":"GVE & Plateau  Govt","owner_operator":"GVE & Plateau  Govt","financing_source":"Equity;Grant","geocode_precision":"exact_site","coordinate_source":"Nigeria SE4ALL source coordinates","source_name":"Nigeria SE4ALL Open Data Portal","source_url":"https://data.nigeriase4all.gov.ng/catalogue/#/dataset/1","source_date_accessed":"2026-07-24","evidence_level":"source_portal_record","record_origin":"nigeria_se4all","notes":"raw status='Existing', condition='Operational'","_label":"Demshin","_status_group":"operating","_states":["Plateau"]},"geometry":{"type":"Point","coordinates":[9.44655,8.68796]}},{"type":"Feature","properties":{"asset_id":"se4all-mg-52","asset_name":"Demshin","asset_type":"mini_grid","distributed_energy_class":"community_mini_grid","classification_basis":"deterministic_asset_type_mapping","classification_confidence":"high","program_name":"GVE;EU NESP","state":"Plateau","lga":"Shendan","community":"Demshin","technology":"solar","status":"operational","capacity_kw":53.0,"customers_served":352.0,"developer":"GVE & Plateau  Govt","owner_operator":"GVE & Plateau  Govt","financing_source":"Equity;Grant","geocode_precision":"exact_site","coordinate_source":"Nigeria SE4ALL source coordinates","source_name":"Nigeria SE4ALL Open Data Portal","source_url":"https://data.nigeriase4all.gov.ng/catalogue/#/dataset/1","source_date_accessed":"2026-07-24","evidence_level":"source_portal_record","record_origin":"nigeria_se4all","notes":"raw status='Existing', condition='Operational'","_label":"Demshin","_status_group":"operating","_states":["Plateau"]},"geometry":{"type":"Point","coordinates":[9.4461,8.6877]}},{"type":"Feature","properties":{"asset_id":"se4all-mg-4","asset_name":"Kuka","asset_type":"mini_grid","distributed_energy_class":"community_mini_grid","classification_basis":"deterministic_asset_type_mapping","classification_confidence":"high","program_name":"All On; ElectriFI","state":"Plateau","lga":"Shendan","community":"Kuka","technology":"hybrid_mini_grid","status":"under_construction","capacity_kw":150.0,"customers_served":2782.0,"developer":"GVE","owner_operator":"GVE","geocode_precision":"exact_site","coordinate_source":"Nigeria SE4ALL source coordinates","source_name":"Nigeria SE4ALL Open Data Portal","source_url":"https://data.nigeriase4all.gov.ng/catalogue/#/dataset/1","source_date_accessed":"2026-07-24","evidence_level":"source_portal_record","record_origin":"nigeria_se4all","notes":"raw status='Under Construction', condition='Non Operational'","_label":"Kuka","_status_group":"development","_states":["Plateau"]},"geometry":{"type":"Point","coordinates":[9.69535,8.43868]}},{"type":"Feature","properties":{"asset_id":"se4all-mg-26","asset_name":"Shimankar","asset_type":"mini_grid","distributed_energy_class":"community_mini_grid","classification_basis":"deterministic_asset_type_mapping","classification_confidence":"high","program_name":"All On, ElectriFI","state":"Plateau","lga":"Shendan","community":"Shimankar","technology":"hybrid_mini_grid","status":"under_construction","capacity_kw":150.0,"customers_served":2296.0,"developer":"GVE","owner_operator":"GVE","geocode_precision":"exact_site","coordinate_source":"Nigeria SE4ALL source coordinates","source_name":"Nigeria SE4ALL Open Data Portal","source_url":"https://data.nigeriase4all.gov.ng/catalogue/#/dataset/1","source_date_accessed":"2026-07-24","evidence_level":"source_portal_record","record_origin":"nigeria_se4all","notes":"raw status='Under Construction', condition='Non Operational'","_label":"Shimankar","_status_group":"development","_states":["Plateau"]},"geometry":{"type":"Point","coordinates":[9.52576,8.62828]}},{"type":"Feature","properties":{"asset_id":"se4all-mg-54","asset_name":"Egbeke (Upgraded)","asset_type":"mini_grid","distributed_energy_class":"community_mini_grid","classification_basis":"deterministic_asset_type_mapping","classification_confidence":"high","program_name":"GVE;Grant from IEEE USA; BoI;UNDP","state":"Rivers","lga":"Etche","community":"Egbeke (Upgraded)","technology":"solar","status":"operational","capacity_kw":52.0,"customers_served":486.0,"developer":"GVE","owner_operator":"GVE","geocode_precision":"exact_site","coordinate_source":"Nigeria SE4ALL source coordinates","source_name":"Nigeria SE4ALL Open Data Portal","source_url":"https://data.nigeriase4all.gov.ng/catalogue/#/dataset/1","source_date_accessed":"2026-07-24","evidence_level":"source_portal_record","record_origin":"nigeria_se4all","notes":"raw status='Existing', condition='Operational'","_label":"Egbeke (Upgraded)","_status_group":"operating","_states":["Rivers"]},"geometry":{"type":"Point","coordinates":[7.216,5.19]}},{"type":"Feature","properties":{"asset_id":"se4all-mg-33","asset_name":"Umuagwu","asset_type":"mini_grid","distributed_energy_class":"community_mini_grid","classification_basis":"deterministic_asset_type_mapping","classification_confidence":"high","program_name":"IEEE USA;BoI;UNDP","state":"Rivers","lga":"Etche","community":"Umuagwu","technology":"solar","status":"operational","capacity_kw":7.0,"developer":"GVE","owner_operator":"GVE","geocode_precision":"exact_site","coordinate_source":"Nigeria SE4ALL source coordinates","source_name":"Nigeria SE4ALL Open Data Portal","source_url":"https://data.nigeriase4all.gov.ng/catalogue/#/dataset/1","source_date_accessed":"2026-07-24","evidence_level":"source_portal_record","record_origin":"nigeria_se4all","notes":"raw status='Existing', condition='Operational'","_label":"Umuagwu","_status_group":"operating","_states":["Rivers"]},"geometry":{"type":"Point","coordinates":[7.11431,5.17231]}},{"type":"Feature","properties":{"asset_id":"se4all-mg-35","asset_name":"Umuode","asset_type":"mini_grid","distributed_energy_class":"community_mini_grid","classification_basis":"deterministic_asset_type_mapping","classification_confidence":"high","program_name":"US Power Africa Inititive;GE Africa; IEEE;GVE","state":"Rivers","lga":"Etche","community":"Umuode","technology":"solar","status":"operational","capacity_kw":11.0,"developer":"GVE","owner_operator":"GVE","geocode_precision":"exact_site","coordinate_source":"Nigeria SE4ALL source coordinates","source_name":"Nigeria SE4ALL Open Data Portal","source_url":"https://data.nigeriase4all.gov.ng/catalogue/#/dataset/1","source_date_accessed":"2026-07-24","evidence_level":"source_portal_record","record_origin":"nigeria_se4all","notes":"raw status='Existing', condition='Operational'","_label":"Umuode","_status_group":"operating","_states":["Rivers"]},"geometry":{"type":"Point","coordinates":[7.10102,5.1117]}},{"type":"Feature","properties":{"asset_id":"se4all-mg-36","asset_name":"Umuokwu","asset_type":"mini_grid","distributed_energy_class":"community_mini_grid","classification_basis":"deterministic_asset_type_mapping","classification_confidence":"high","program_name":"US Power Africa Inititive; GE Africa;IEEE;GVE","state":"Rivers","lga":"Etche","community":"Umuokwu","technology":"solar","status":"operational","capacity_kw":11.0,"developer":"GVE","owner_operator":"GVE","geocode_precision":"exact_site","coordinate_source":"Nigeria SE4ALL source coordinates","source_name":"Nigeria SE4ALL Open Data Portal","source_url":"https://data.nigeriase4all.gov.ng/catalogue/#/dataset/1","source_date_accessed":"2026-07-24","evidence_level":"source_portal_record","record_origin":"nigeria_se4all","notes":"raw status='Existing', condition='Operational'","_label":"Umuokwu","_status_group":"operating","_states":["Rivers"]},"geometry":{"type":"Point","coordinates":[7.16064,5.12957]}},{"type":"Feature","properties":{"asset_id":"se4all-mg-53","asset_name":"Dundaye","asset_type":"mini_grid","distributed_energy_class":"community_mini_grid","classification_basis":"deterministic_asset_type_mapping","classification_confidence":"high","program_name":"WB;Sokoto Government","state":"Sokoto","lga":"Wamako","community":"Dundaye","technology":"solar","status":"operational","capacity_kw":10.0,"developer":"SERC (Sokoto Energy Research Centre)","owner_operator":"SERC (Sokoto Energy Research Centre)","geocode_precision":"exact_site","coordinate_source":"Nigeria SE4ALL source coordinates","source_name":"Nigeria SE4ALL Open Data Portal","source_url":"https://data.nigeriase4all.gov.ng/catalogue/#/dataset/1","source_date_accessed":"2026-07-24","evidence_level":"source_portal_record","record_origin":"nigeria_se4all","notes":"raw status='Existing', condition='Operational'","_label":"Dundaye","_status_group":"operating","_states":["Sokoto"]},"geometry":{"type":"Point","coordinates":[5.22509,13.13476]}},{"type":"Feature","properties":{"asset_id":"se4all-mg-5","asset_name":"Kurdula","asset_type":"mini_grid","distributed_energy_class":"community_mini_grid","classification_basis":"deterministic_asset_type_mapping","classification_confidence":"high","program_name":"EU; NESP","state":"Sokoto","lga":"Gudu","community":"Kurdula","technology":"solar","status":"operational","capacity_kw":80.0,"customers_served":800.0,"developer":"Go Solar","owner_operator":"Go Solar","geocode_precision":"exact_site","coordinate_source":"Nigeria SE4ALL source coordinates","source_name":"Nigeria SE4ALL Open Data Portal","source_url":"https://data.nigeriase4all.gov.ng/catalogue/#/dataset/1","source_date_accessed":"2026-07-24","evidence_level":"source_portal_record","record_origin":"nigeria_se4all","notes":"raw status='Existing', condition='Operational'","_label":"Kurdula","_status_group":"operating","_states":["Sokoto"]},"geometry":{"type":"Point","coordinates":[4.36578,13.57568]}},{"type":"Feature","properties":{"asset_id":"se4all-mg-29","asset_name":"Torankawa","asset_type":"mini_grid","distributed_energy_class":"community_mini_grid","classification_basis":"deterministic_asset_type_mapping","classification_confidence":"high","state":"Sokoto","lga":"Yabo","community":"Torankawa","technology":"solar","status":"operational","capacity_kw":60.0,"geocode_precision":"exact_site","coordinate_source":"Nigeria SE4ALL source coordinates","source_name":"Nigeria SE4ALL Open Data Portal","source_url":"https://data.nigeriase4all.gov.ng/catalogue/#/dataset/1","source_date_accessed":"2026-07-24","evidence_level":"source_portal_record","record_origin":"nigeria_se4all","notes":"raw status='Existing', condition='Operational'","_label":"Torankawa","_status_group":"operating","_states":["Sokoto"]},"geometry":{"type":"Point","coordinates":[4.865,12.656]}},{"type":"Feature","properties":{"asset_id":"se4all-mg-25","asset_name":"Sarkin Kudu","asset_type":"mini_grid","distributed_energy_class":"community_mini_grid","classification_basis":"deterministic_asset_type_mapping","classification_confidence":"high","program_name":"REA;REF","state":"Taraba","lga":"Ibi","community":"Sarkin Kudu","technology":"hybrid_mini_grid","status":"under_construction","capacity_kw":91.0,"customers_served":380.0,"developer":"Gee Dee Global Engineering Ltd","owner_operator":"Gee Dee Global Engineering Ltd","financing_source":"Debt;Equity;Grant","geocode_precision":"exact_site","coordinate_source":"Nigeria SE4ALL source coordinates","source_name":"Nigeria SE4ALL Open Data Portal","source_url":"https://data.nigeriase4all.gov.ng/catalogue/#/dataset/1","source_date_accessed":"2026-07-24","evidence_level":"source_portal_record","record_origin":"nigeria_se4all","notes":"raw status='Under Construction', condition='Non Operational'","_label":"Sarkin Kudu","_status_group":"development","_states":["Taraba"]},"geometry":{"type":"Point","coordinates":[9.69438,8.322]}}]}
