{"type":"FeatureCollection","name":"demand_centers","atlas_release":{"version":"0.11.1","date":"2026-07-30","title":"Interface and Release Hardening"},"metadata":{"description":"Cross-category industrial demand centres covering cement, steel, fertiliser, and refining.","source":"Atlas compilation reconciled against GEM and OpenStreetMap","source_date":"2026-07-21","license":"Derived compilation; OSM-derived elements are ODbL","quality":"C","quality_note":"Most sites were independently checked; eight locations remain less precisely verified.","path":"data/processed/04_demand/demand_centers_nigeria.csv","key":"demand_centers","label":"Demand Centers","category":"demand","category_label":"Demand","record_count":28,"download_url":"https://raw.githubusercontent.com/Diamonds10/nigeria-infrastructure-atlas/main/data/processed/04_demand/demand_centers_nigeria.csv","refresh":{"cadence":"annual_or_source_release","last_checked":"2026-07-21","next_review_due":"2027-07-22","review_status":"current"}},"features":[{"type":"Feature","properties":{"demand_center":"Dangote Fertilizer (Lekki)","category":"fertiliser","state_or_region":"Lagos","status":"operating","notes":"Corrected from an originally supplied coordinate (lon 3.57), which was ~53 km off. That longitude falls outside the Lekki Free Trade Zone entirely (zone spans lon ~3.95-4.02 per OSM); this value matches GEM wiki within 100m","_label":"Dangote Fertilizer (Lekki)","_status_group":"operating","_states":["Lagos"]},"geometry":{"type":"Point","coordinates":[4.04821,6.44183]}},{"type":"Feature","properties":{"demand_center":"Dangote Refinery (Lekki)","category":"refinery","state_or_region":"Lagos","status":"operating","notes":"Corrected from an originally supplied coordinate (lon 3.57) - same ~53 km error pattern as Dangote Fertilizer above","_label":"Dangote Refinery (Lekki)","_status_group":"operating","_states":["Lagos"]},"geometry":{"type":"Point","coordinates":[4.01534,6.45599]}},{"type":"Feature","properties":{"demand_center":"Indorama Eleme (PH)","category":"fertiliser","state_or_region":"Rivers","status":"operating","notes":"Corrected from an originally supplied coordinate that was ~5.5 km off. Matches GEM wiki within 100m","_label":"Indorama Eleme (PH)","_status_group":"operating","_states":["Rivers"]},"geometry":{"type":"Point","coordinates":[7.10297,4.83555]}},{"type":"Feature","properties":{"demand_center":"Indorama Line 3 (PH)","category":"fertiliser","state_or_region":"Rivers","status":"operating","notes":"Expansion line at the same Indorama Eleme site","_label":"Indorama Line 3 (PH)","_status_group":"operating","_states":["Rivers"]},"geometry":{"type":"Point","coordinates":[7.10297,4.83555]}},{"type":"Feature","properties":{"demand_center":"Notore Chemical (Onne)","category":"fertiliser","state_or_region":"Rivers","status":"operating","notes":"No independent plant-level coordinate found - town-level precision only","_label":"Notore Chemical (Onne)","_status_group":"operating","_states":["Rivers"]},"geometry":{"type":"Point","coordinates":[7.15,4.72]}},{"type":"Feature","properties":{"demand_center":"Brass Fertilizer (Bayelsa)","category":"fertiliser","state_or_region":"Bayelsa","status":"proposed","notes":"Coincides with the Brass LNG Terminal site in the GGIT infrastructure data - likely the same industrial site","_label":"Brass Fertilizer (Bayelsa)","_status_group":"proposed","_states":[]},"geometry":{"type":"Point","coordinates":[6.246,4.31]}},{"type":"Feature","properties":{"demand_center":"PH Refinery (Eleme)","category":"refinery","state_or_region":"Rivers","status":"operating","notes":"Refined using Alesa (Eleme LGA), the specific locality cited for this refinery in company/regulatory references","_label":"PH Refinery (Eleme)","_status_group":"operating","_states":["Rivers"]},"geometry":{"type":"Point","coordinates":[7.11719,4.7856]}},{"type":"Feature","properties":{"demand_center":"Warri Refinery","category":"refinery","state_or_region":"Delta","status":"operating","notes":"Corrected from an originally supplied coordinate that was ~7.5 km off","_label":"Warri Refinery","_status_group":"operating","_states":["Delta"]},"geometry":{"type":"Point","coordinates":[5.71643,5.56637]}},{"type":"Feature","properties":{"demand_center":"Kaduna Refinery","category":"refinery","state_or_region":"Kaduna","status":"operating","notes":"Corrected from an originally supplied coordinate that was ~13 km off. Matches Global Energy Observatory within 100m","_label":"Kaduna Refinery","_status_group":"operating","_states":["Kaduna"]},"geometry":{"type":"Point","coordinates":[7.49021,10.41026]}},{"type":"Feature","properties":{"demand_center":"Obajana Cement (Kogi)","category":"cement","state_or_region":"Kogi","status":"operating","notes":"Originally supplied coordinate was already a close match (~1.9 km)","_label":"Obajana Cement (Kogi)","_status_group":"operating","_states":["Kogi"]},"geometry":{"type":"Point","coordinates":[6.42516,7.92733]}},{"type":"Feature","properties":{"demand_center":"Ibese Cement (Ogun)","category":"cement","state_or_region":"Ogun","status":"operating","notes":"Corrected to the actual cement factory node; previously used its co-located captive power station as a proxy","_label":"Ibese Cement (Ogun)","_status_group":"operating","_states":["Ogun"]},"geometry":{"type":"Point","coordinates":[3.05008,7.00457]}},{"type":"Feature","properties":{"demand_center":"Obu Cement (Edo)","category":"cement","state_or_region":"Edo","status":"operating","notes":"Resolved: this BUA plant is a genuinely distinct site from Dangote's Okpella plant below, ~10 km apart. An originally supplied table had given both plants the same coordinate, which was incorrect for both","_label":"Obu Cement (Edo)","_status_group":"operating","_states":["Edo"]},"geometry":{"type":"Point","coordinates":[6.40024,7.35552]}},{"type":"Feature","properties":{"demand_center":"Kalambaina Cement (Sokoto)","category":"cement","state_or_region":"Sokoto","status":"operating","notes":"Matches GEM wiki within 500m","_label":"Kalambaina Cement (Sokoto)","_status_group":"operating","_states":["Sokoto"]},"geometry":{"type":"Point","coordinates":[5.17163,13.05847]}},{"type":"Feature","properties":{"demand_center":"Okpella Cement (Edo)","category":"cement","state_or_region":"Edo","status":"operating","notes":"Dangote Cement plant. Corrected from an originally supplied coordinate that was ~30 km off (and had been conflated with the separate BUA Obu plant above)","_label":"Okpella Cement (Edo)","_status_group":"operating","_states":["Edo"]},"geometry":{"type":"Point","coordinates":[6.345,7.27196]}},{"type":"Feature","properties":{"demand_center":"Itori Cement (Ogun)","category":"cement","state_or_region":"Ogun","status":"unknown","notes":"Operator not yet confirmed; no OSM match found","_label":"Itori Cement (Ogun)","_status_group":"other","_states":["Ogun"]},"geometry":{"type":"Point","coordinates":[3.18,6.86]}},{"type":"Feature","properties":{"demand_center":"Mfamosing Cement (Cross River)","category":"cement","state_or_region":"Cross River","status":"operating","notes":"Corrected from an originally supplied coordinate that was ~16 km off","_label":"Mfamosing Cement (Cross River)","_status_group":"operating","_states":["Cross River"]},"geometry":{"type":"Point","coordinates":[8.51471,5.06441]}},{"type":"Feature","properties":{"demand_center":"Gboko Cement (Benue)","category":"cement","state_or_region":"Benue","status":"operating","notes":"Corrected from an originally supplied coordinate that was ~8 km off","_label":"Gboko Cement (Benue)","_status_group":"operating","_states":["Benue"]},"geometry":{"type":"Point","coordinates":[8.97376,7.41132]}},{"type":"Feature","properties":{"demand_center":"Iluagba Cement (Kogi)","category":"cement","state_or_region":"Kogi","status":"unknown","notes":"Operator not yet confirmed; no OSM match found","_label":"Iluagba Cement (Kogi)","_status_group":"other","_states":["Kogi"]},"geometry":{"type":"Point","coordinates":[6.7,7.88]}},{"type":"Feature","properties":{"demand_center":"Ewekoro Cement (Ogun)","category":"cement","state_or_region":"Ogun","status":"operating","notes":"Midpoint of Lafarge's Ewekoro 1 (6.893522/3.205342) and Ewekoro 2 (6.902791/3.207143) lines","_label":"Ewekoro Cement (Ogun)","_status_group":"operating","_states":["Ogun"]},"geometry":{"type":"Point","coordinates":[3.2062,6.8982]}},{"type":"Feature","properties":{"demand_center":"Sagamu Cement (Ogun)","category":"cement","state_or_region":"Ogun","status":"operating","notes":"Lafarge Africa plant; no OSM match found","_label":"Sagamu Cement (Ogun)","_status_group":"operating","_states":["Ogun"]},"geometry":{"type":"Point","coordinates":[3.65,6.85]}},{"type":"Feature","properties":{"demand_center":"Ashaka Cement (Gombe)","category":"cement","state_or_region":"Gombe","status":"operating","notes":"Corrected from an originally supplied coordinate that was ~9.5 km off","_label":"Ashaka Cement (Gombe)","_status_group":"operating","_states":["Gombe"]},"geometry":{"type":"Point","coordinates":[11.47554,10.93061]}},{"type":"Feature","properties":{"demand_center":"Onigbedu Cement (Ogun)","category":"cement","state_or_region":"Ogun","status":"unknown","notes":"Operator not yet confirmed; no OSM match found","_label":"Onigbedu Cement (Ogun)","_status_group":"other","_states":["Ogun"]},"geometry":{"type":"Point","coordinates":[3.15,6.95]}},{"type":"Feature","properties":{"demand_center":"Ajaokuta Steel (Kogi)","category":"steel","state_or_region":"Kogi","status":"construction","notes":"Matches GEM Steel Plant Tracker within 500m. Long-stalled despite \"construction\" status label","_label":"Ajaokuta Steel (Kogi)","_status_group":"development","_states":["Kogi"]},"geometry":{"type":"Point","coordinates":[6.69276,7.50712]}},{"type":"Feature","properties":{"demand_center":"Premium Steel (Delta)","category":"steel","state_or_region":"Delta","status":"operating","notes":"Corrected from an originally supplied coordinate that was ~33 km off. This is the same site as GEM's \"Delta Steel Company Warri plant\" record (same owner, Premium Steel and Mines Limited) - confirms they refer to one plant, not two","_label":"Premium Steel (Delta)","_status_group":"operating","_states":["Delta"]},"geometry":{"type":"Point","coordinates":[5.77001,5.481]}},{"type":"Feature","properties":{"demand_center":"African Foundries (Ogun)","category":"steel","state_or_region":"Ogun","status":"operating","notes":"No OSM match found","_label":"African Foundries (Ogun)","_status_group":"operating","_states":["Ogun"]},"geometry":{"type":"Point","coordinates":[3.35,6.75]}},{"type":"Feature","properties":{"demand_center":"Inner Galaxy Steel (Abia/Ogun)","category":"steel","state_or_region":"Abia/Ogun","status":"operating","notes":"State attribution uncertain (given as Abia/Ogun); no OSM match found","_label":"Inner Galaxy Steel (Abia/Ogun)","_status_group":"operating","_states":["Abia"]},"geometry":{"type":"Point","coordinates":[7.37,5.1]}},{"type":"Feature","properties":{"demand_center":"Squire Steel (Kogi)","category":"steel","state_or_region":"Kogi","status":"operating","notes":"No OSM match found","_label":"Squire Steel (Kogi)","_status_group":"operating","_states":["Kogi"]},"geometry":{"type":"Point","coordinates":[6.6,7.7]}},{"type":"Feature","properties":{"demand_center":"Jindal Steel (Planned)","category":"steel","state_or_region":"Kogi (approx.)","status":"planned","notes":"Planned/announced project, not yet built","_label":"Jindal Steel (Planned)","_status_group":"proposed","_states":["Niger"]},"geometry":{"type":"Point","coordinates":[6.5,8.5]}}]}
