{"type":"FeatureCollection","name":"fields_gas","atlas_release":{"version":"0.10.0","date":"2026-07-25","title":"Licensed Historical Security Context"},"metadata":{"description":"Site-level Nigerian gas-producing fields classified gas-only or oil-and-gas by GOGET, with status, operator, and ownership context.","source":"Global Energy Monitor / GreenInfo Network GOGET mirror","source_date":"2026-07-21","license":"CC BY 4.0 inferred; verify before redistribution","quality":"B","quality_note":"147 of 180 GOGET field points are source-classified gas-only (2) or oil-and-gas (145). This non-overlapping display group replaces the misleading gas-only count. GOGET's fuel_type still omits some known gas-producing sites that it labels oil; use the SE4ALL field boundaries and source caveat alongside this layer.","path":"data/processed/01_resource/goget_fields_nigeria_2023-08.csv","key":"fields_gas","label":"Gas-producing Fields · Source Classified","category":"resource","category_label":"Resource","record_count":147,"download_url":"https://raw.githubusercontent.com/Diamonds10/nigeria-infrastructure-atlas/main/data/processed/01_resource/goget_fields_nigeria_2023-08.csv","refresh":{"cadence":"annual_or_source_release","last_checked":"2026-07-21","next_review_due":"2027-07-22","review_status":"current"}},"features":[{"type":"Feature","properties":{"project":"Abiteye","status":"operating","operator":"Chevron Nigeria Ltd","fuel_type":"oil and gas","discovery_year":1970.0,"url":"https://www.gem.wiki/Abiteye_Oil_and_Gas_Field_(Nigeria)","_label":"Abiteye","_status_group":"operating","_year":1970,"_year_label":"Discovery year","_states":["Delta"]},"geometry":{"type":"Point","coordinates":[5.296,5.663]}},{"type":"Feature","properties":{"project":"Abo","status":"operating","operator":"Nigerian Agip Exploration","owner":"Eni S.P.A. (85%);Oando Energy Resources (15%)","fuel_type":"oil and gas","start_year":"2003","url":"https://www.gem.wiki/Abo_Oil_and_Gas_Field_(Nigeria)","_label":"Abo","_status_group":"operating","_states":[]},"geometry":{"type":"Point","coordinates":[4.466,5.761]}},{"type":"Feature","properties":{"project":"Adanga","status":"operating","operator":"Addax","fuel_type":"oil and gas","discovery_year":1980.0,"url":"https://www.gem.wiki/Adanga_Oil_and_Gas_Field_(Nigeria)","_label":"Adanga","_status_group":"operating","_year":1980,"_year_label":"Discovery year","_states":[]},"geometry":{"type":"Point","coordinates":[8.339,4.308]}},{"type":"Feature","properties":{"project":"Adanga South","status":"operating","operator":"Addax","fuel_type":"oil and gas","url":"https://www.gem.wiki/Adanga_South_Oil_and_Gas_Field_(Nigeria)","_label":"Adanga South","_status_group":"operating","_states":["Abia"]},"geometry":{"type":"Point","coordinates":[7.2907,4.8765]}},{"type":"Feature","properties":{"project":"Adua","status":"operating","operator":"Mobil","fuel_type":"oil and gas","discovery_year":1967.0,"url":"https://www.gem.wiki/Adua_Oil_and_Gas_Field_(Nigeria)","_label":"Adua","_status_group":"operating","_year":1967,"_year_label":"Discovery year","_states":[]},"geometry":{"type":"Point","coordinates":[7.6988,4.1078]}},{"type":"Feature","properties":{"project":"Agbada","status":"operating","operator":"TNOG Oil and Gas Limited","owner":"TNOG Oil and Gas Limited (45%);Nigerian National Petroleum Corporation (55%)","fuel_type":"oil and gas","discovery_year":1960.0,"url":"https://www.gem.wiki/Agbada_Oil_and_Gas_Field_(Nigeria)","_label":"Agbada","_status_group":"operating","_year":1960,"_year_label":"Discovery year","_states":["Rivers"]},"geometry":{"type":"Point","coordinates":[6.975,4.937]}},{"type":"Feature","properties":{"project":"Agbami","status":"operating","operator":"Chevron","owner":"Chevron (67.3%);Equinor (20.2%);Petrobras (12.5%)","fuel_type":"oil and gas","discovery_year":1998.0,"start_year":"2008","url":"https://www.gem.wiki/Agbami_Oil_and_Gas_Field_(Nigeria)","_label":"Agbami","_status_group":"operating","_year":1998,"_year_label":"Discovery year","_states":[]},"geometry":{"type":"Point","coordinates":[5.55,3.429]}},{"type":"Feature","properties":{"project":"Agbara","status":"operating","operator":"Agip Energy and Natural Resources","fuel_type":"oil and gas","discovery_year":1981.0,"url":"https://www.gem.wiki/Agbara_Oil_and_Gas_Field_(Nigeria)","_label":"Agbara","_status_group":"operating","_year":1981,"_year_label":"Discovery year","_states":[]},"geometry":{"type":"Point","coordinates":[6.386,3.928]}},{"type":"Feature","properties":{"project":"Akaso","status":"operating","operator":"Eroton","owner":"Eroton Exploration & Production Company (45%);Nigerian National Petroleum Corporation (55%)","fuel_type":"oil and gas","url":"https://www.gem.wiki/Akaso_Oil_and_Gas_Field_(Nigeria)","_label":"Akaso","_status_group":"operating","_states":["Rivers"]},"geometry":{"type":"Point","coordinates":[7.0103,4.5357]}},{"type":"Feature","properties":{"project":"Akpo","status":"operating","operator":"TotalEnergies Upstream Nigeria Limited","owner":"TotalEnergies Upstream Nigeria Limited (24%);Nigerian National Petroleum Corporation (10%);South Atlantic Petroleum (SAPETRO) (5%);CNOOC Limited (45%);Petrobras (16%)","fuel_type":"oil and gas","discovery_year":2000.0,"start_year":"2009","url":"https://www.gem.wiki/Akpo_Oil_and_Gas_Field_(Nigeria)","_label":"Akpo","_status_group":"operating","_year":2000,"_year_label":"Discovery year","_states":[]},"geometry":{"type":"Point","coordinates":[6.811,3.087]}},{"type":"Feature","properties":{"project":"Amenam-Kpono","status":"operating","operator":"TotalEnergies E&P","owner":"Nigerian National Petroleum Corporation (60%);TotalEnergies E&P Nigeria Limited (40%)","fuel_type":"oil and gas","discovery_year":1990.0,"start_year":"2003","url":"https://www.gem.wiki/Amenam-Kpono_Oil_and_Gas_Field_(Nigeria)","_label":"Amenam-Kpono","_status_group":"operating","_year":1990,"_year_label":"Discovery year","_states":[]},"geometry":{"type":"Point","coordinates":[7.3064,4.0855]}},{"type":"Feature","properties":{"project":"Amoji/Matsogo/Igbolo","status":"operating","operator":"Swift Oil Limited","owner":"Swift Oil Limited (60%)","fuel_type":"oil and gas","url":"https://www.gem.wiki/Amoji/Matsogo/Igbolo_Oil_and_Gas_Project_(Nigeria)","_label":"Amoji/Matsogo/Igbolo","_status_group":"operating","_states":["Nasarawa"]},"geometry":{"type":"Point","coordinates":[7.5529,8.6806]}},{"type":"Feature","properties":{"project":"Anieze","status":"operating","operator":"Sterling Exploration and Energy Production Limited","owner":"Sterling Exploration and Energy Production Limited (80%);Allene Energy (20%)","fuel_type":"oil and gas","url":"https://www.gem.wiki/Anieze_Oil_and_Gas_Field_(Nigeria)","_label":"Anieze","_status_group":"operating","_states":["Nasarawa"]},"geometry":{"type":"Point","coordinates":[7.5529,8.6806]}},{"type":"Feature","properties":{"project":"Anyala-Madu","status":"operating","operator":"FIRST Exploration & Production","owner":"FIRST Exploration & Production (40%);Nigerian National Petroleum Corporation (60%)","fuel_type":"oil and gas","discovery_year":1972.0,"start_year":"2020","url":"https://www.gem.wiki/Anyala-Madu_Oil_and_Gas_Field_(Nigeria)","_label":"Anyala-Madu","_status_group":"operating","_year":1972,"_year_label":"Discovery year","_states":[]},"geometry":{"type":"Point","coordinates":[5.836,4.0105]}},{"type":"Feature","properties":{"project":"Anz","status":"operating","operator":"Sterling Exploration and Energy Production Company","fuel_type":"oil and gas","url":"https://www.gem.wiki/Anz_Oil_and_Gas_Field_(Nigeria)","_label":"Anz","_status_group":"operating","_states":["Nasarawa"]},"geometry":{"type":"Point","coordinates":[7.5529,8.6806]}},{"type":"Feature","properties":{"project":"Asabo","status":"operating","operator":"Mobil","fuel_type":"oil and gas","discovery_year":1966.0,"url":"https://www.gem.wiki/Asabo_Oil_and_Gas_Field_(Nigeria)","_label":"Asabo","_status_group":"operating","_year":1966,"_year_label":"Discovery year","_states":[]},"geometry":{"type":"Point","coordinates":[7.772,4.096]}},{"type":"Feature","properties":{"project":"Ashaka","status":"operating","operator":"Nigerian Agip Oil Company","fuel_type":"oil and gas","url":"https://www.gem.wiki/Ashaka_Oil_and_Gas_Field_(Nigeria)","_label":"Ashaka","_status_group":"operating","_states":[]},"geometry":{"type":"Point","coordinates":[8.0072,4.0987]}},{"type":"Feature","properties":{"project":"Assa North-Ohaji South","status":"in development","operator":"Shell Petroleum Development Company of Nigeria (Assa North), Seplat (Ohaji South)","owner":"Nigerian Petroleum Development Company (57.5%);Seplat Petroleum (20%);Shell Petroleum Development Company of Nigeria (15%);Eni S.P.A. (2.5%);TotalEnergies (5%)","fuel_type":"oil and gas","discovery_year":1992.0,"start_year":"2021 (expected)","url":"https://www.gem.wiki/Assa_North-Ohaji_South_Oil_and_Gas_Project_(Nigeria)","_label":"Assa North-Ohaji South","_status_group":"development","_year":1992,"_year_label":"Discovery year","_states":["Edo"]},"geometry":{"type":"Point","coordinates":[5.438,6.8501]}},{"type":"Feature","properties":{"project":"Awawa","status":"operating","operator":"Mobil","owner":"ExxonMobil;Nigerian National Petroleum Corporation","fuel_type":"oil and gas","discovery_year":2010.0,"url":"https://www.gem.wiki/Awawa_Oil_and_Gas_Field_(Nigeria)","_label":"Awawa","_status_group":"operating","_year":2010,"_year_label":"Discovery year","_states":[]},"geometry":{"type":"Point","coordinates":[7.4534,3.9184]}},{"type":"Feature","properties":{"project":"Awoba (Eroton)","status":"operating","operator":"Eroton","owner":"Eroton Exploration & Production Company (45%);Nigerian National Petroleum Corporation (55%)","fuel_type":"oil and gas","url":"https://www.gem.wiki/Awoba_(Eroton)_Oil_and_Gas_Field_(Nigeria)","_label":"Awoba (Eroton)","_status_group":"operating","_states":["Rivers"]},"geometry":{"type":"Point","coordinates":[6.811,4.536]}},{"type":"Feature","properties":{"project":"Awoba/Ekulama 1 & 2 (Newcross)","status":"operating","operator":"Newcross","owner":"Newcross (45%);Nigerian National Petroleum Corporation (55%)","fuel_type":"oil and gas","discovery_year":1958.0,"start_year":"1972","url":"https://www.gem.wiki/AwobaEkulama_1_&_2_(Newcross)_Oil_and_Gas_Project_(Nigeria)","_label":"Awoba/Ekulama 1 & 2 (Newcross)","_status_group":"operating","_year":1958,"_year_label":"Discovery year","_states":["Rivers"]},"geometry":{"type":"Point","coordinates":[6.811,4.536]}},{"type":"Feature","properties":{"project":"Azuzuama","status":"operating","operator":"Nigerian Agip Oil Company","fuel_type":"oil and gas","url":"https://www.gem.wiki/Azuzuama_Oil_and_Gas_Field_(Nigeria)","_label":"Azuzuama","_status_group":"operating","_states":["Bayelsa"]},"geometry":{"type":"Point","coordinates":[5.904,4.727]}},{"type":"Feature","properties":{"project":"Batan (NPDC)","status":"operating","operator":"Nigerian Petroleum Development Company","fuel_type":"oil and gas","url":"https://www.gem.wiki/Batan_(NPDC)_Oil_and_Gas_Field_(Nigeria)","_label":"Batan (NPDC)","_status_group":"operating","_states":["Delta"]},"geometry":{"type":"Point","coordinates":[5.4804,5.5736]}},{"type":"Feature","properties":{"project":"Batan (Naconde)","status":"operating","operator":"Naconde","fuel_type":"oil and gas","url":"https://www.gem.wiki/Batan_(Naconde)_Oil_and_Gas_Field_(Nigeria)","_label":"Batan (Naconde)","_status_group":"operating","_states":["Delta"]},"geometry":{"type":"Point","coordinates":[5.4804,5.5736]}},{"type":"Feature","properties":{"project":"Belema","status":"operating","operator":"Shell Petroleum Development Company of Nigeria","fuel_type":"oil and gas","url":"https://www.gem.wiki/Belema_Oil_and_Gas_Field_(Nigeria)","_label":"Belema","_status_group":"operating","_states":["Rivers"]},"geometry":{"type":"Point","coordinates":[6.616,4.4]}},{"type":"Feature","properties":{"project":"Benin River","status":"operating","operator":"Chevron","fuel_type":"oil and gas","discovery_year":1990.0,"url":"https://www.gem.wiki/Benin_River_Oil_and_Gas_Field_(Nigeria)","_label":"Benin River","_status_group":"operating","_year":1990,"_year_label":"Discovery year","_states":["Delta"]},"geometry":{"type":"Point","coordinates":[5.1888,5.8731]}},{"type":"Feature","properties":{"project":"Benisede","status":"operating","operator":"Shell Petroleum Development Company of Nigeria","owner":"Shell (30%);Nigerian National Petroleum Corporation (55%);TotalEnergies (10%);Eni S.P.A. (5%)","fuel_type":"oil and gas","start_year":"1976","url":"https://www.gem.wiki/Benisede_Oil_and_Gas_Field_(Nigeria)","_label":"Benisede","_status_group":"operating","_states":["Delta"]},"geometry":{"type":"Point","coordinates":[5.665,5.027]}},{"type":"Feature","properties":{"project":"Bonga","status":"operating","operator":"Shell Nigeria Exploration and Production Company","owner":"Shell (55%);Esso (20%);TotalEnergies (12.5%);Agip (12.5%)","fuel_type":"oil and gas","discovery_year":1993.0,"start_year":"2005","url":"https://www.gem.wiki/Bonga_Oil_and_Gas_Field_(Nigeria)","_label":"Bonga","_status_group":"operating","_year":1993,"_year_label":"Discovery year","_states":[]},"geometry":{"type":"Point","coordinates":[4.668,4.498]}},{"type":"Feature","properties":{"project":"Bonga Southwest Aparo","status":"in development","operator":"Shell Nigeria Exploration and Production Company","owner":"Shell Petroleum Development Company of Nigeria (55%);Esso (20%);TotalEnergies (12.5%);Agip (12.5%)","fuel_type":"oil and gas","start_year":"2026 (expected)","url":"https://www.gem.wiki/Bonga_Southwest_Aparo_Oil_and_Gas_Field_(Nigeria)","_label":"Bonga Southwest Aparo","_status_group":"development","_states":[]},"geometry":{"type":"Point","coordinates":[4.5306,4.4634]}},{"type":"Feature","properties":{"project":"Buguma Creek","status":"in development","operator":"Eroton","owner":"Eroton Exploration & Production Company (45%);Sahara Field Production Limited (16.2%);San Leon Energy PLC (9.7%);other (29.1%)","fuel_type":"oil and gas","url":"https://www.gem.wiki/Buguma_Creek_Oil_and_Gas_Field_(Nigeria)","_label":"Buguma Creek","_status_group":"development","_states":["Rivers"]},"geometry":{"type":"Point","coordinates":[6.9047,4.753]}},{"type":"Feature","properties":{"project":"Cawthorne Channel","status":"operating","operator":"Eroton","owner":"Eroton Exploration & Production Company (45%);Nigerian National Petroleum Corporation (55%)","fuel_type":"oil and gas","url":"https://www.gem.wiki/Cawthorne_Channel_Oil_and_Gas_Field_(Nigeria)","_label":"Cawthorne Channel","_status_group":"operating","_states":["Rivers"]},"geometry":{"type":"Point","coordinates":[7.0457,4.5514]}},{"type":"Feature","properties":{"project":"Clough Creek","status":"operating","operator":"Nigerian Agip Oil Company","fuel_type":"oil and gas","url":"https://www.gem.wiki/Clough_Creek_Oil_and_Gas_Field_(Nigeria)","_label":"Clough Creek","_status_group":"operating","_states":["Bayelsa"]},"geometry":{"type":"Point","coordinates":[5.6844,4.8633]}},{"type":"Feature","properties":{"project":"Delta","status":"operating","operator":"Chevron","owner":"Chevron (40%)","fuel_type":"oil and gas","discovery_year":1965.0,"url":"https://www.gem.wiki/Delta_Oil_and_Gas_Field_(Nigeria)","_label":"Delta","_status_group":"operating","_year":1965,"_year_label":"Discovery year","_states":["Delta"]},"geometry":{"type":"Point","coordinates":[5.167,5.65]}},{"type":"Feature","properties":{"project":"Delta South","status":"operating","operator":"Chevron","fuel_type":"oil and gas","discovery_year":1965.0,"url":"https://www.gem.wiki/Delta_South_Oil_and_Gas_Field_(Nigeria)","_label":"Delta South","_status_group":"operating","_year":1965,"_year_label":"Discovery year","_states":[]},"geometry":{"type":"Point","coordinates":[5.1354,5.6088]}},{"type":"Feature","properties":{"project":"Dibi","status":"operating","operator":"Chevron","owner":"Chevron (40%);Nigerian National Petroleum Corporation (60%)","fuel_type":"oil and gas","discovery_year":1995.0,"start_year":"1998","url":"https://www.gem.wiki/Dibi_Oil_and_Gas_Field_(Nigeria)","_label":"Dibi","_status_group":"operating","_year":1995,"_year_label":"Discovery year","_states":["Delta"]},"geometry":{"type":"Point","coordinates":[5.2113,5.8214]}},{"type":"Feature","properties":{"project":"Ea","status":"operating","operator":"Shell Petroleum Development Company of Nigeria","owner":"Nigerian National Petroleum Corporation (55%);Shell (30%);TotalEnergies E&P Nigeria Limited (10%);Eni S.P.A. (5%)","fuel_type":"oil and gas","discovery_year":1965.0,"start_year":"2002","url":"https://www.gem.wiki/Ea_Oil_and_Gas_Field_(Nigeria)","_label":"Ea","_status_group":"operating","_year":1965,"_year_label":"Discovery year","_states":[]},"geometry":{"type":"Point","coordinates":[5.349,4.813]}},{"type":"Feature","properties":{"project":"Ebendo/Obodeti","status":"operating","operator":"Energia","fuel_type":"oil and gas","url":"https://www.gem.wiki/Ebendo_Obodeti_Oil_and_Gas_Project_(Nigeria)","_label":"Ebendo/Obodeti","_status_group":"operating","_states":["Nasarawa"]},"geometry":{"type":"Point","coordinates":[7.5529,8.6806]}},{"type":"Feature","properties":{"project":"Ebocha","status":"operating","operator":"Nigerian Agip Oil Company","fuel_type":"oil and gas","url":"https://www.gem.wiki/Ebocha_Oil_and_Gas_Field_(Nigeria)","_label":"Ebocha","_status_group":"operating","_states":["Nasarawa"]},"geometry":{"type":"Point","coordinates":[7.5529,8.6806]}},{"type":"Feature","properties":{"project":"Ebok","status":"operating","operator":"Oriental Energy","owner":"Oriental Energy Resources Limited (100%)","fuel_type":"oil and gas","discovery_year":1968.0,"start_year":"2011","url":"https://www.gem.wiki/Ebok_Oil_and_Gas_Field_(Nigeria)","_label":"Ebok","_status_group":"operating","_year":1968,"_year_label":"Discovery year","_states":[]},"geometry":{"type":"Point","coordinates":[8.153,4.099]}},{"type":"Feature","properties":{"project":"Ebughu","status":"operating","operator":"Addax","fuel_type":"oil and gas","discovery_year":1983.0,"url":"https://www.gem.wiki/Ebughu_Oil_and_Gas_Field_(Nigeria)","_label":"Ebughu","_status_group":"operating","_year":1983,"_year_label":"Discovery year","_states":[]},"geometry":{"type":"Point","coordinates":[8.3517,4.282]}},{"type":"Feature","properties":{"project":"Edikan","status":"operating","operator":"TotalEnergies E&P","owner":"Nigerian National Petroleum Corporation (60%);TotalEnergies (40%)","fuel_type":"oil and gas","url":"https://www.gem.wiki/Edikan_Oil_and_Gas_Field_(Nigeria)","_label":"Edikan","_status_group":"operating","_states":[]},"geometry":{"type":"Point","coordinates":[7.693,4.0365]}},{"type":"Feature","properties":{"project":"Edop","status":"operating","operator":"Mobil","owner":"ExxonMobil (40%);Nigerian National Petroleum Corporation (60%)","fuel_type":"oil and gas","discovery_year":1981.0,"url":"https://www.gem.wiki/Edop_Oil_and_Gas_Field_(Nigeria)","_label":"Edop","_status_group":"operating","_year":1981,"_year_label":"Discovery year","_states":[]},"geometry":{"type":"Point","coordinates":[7.9749,4.1496]}},{"type":"Feature","properties":{"project":"Egbaoma","status":"operating","operator":"Platform","fuel_type":"oil and gas","url":"https://www.gem.wiki/Egbaoma_Oil_and_Gas_Field_(Nigeria)","_label":"Egbaoma","_status_group":"operating","_states":["Nasarawa"]},"geometry":{"type":"Point","coordinates":[7.5529,8.6806]}},{"type":"Feature","properties":{"project":"Egwa","status":"operating","operator":"Shell Petroleum Development Company of Nigeria","owner":"Neconde Energy Limited (45%);Kulczyk Oil Ventures (9%);other (46%)","fuel_type":"oil and gas","start_year":"1969","url":"https://www.gem.wiki/Egwa_Oil_and_Gas_Field_(Nigeria)","_label":"Egwa","_status_group":"operating","_states":["Delta"]},"geometry":{"type":"Point","coordinates":[5.437,5.622]}},{"type":"Feature","properties":{"project":"Ekedei","status":"in development","operator":"Nigerian Agip Oil Company","fuel_type":"oil and gas","url":"https://www.gem.wiki/Ekedei_Oil_and_Gas_Field_(Nigeria)","_label":"Ekedei","_status_group":"development","_states":["Ondo"]},"geometry":{"type":"Point","coordinates":[4.9687,6.239]}},{"type":"Feature","properties":{"project":"Ekpe","status":"operating","operator":"Mobil","fuel_type":"oil and gas","url":"https://www.gem.wiki/Ekpe_Oil_and_Gas_Field_(Nigeria)","_label":"Ekpe","_status_group":"operating","_states":["Nasarawa"]},"geometry":{"type":"Point","coordinates":[7.5529,8.6806]}},{"type":"Feature","properties":{"project":"Eku","status":"operating","operator":"Mobil","fuel_type":"oil and gas","url":"https://www.gem.wiki/Eku_Oil_and_Gas_Field_(Nigeria)","_label":"Eku","_status_group":"operating","_states":[]},"geometry":{"type":"Point","coordinates":[8.052,4.251]}},{"type":"Feature","properties":{"project":"Enang","status":"operating","operator":"Mobil","fuel_type":"oil and gas","discovery_year":1968.0,"url":"https://www.gem.wiki/Enang_Oil_and_Gas_Field_(Nigeria)","_label":"Enang","_status_group":"operating","_year":1968,"_year_label":"Discovery year","_states":[]},"geometry":{"type":"Point","coordinates":[7.892,4.193]}},{"type":"Feature","properties":{"project":"Enang West","status":"operating","operator":"Mobil","fuel_type":"oil and gas","discovery_year":2001.0,"url":"https://www.gem.wiki/Enang_West_Oil_and_Gas_Field_(Nigeria)","_label":"Enang West","_status_group":"operating","_year":2001,"_year_label":"Discovery year","_states":["Nasarawa"]},"geometry":{"type":"Point","coordinates":[7.5529,8.6806]}},{"type":"Feature","properties":{"project":"Erha/Erha North","status":"operating","operator":"Esso","owner":"ExxonMobil (56.2%);Shell Nigeria Exploration & Production Co. Ltd. (43.8%)","fuel_type":"oil and gas","discovery_year":1999.0,"start_year":"2006","url":"https://www.gem.wiki/ErhaErha_North_Oil_and_Gas_Field_(Nigeria)","_label":"Erha/Erha North","_status_group":"operating","_year":1999,"_year_label":"Discovery year","_states":[]},"geometry":{"type":"Point","coordinates":[4.343,5.372]}},{"type":"Feature","properties":{"project":"Etelebou","status":"operating","operator":"Shell Petroleum Development Company of Nigeria","owner":"Shell Petroleum Development Company of Nigeria (30%);Nigerian National Petroleum Corporation (55%);TotalEnergies E&P Nigeria Limited (10%);Nigerian Agip Oil Company (5%)","fuel_type":"oil and gas","url":"https://www.gem.wiki/Etelebou_Oil_and_Gas_Field_(Nigeria)","_label":"Etelebou","_status_group":"operating","_states":["Bayelsa"]},"geometry":{"type":"Point","coordinates":[6.347,5.025]}},{"type":"Feature","properties":{"project":"Etim/Etimc","status":"operating","operator":"Mobil","owner":"ExxonMobil (40%);Nigerian National Petroleum Corporation (60%)","fuel_type":"gas","discovery_year":1968.0,"start_year":"1972","url":"https://www.gem.wiki/Etim_Etimc_Gas_Field_(Nigeria)","_label":"Etim/Etimc","_status_group":"operating","_year":1968,"_year_label":"Discovery year","_states":[]},"geometry":{"type":"Point","coordinates":[8.011,4.106]}},{"type":"Feature","properties":{"project":"Ewan","status":"operating","operator":"Chevron","owner":"Chevron (40%)","fuel_type":"oil and gas","url":"https://www.gem.wiki/Ewan_Oil_and_Gas_Field_(Nigeria)","_label":"Ewan","_status_group":"operating","_states":[]},"geometry":{"type":"Point","coordinates":[4.942,5.884]}},{"type":"Feature","properties":{"project":"Forcados Yokri","status":"operating","operator":"Shell Petroleum Development Company of Nigeria","owner":"Shell (30%);Nigerian National Petroleum Corporation (70%)","fuel_type":"oil and gas","discovery_year":1968.0,"start_year":"1971","url":"https://www.gem.wiki/Forcados_Yokri_Oil_and_Gas_Field_(Nigeria)","_label":"Forcados Yokri","_status_group":"operating","_year":1968,"_year_label":"Discovery year","_states":[]},"geometry":{"type":"Point","coordinates":[5.3265,5.3786]}},{"type":"Feature","properties":{"project":"Frontier Oil","status":"operating","operator":"Frontier Oil","fuel_type":"oil and gas","url":"https://www.gem.wiki/Frontier_Oil_and_Gas_Field_(Nigeria)","_label":"Frontier Oil","_status_group":"operating","_states":["Nasarawa"]},"geometry":{"type":"Point","coordinates":[7.5529,8.6806]}},{"type":"Feature","properties":{"project":"Funiwa","status":"operating","operator":"Chevron","fuel_type":"oil and gas","discovery_year":1978.0,"url":"https://www.gem.wiki/Funiwa_Oil_and_Gas_Field_(Nigeria)","_label":"Funiwa","_status_group":"operating","_year":1978,"_year_label":"Discovery year","_states":[]},"geometry":{"type":"Point","coordinates":[5.79,4.336]}},{"type":"Feature","properties":{"project":"Gbaran-Ubie Phase 2","status":"operating","operator":"Shell Petroleum Development Company of Nigeria","fuel_type":"oil and gas","start_year":"2017","url":"https://www.gem.wiki/Gbaran-Ubie_Phase_2_Oil_and_Gas_Project_(Nigeria)","_label":"Gbaran-Ubie Phase 2","_status_group":"operating","_states":["Bayelsa"]},"geometry":{"type":"Point","coordinates":[6.2877,4.9091]}},{"type":"Feature","properties":{"project":"HA","status":"in development","operator":"Shell","owner":"Shell (30%)","fuel_type":"oil and gas","start_year":"2024 (expected)","url":"https://www.gem.wiki/HA_Oil_and_Gas_Field_(Nigeria)","_label":"HA","_status_group":"development","_states":[]},"geometry":{"type":"Point","coordinates":[6.201,4.151]}},{"type":"Feature","properties":{"project":"Ibewa","status":"operating","operator":"TotalEnergies E&P","owner":"TotalEnergies (40%);Nigerian National Petroleum Corporation (60%)","fuel_type":"oil and gas","url":"https://www.gem.wiki/Ibewa_Oil_and_Gas_Field_(Nigeria)","_label":"Ibewa","_status_group":"operating","_states":["Rivers"]},"geometry":{"type":"Point","coordinates":[6.655,5.232]}},{"type":"Feature","properties":{"project":"Ibigwe","status":"operating","operator":"Waltersmith Petroman Limited","fuel_type":"oil and gas","url":"https://www.gem.wiki/Ibigwe_Oil_and_Gas_Field_(Nigeria)","_label":"Ibigwe","_status_group":"operating","_states":["Imo"]},"geometry":{"type":"Point","coordinates":[6.837,5.352]}},{"type":"Feature","properties":{"project":"Idoho","status":"operating","operator":"Mobil","fuel_type":"oil and gas","discovery_year":1966.0,"url":"https://www.gem.wiki/Idoho_Oil_and_Gas_Field_(Nigeria)","_label":"Idoho","_status_group":"operating","_year":1966,"_year_label":"Discovery year","_states":[]},"geometry":{"type":"Point","coordinates":[7.975,4.351]}},{"type":"Feature","properties":{"project":"Idu","status":"operating","operator":"Nigerian Agip Oil Company","fuel_type":"oil and gas","url":"https://www.gem.wiki/Idu_Oil_and_Gas_Field_(Nigeria)","_label":"Idu","_status_group":"operating","_states":["Rivers"]},"geometry":{"type":"Point","coordinates":[6.5588,5.2782]}},{"type":"Feature","properties":{"project":"Ikike","status":"in development","operator":"TotalEnergies E&P Nigeria","owner":"TotalEnergies E&P Nigeria Limited (40%);Nigerian National Petroleum Corporation (60%)","fuel_type":"oil and gas","url":"https://www.gem.wiki/Ikike_Oil_and_Gas_Field_(Nigeria)","_label":"Ikike","_status_group":"development","_states":[]},"geometry":{"type":"Point","coordinates":[7.539,4.241]}},{"type":"Feature","properties":{"project":"Ime","status":"operating","operator":"TotalEnergies E&P","owner":"TotalEnergies (40%);Nigerian National Petroleum Corporation (60%)","fuel_type":"oil and gas","url":"https://www.gem.wiki/Ime_Oil_and_Gas_Field_(Nigeria)","_label":"Ime","_status_group":"operating","_states":[]},"geometry":{"type":"Point","coordinates":[7.7874,3.9595]}},{"type":"Feature","properties":{"project":"Imo River","status":"operating","operator":"Nigerian Petroleum Development Company","fuel_type":"oil and gas","url":"https://www.gem.wiki/Imo_River_Oil_and_Gas_Field_(Nigeria)","_label":"Imo River","_status_group":"operating","_states":["Rivers"]},"geometry":{"type":"Point","coordinates":[7.1968,4.9748]}},{"type":"Feature","properties":{"project":"Inanga","status":"operating","operator":"Mobil","fuel_type":"oil and gas","url":"https://www.gem.wiki/Inanga_Oil_and_Gas_Field_(Nigeria)","_label":"Inanga","_status_group":"operating","_states":["Nasarawa"]},"geometry":{"type":"Point","coordinates":[7.5529,8.6806]}},{"type":"Feature","properties":{"project":"Inim","status":"operating","operator":"Mobil","fuel_type":"oil and gas","url":"https://www.gem.wiki/Inim_Oil_and_Gas_Field_(Nigeria)","_label":"Inim","_status_group":"operating","_states":[]},"geometry":{"type":"Point","coordinates":[8.0097,4.2329]}},{"type":"Feature","properties":{"project":"Irri","status":"operating","operator":"Nigerian Agip Oil Company","owner":"Oando Energy Resources (20%);Nigerian Agip Oil Company;Nigerian Petroleum Development Company","fuel_type":"oil and gas","url":"https://www.gem.wiki/Irri_Oil_and_Gas_Field_(Nigeria)","_label":"Irri","_status_group":"operating","_states":["Edo"]},"geometry":{"type":"Point","coordinates":[5.5386,6.2808]}},{"type":"Feature","properties":{"project":"Isobo","status":"operating","operator":"Mobil","fuel_type":"oil and gas","url":"https://www.gem.wiki/Isobo_Oil_and_Gas_Field_(Nigeria)","_label":"Isobo","_status_group":"operating","_states":[]},"geometry":{"type":"Point","coordinates":[8.29,4.307]}},{"type":"Feature","properties":{"project":"Isoko South","status":"operating","operator":"Nigerian Agip Oil Company","owner":"Oando Energy Resources (20%);Nigerian Agip Oil Company","fuel_type":"oil and gas","url":"https://www.gem.wiki/Isoko_South_Oil_and_Gas_Field_(Nigeria)","_label":"Isoko South","_status_group":"operating","_states":["Edo"]},"geometry":{"type":"Point","coordinates":[5.5134,6.2827]}},{"type":"Feature","properties":{"project":"Itut","status":"operating","operator":"Mobil","fuel_type":"oil and gas","url":"https://www.gem.wiki/Itut_Oil_and_Gas_Field_(Nigeria)","_label":"Itut","_status_group":"operating","_states":["Oyo"]},"geometry":{"type":"Point","coordinates":[4.4189,8.1378]}},{"type":"Feature","properties":{"project":"Izombe","status":"operating","operator":"Addax","fuel_type":"oil and gas","url":"https://www.gem.wiki/Izombe_Oil_and_Gas_Field_(Nigeria)","_label":"Izombe","_status_group":"operating","_states":["Imo"]},"geometry":{"type":"Point","coordinates":[6.829,5.607]}},{"type":"Feature","properties":{"project":"Kanbo","status":"operating","operator":"Shell Petroleum Development Company of Nigeria","fuel_type":"oil and gas","url":"https://www.gem.wiki/Kanbo_Oil_and_Gas_Field_(Nigeria)","_label":"Kanbo","_status_group":"operating","_states":["Bayelsa"]},"geometry":{"type":"Point","coordinates":[5.6796,4.8909]}},{"type":"Feature","properties":{"project":"Kita Marine","status":"operating","operator":"Addax","fuel_type":"oil and gas","url":"https://www.gem.wiki/Kita_Marine_Oil_and_Gas_Field_(Nigeria)","_label":"Kita Marine","_status_group":"operating","_states":["Nasarawa"]},"geometry":{"type":"Point","coordinates":[7.5529,8.6806]}},{"type":"Feature","properties":{"project":"Kito","status":"operating","operator":"Chevron","fuel_type":"oil and gas","discovery_year":1988.0,"url":"https://www.gem.wiki/Kito_Oil_and_Gas_Field_(Nigeria)","_label":"Kito","_status_group":"operating","_year":1988,"_year_label":"Discovery year","_states":["Nasarawa"]},"geometry":{"type":"Point","coordinates":[7.5529,8.6806]}},{"type":"Feature","properties":{"project":"Koroama","status":"operating","operator":"Shell Petroleum Development Company of Nigeria","fuel_type":"oil and gas","url":"https://www.gem.wiki/Koroama_Oil_and_Gas_Field_(Nigeria)","_label":"Koroama","_status_group":"operating","_states":["Nasarawa"]},"geometry":{"type":"Point","coordinates":[7.5529,8.6806]}},{"type":"Feature","properties":{"project":"Kwale","status":"operating","operator":"Nigerian Agip Oil Company","owner":"Oando Energy Resources (20%);other (80%)","fuel_type":"oil and gas","discovery_year":1967.0,"start_year":"1967","url":"https://www.gem.wiki/Kwale_Oil_and_Gas_Field_(Nigeria)","_label":"Kwale","_status_group":"operating","_year":1967,"_year_label":"Discovery year","_states":["Delta"]},"geometry":{"type":"Point","coordinates":[6.508,5.66]}},{"type":"Feature","properties":{"project":"Makaraba","status":"operating","operator":"Chevron Nigeria Ltd","fuel_type":"oil and gas","discovery_year":1973.0,"url":"https://www.gem.wiki/Makaraba_Oil_and_Gas_Field_(Nigeria)","_label":"Makaraba","_status_group":"operating","_year":1973,"_year_label":"Discovery year","_states":["Delta"]},"geometry":{"type":"Point","coordinates":[5.431,5.807]}},{"type":"Feature","properties":{"project":"Malu","status":"operating","operator":"Chevron","owner":"Chevron (40%)","fuel_type":"oil and gas","discovery_year":1969.0,"url":"https://www.gem.wiki/Malu_Oil_and_Gas_Field_(Nigeria)","_label":"Malu","_status_group":"operating","_year":1969,"_year_label":"Discovery year","_states":[]},"geometry":{"type":"Point","coordinates":[4.721,5.849]}},{"type":"Feature","properties":{"project":"Manuso","status":"operating","operator":"Nigerian Agip Oil Company","fuel_type":"oil and gas","url":"https://www.gem.wiki/Manuso_Oil_and_Gas_Field_(Nigeria)","_label":"Manuso","_status_group":"operating","_states":["Ondo"]},"geometry":{"type":"Point","coordinates":[5.0103,6.5035]}},{"type":"Feature","properties":{"project":"Mbede","status":"operating","operator":"Nigerian Agip Oil Company","owner":"Nigerian Agip Oil Company (20%);Oando Energy Resources (20%);Nigerian National Petroleum Corporation (60%)","fuel_type":"oil and gas","start_year":"1972","url":"https://www.gem.wiki/Mbede_Oil_and_Gas_Field_(Nigeria)","_label":"Mbede","_status_group":"operating","_states":["Edo"]},"geometry":{"type":"Point","coordinates":[5.485,6.748]}},{"type":"Feature","properties":{"project":"Mefa","status":"operating","operator":"Chevron","fuel_type":"oil and gas","url":"https://www.gem.wiki/Mefa_Oil_and_Gas_Field_(Nigeria)","_label":"Mefa","_status_group":"operating","_states":["Nasarawa"]},"geometry":{"type":"Point","coordinates":[7.5529,8.6806]}},{"type":"Feature","properties":{"project":"Mejo","status":"operating","operator":"Chevron","fuel_type":"oil and gas","url":"https://www.gem.wiki/Mejo_Oil_and_Gas_Field_(Nigeria)","_label":"Mejo","_status_group":"operating","_states":[]},"geometry":{"type":"Point","coordinates":[4.985,5.855]}},{"type":"Feature","properties":{"project":"Mfem","status":"operating","operator":"Mobil","fuel_type":"oil and gas","url":"https://www.gem.wiki/Mfem_Oil_and_Gas_Field_(Nigeria)","_label":"Mfem","_status_group":"operating","_states":[]},"geometry":{"type":"Point","coordinates":[8.2492,4.286]}},{"type":"Feature","properties":{"project":"NEMC/1-4,ODEC/1,SBAR/1","status":"operating","operator":"Aiteo Group","fuel_type":"oil and gas","url":"https://www.gem.wiki/NEMC1-4,ODEC1,SBAR1_Oil_and_Gas_Field_(Nigeria)","_label":"NEMC/1-4,ODEC/1,SBAR/1","_status_group":"operating","_states":["Nasarawa"]},"geometry":{"type":"Point","coordinates":[7.5529,8.6806]}},{"type":"Feature","properties":{"project":"Nembe Creek East","status":"operating","operator":"Shell Petroleum Development Company of Nigeria","fuel_type":"oil and gas","url":"https://www.gem.wiki/Nembe_Creek_East_Oil_and_Gas_Field_(Nigeria)","_label":"Nembe Creek East","_status_group":"operating","_states":["Bayelsa"]},"geometry":{"type":"Point","coordinates":[6.3149,4.4311]}},{"type":"Feature","properties":{"project":"Nimbe South","status":"operating","operator":"Nigerian Agip Oil Company","fuel_type":"oil and gas","url":"https://www.gem.wiki/Nimbe_South_Oil_and_Gas_Field_(Nigeria)","_label":"Nimbe South","_status_group":"operating","_states":["Nasarawa"]},"geometry":{"type":"Point","coordinates":[7.5529,8.6806]}},{"type":"Feature","properties":{"project":"North Apoi","status":"operating","operator":"Chevron","fuel_type":"oil and gas","url":"https://www.gem.wiki/North_Apoi_Oil_and_Gas_Field_(Nigeria)","_label":"North Apoi","_status_group":"operating","_states":["Nasarawa"]},"geometry":{"type":"Point","coordinates":[7.5529,8.6806]}},{"type":"Feature","properties":{"project":"Nun River","status":"operating","operator":"Shell Petroleum Development Company of Nigeria","fuel_type":"oil and gas","url":"https://www.gem.wiki/Nun_River_Oil_and_Gas_Field_(Nigeria)","_label":"Nun River","_status_group":"operating","_states":["Bayelsa"]},"geometry":{"type":"Point","coordinates":[6.067,4.821]}},{"type":"Feature","properties":{"project":"Obagi","status":"operating","operator":"TotalEnergies E&P","owner":"TotalEnergies;Nigerian National Petroleum Corporation","fuel_type":"oil and gas","start_year":"1966","url":"https://www.gem.wiki/Obagi_Oil_and_Gas_Field_(Nigeria)","_label":"Obagi","_status_group":"operating","_states":["Rivers"]},"geometry":{"type":"Point","coordinates":[6.6605,5.2441]}},{"type":"Feature","properties":{"project":"Obama","status":"operating","operator":"Nigerian Agip Oil Company","fuel_type":"oil and gas","url":"https://www.gem.wiki/Obama_Oil_and_Gas_Field_(Nigeria)","_label":"Obama","_status_group":"operating","_states":["Bayelsa"]},"geometry":{"type":"Point","coordinates":[6.246,4.647]}},{"type":"Feature","properties":{"project":"Obea","status":"operating","operator":"Shell Petroleum Development Company of Nigeria","fuel_type":"oil and gas","url":"https://www.gem.wiki/Obea_Oil_and_Gas_Field_(Nigeria)","_label":"Obea","_status_group":"operating","_states":["Nasarawa"]},"geometry":{"type":"Point","coordinates":[7.5529,8.6806]}},{"type":"Feature","properties":{"project":"Oben/Sapele/Amukpe (NPDC)","status":"operating","operator":"Nigerian Petroleum Development Company","owner":"Nigerian Petroleum Development Company (100%)","fuel_type":"oil and gas","url":"https://www.gem.wiki/ObenSapeleAmukpe_(NPDC)_Oil_and_Gas_Field_(Nigeria)","_label":"Oben/Sapele/Amukpe (NPDC)","_status_group":"operating","_states":["Delta"]},"geometry":{"type":"Point","coordinates":[5.7243,5.935]}},{"type":"Feature","properties":{"project":"Oben/Sapele/Amukpe (Seplat)","status":"operating","operator":"Seplat Petroleum","owner":"Seplat Petroleum (45%);Nigerian Petroleum Development Company (55%)","fuel_type":"oil and gas","url":"https://www.gem.wiki/ObenSapeleAmukpe_(Seplat)_Oil_and_Gas_Field_(Nigeria)","_label":"Oben/Sapele/Amukpe (Seplat)","_status_group":"operating","_states":["Delta"]},"geometry":{"type":"Point","coordinates":[5.7243,5.935]}},{"type":"Feature","properties":{"project":"Obiafu","status":"operating","operator":"Nigerian Agip Oil Company","owner":"Eni S.P.A. (20%);Nigerian National Petroleum Corporation (60%);Oando Energy Resources (20%)","fuel_type":"oil and gas","url":"https://www.gem.wiki/Obiafu_Oil_and_Gas_Field_(Nigeria)","_label":"Obiafu","_status_group":"operating","_states":["Rivers"]},"geometry":{"type":"Point","coordinates":[6.561,5.397]}},{"type":"Feature","properties":{"project":"Obiafu 41","status":"operating","operator":"Eni","fuel_type":"oil and gas","discovery_year":2019.0,"start_year":"2019","url":"https://www.gem.wiki/Obiafu_41_Oil_and_Gas_Field_(Nigeria)","_label":"Obiafu 41","_status_group":"operating","_year":2019,"_year_label":"Discovery year","_states":["Delta"]},"geometry":{"type":"Point","coordinates":[5.4619,5.2093]}},{"type":"Feature","properties":{"project":"Obiafu/Obrikom","status":"operating","owner":"Eni S.P.A. (20%);Nigerian National Petroleum Corporation (60%);Oando Energy Resources (20%)","fuel_type":"oil and gas","url":"https://www.gem.wiki/Obiafu/Obrikom_Oil_and_Gas_Complex_(Nigeria)","_label":"Obiafu/Obrikom","_status_group":"operating","_states":["Rivers"]},"geometry":{"type":"Point","coordinates":[6.5945,5.4174]}},{"type":"Feature","properties":{"project":"Obigbo North","status":"operating","operator":"TNOG Oil and Gas Limited","fuel_type":"oil and gas","url":"https://www.gem.wiki/Obigbo_North_Oil_and_Gas_Field_(Nigeria)","_label":"Obigbo North","_status_group":"operating","_states":["Rivers"]},"geometry":{"type":"Point","coordinates":[7.111,4.883]}},{"type":"Feature","properties":{"project":"Obodugwa 3","status":"operating","operator":"Pillar","fuel_type":"oil and gas","url":"https://www.gem.wiki/Obodugwa_3_Oil_and_Gas_Field_(Nigeria)","_label":"Obodugwa 3","_status_group":"operating","_states":["Nasarawa"]},"geometry":{"type":"Point","coordinates":[7.5529,8.6806]}},{"type":"Feature","properties":{"project":"Obrikom","status":"operating","operator":"Nigerian Agip Oil Company","owner":"Eni S.P.A. (20%);Nigerian National Petroleum Corporation (60%);Oando Energy Resources (20%)","fuel_type":"oil and gas","url":"https://www.gem.wiki/Obrikom_Oil_and_Gas_Field_(Nigeria)","_label":"Obrikom","_status_group":"operating","_states":["Rivers"]},"geometry":{"type":"Point","coordinates":[6.972,4.6999]}},{"type":"Feature","properties":{"project":"Odudu","status":"operating","operator":"TotalEnergies E&P","fuel_type":"oil and gas","url":"https://www.gem.wiki/Odudu_Oil_and_Gas_Field_(Nigeria)","_label":"Odudu","_status_group":"operating","_states":["Nasarawa"]},"geometry":{"type":"Point","coordinates":[7.5529,8.6806]}},{"type":"Feature","properties":{"project":"Ofon","status":"operating","operator":"TotalEnergies E&P","owner":"TotalEnergies E&P Nigeria Limited (40%);Nigerian National Petroleum Corporation (60%)","fuel_type":"oil and gas","start_year":"1997","url":"https://www.gem.wiki/Ofon_Oil_and_Gas_Field_(Nigeria)","_label":"Ofon","_status_group":"operating","_states":[]},"geometry":{"type":"Point","coordinates":[8.062,4.109]}},{"type":"Feature","properties":{"project":"Ogbainbiri","status":"operating","operator":"Nigerian Agip Oil Company","owner":"Nigerian National Petroleum Corporation (60%);Nigerian Agip Oil Company (20%);Phillips Oil Company Nigeria Ltd (20%)","fuel_type":"oil and gas","url":"https://www.gem.wiki/Ogbainbiri_Oil_and_Gas_Field_(Nigeria)","_label":"Ogbainbiri","_status_group":"operating","_states":["Bayelsa"]},"geometry":{"type":"Point","coordinates":[5.9711,4.8093]}},{"type":"Feature","properties":{"project":"Ogbele","status":"operating","operator":"Niger Delta Petroleum","owner":"Niger Delta Petroleum (100%)","fuel_type":"oil and gas","start_year":"2005","url":"https://www.gem.wiki/Ogbele_Oil_and_Gas_Field_(Nigeria)","_label":"Ogbele","_status_group":"operating","_states":["Nasarawa"]},"geometry":{"type":"Point","coordinates":[7.5529,8.6806]}},{"type":"Feature","properties":{"project":"Okan","status":"operating","operator":"Chevron","owner":"Chevron (40%);Nigerian National Petroleum Corporation (60%)","fuel_type":"oil and gas","discovery_year":1963.0,"url":"https://www.gem.wiki/Okan_Oil_and_Gas_Field_(Nigeria)","_label":"Okan","_status_group":"operating","_year":1963,"_year_label":"Discovery year","_states":[]},"geometry":{"type":"Point","coordinates":[5.0381,5.5813]}},{"type":"Feature","properties":{"project":"Okono/Okpoho","status":"operating","operator":"Nigerian Agip Oil Company","owner":"Nigerian National Petroleum Corporation (100%)","fuel_type":"oil and gas","discovery_year":1983.0,"url":"https://www.gem.wiki/OkonoOkpoho_Oil_and_Gas_Field_(Nigeria)","_label":"Okono/Okpoho","_status_group":"operating","_year":1983,"_year_label":"Discovery year","_states":[]},"geometry":{"type":"Point","coordinates":[7.3055,3.935]}},{"type":"Feature","properties":{"project":"Okoro","status":"operating","operator":"Afren Energy Resources","owner":"Afren Energy Resources (50%);Amni International (50%)","fuel_type":"oil and gas","discovery_year":1973.0,"start_year":"2008","url":"https://www.gem.wiki/Okoro_Oil_and_Gas_Field_(Nigeria)","_label":"Okoro","_status_group":"operating","_year":1973,"_year_label":"Discovery year","_states":[]},"geometry":{"type":"Point","coordinates":[7.8,4.404]}},{"type":"Feature","properties":{"project":"Okpai","status":"operating","operator":"Nigerian Agip Oil Company","fuel_type":"oil and gas","url":"https://www.gem.wiki/Okpai_Oil_and_Gas_Field_(Nigeria)","_label":"Okpai","_status_group":"operating","_states":["Delta"]},"geometry":{"type":"Point","coordinates":[6.515,5.702]}},{"type":"Feature","properties":{"project":"Okwori","status":"operating","operator":"Addax","fuel_type":"oil and gas","url":"https://www.gem.wiki/Okwori_Oil_and_Gas_Field_(Nigeria)","_label":"Okwori","_status_group":"operating","_states":[]},"geometry":{"type":"Point","coordinates":[6.953,3.842]}},{"type":"Feature","properties":{"project":"Okwuibome","status":"operating","operator":"Sterling Exploration and Energy Production Company","owner":"Sterling Exploration and Energy Production Limited (80%);Allene Energy (20%)","fuel_type":"oil and gas","discovery_year":1979.0,"url":"https://www.gem.wiki/Okwuibome_Oil_and_Gas_Field_(Nigeria)","_label":"Okwuibome","_status_group":"operating","_year":1979,"_year_label":"Discovery year","_states":["Delta"]},"geometry":{"type":"Point","coordinates":[6.5456,5.7122]}},{"type":"Feature","properties":{"project":"Ole","status":"operating","operator":"Nigerian Agip Oil Company","fuel_type":"oil and gas","url":"https://www.gem.wiki/Ole_Oil_and_Gas_Field_(Nigeria)","_label":"Ole","_status_group":"operating","_states":["Nasarawa"]},"geometry":{"type":"Point","coordinates":[7.5529,8.6806]}},{"type":"Feature","properties":{"project":"Oleh","status":"operating","operator":"Nigerian Agip Oil Company","owner":"Oando Energy Resources (20%);Nigerian Agip Oil Company;Nigerian Petroleum Development Company","fuel_type":"oil and gas","url":"https://www.gem.wiki/Oleh_Oil_and_Gas_Field_(Nigeria)","_label":"Oleh","_status_group":"operating","_states":["Delta"]},"geometry":{"type":"Point","coordinates":[6.174,5.463]}},{"type":"Feature","properties":{"project":"Olomoro","status":"operating","owner":"Shoreline Natural Resources Limited (45%);Nigerian Petroleum Development Company (55%)","fuel_type":"oil and gas","discovery_year":1962.0,"start_year":"1963","url":"https://www.gem.wiki/Olomoro_Oil_and_Gas_Field_(Nigeria)","_label":"Olomoro","_status_group":"operating","_year":1962,"_year_label":"Discovery year","_states":["Delta"]},"geometry":{"type":"Point","coordinates":[6.174,5.463]}},{"type":"Feature","properties":{"project":"Opkushi North","status":"operating","operator":"Shell Petroleum Development Company of Nigeria","fuel_type":"oil and gas","url":"https://www.gem.wiki/Opkushi_North_Oil_and_Gas_Field_(Nigeria)","_label":"Opkushi North","_status_group":"operating","_states":["Nasarawa"]},"geometry":{"type":"Point","coordinates":[7.5529,8.6806]}},{"type":"Feature","properties":{"project":"Opukushi","status":"operating","operator":"Shell Petroleum Development Company of Nigeria","owner":"Shell;Nigerian National Petroleum Corporation","fuel_type":"oil and gas","url":"https://www.gem.wiki/Opukushi_Oil_and_Gas_Field_(Nigeria)","_label":"Opukushi","_status_group":"operating","_states":["Bayelsa"]},"geometry":{"type":"Point","coordinates":[5.7643,4.9159]}},{"type":"Feature","properties":{"project":"Oredo (NDPC)","status":"operating","operator":"Nigerian Petroleum Development Company","owner":"Nigerian Petroleum Development Company","fuel_type":"oil and gas","start_year":"1996","url":"https://www.gem.wiki/Oredo_(NDPC)_Oil_and_Gas_Field_(Nigeria)","_label":"Oredo (NDPC)","_status_group":"operating","_states":["Edo"]},"geometry":{"type":"Point","coordinates":[5.585,6.075]}},{"type":"Feature","properties":{"project":"Oron West","status":"operating","operator":"Addax","fuel_type":"oil and gas","url":"https://www.gem.wiki/Oron_West_Oil_and_Gas_Field_(Nigeria)","_label":"Oron West","_status_group":"operating","_states":["Nasarawa"]},"geometry":{"type":"Point","coordinates":[7.5529,8.6806]}},{"type":"Feature","properties":{"project":"Oshi","status":"operating","operator":"Nigerian Agip Oil Company","owner":"Nigerian Agip Oil Company (20%);Oando Energy Resources (20%);Shell Petroleum Development Company of Nigeria;Nigerian National Petroleum Corporation","fuel_type":"oil and gas","url":"https://www.gem.wiki/Oshi_Oil_and_Gas_Field_(Nigeria)","_label":"Oshi","_status_group":"operating","_states":["Rivers"]},"geometry":{"type":"Point","coordinates":[6.467,5.098]}},{"type":"Feature","properties":{"project":"Oso","status":"operating","operator":"Seplat Petroleum","owner":"Seplat Petroleum (40%);Nigerian National Petroleum Corporation (60%)","fuel_type":"oil and gas","discovery_year":1967.0,"start_year":"1992","url":"https://www.gem.wiki/Oso_Oil_and_Gas_Field_(Nigeria)","_label":"Oso","_status_group":"operating","_year":1967,"_year_label":"Discovery year","_states":[]},"geometry":{"type":"Point","coordinates":[7.617,4.291]}},{"type":"Feature","properties":{"project":"Ossu","status":"operating","operator":"Addax","fuel_type":"oil and gas","discovery_year":1974.0,"url":"https://www.gem.wiki/Ossu_Oil_and_Gas_Field_(Nigeria)","_label":"Ossu","_status_group":"operating","_year":1974,"_year_label":"Discovery year","_states":["Imo"]},"geometry":{"type":"Point","coordinates":[6.766,5.625]}},{"type":"Feature","properties":{"project":"Otakikpo","status":"operating","operator":"Green Energy International Limited","owner":"Green Energy International Limited (60%);Lekoil Oil and Gas (40%)","fuel_type":"oil and gas","discovery_year":1980.0,"start_year":"2017","url":"https://www.gem.wiki/Otakikpo_Oil_and_Gas_Field_(Nigeria)","_label":"Otakikpo","_status_group":"operating","_year":1980,"_year_label":"Discovery year","_states":["Nasarawa"]},"geometry":{"type":"Point","coordinates":[7.5529,8.6806]}},{"type":"Feature","properties":{"project":"Otumara","status":"operating","operator":"Shell Petroleum Development Company of Nigeria","owner":"Shell;Nigerian National Petroleum Corporation","fuel_type":"oil and gas","url":"https://www.gem.wiki/Otumara_Oil_and_Gas_Field_(Nigeria)","_label":"Otumara","_status_group":"operating","_states":["Delta"]},"geometry":{"type":"Point","coordinates":[5.1409,5.6758]}},{"type":"Feature","properties":{"project":"Oyo","status":"operating","operator":"Allied/Camac","fuel_type":"oil and gas","url":"https://www.gem.wiki/Oyo_Oil_and_Gas_Field_(Nigeria)","_label":"Oyo","_status_group":"operating","_states":[]},"geometry":{"type":"Point","coordinates":[4.629,5.391]}},{"type":"Feature","properties":{"project":"Oyot","status":"operating","operator":"Mobil","owner":"Nigerian National Petroleum Corporation;ExxonMobil","fuel_type":"oil and gas","url":"https://www.gem.wiki/Oyot_Oil_and_Gas_Field_(Nigeria)","_label":"Oyot","_status_group":"operating","_states":[]},"geometry":{"type":"Point","coordinates":[7.731,4.28]}},{"type":"Feature","properties":{"project":"Parabe/Eko","status":"operating","operator":"Chevron","owner":"Chevron (40%)","fuel_type":"oil and gas","url":"https://www.gem.wiki/ParabeEko_Oil_and_Gas_Field_(Nigeria)","_label":"Parabe/Eko","_status_group":"operating","_states":[]},"geometry":{"type":"Point","coordinates":[4.841,5.892]}},{"type":"Feature","properties":{"project":"Pennington","status":"operating","operator":"Chevron","fuel_type":"oil and gas","url":"https://www.gem.wiki/Pennington_Oil_and_Gas_Field_(Nigeria)","_label":"Pennington","_status_group":"operating","_states":[]},"geometry":{"type":"Point","coordinates":[5.459,4.641]}},{"type":"Feature","properties":{"project":"Pirigbene","status":"operating","operator":"Nigerian Agip Oil Company","fuel_type":"oil and gas","url":"https://www.gem.wiki/Pirigbene_Oil_and_Gas_Field_(Nigeria)","_label":"Pirigbene","_status_group":"operating","_states":["Nasarawa"]},"geometry":{"type":"Point","coordinates":[7.5529,8.6806]}},{"type":"Feature","properties":{"project":"Qua Ibo","status":"operating","operator":"Network E&P Limited","fuel_type":"oil and gas","url":"https://www.gem.wiki/Qua_Ibo_Oil_and_Gas_Field_(Nigeria)","_label":"Qua Ibo","_status_group":"operating","_states":["Nasarawa"]},"geometry":{"type":"Point","coordinates":[7.5529,8.6806]}},{"type":"Feature","properties":{"project":"Robertkiri","status":"operating","operator":"Belemaoil Producing Limited","owner":"Belemaoil Producing Limited (40%);Nigerian National Petroleum Corporation (60%)","fuel_type":"oil and gas","discovery_year":1964.0,"start_year":"1979","url":"https://www.gem.wiki/Robertkiri_Oil_and_Gas_Field_(Nigeria)","_label":"Robertkiri","_status_group":"operating","_year":1964,"_year_label":"Discovery year","_states":["Rivers"]},"geometry":{"type":"Point","coordinates":[6.6301,4.5378]}},{"type":"Feature","properties":{"project":"Samabiri East","status":"operating","operator":"Nigerian Agip Oil Company","owner":"Nigerian National Petroleum Corporation (60%);Nigerian Agip Oil Company (20%);Phillips Oil Company Nigeria Ltd (20%)","fuel_type":"oil and gas","url":"https://www.gem.wiki/Samabiri_East_Oil_and_Gas_Field_(Nigeria)","_label":"Samabiri East","_status_group":"operating","_states":["Nasarawa"]},"geometry":{"type":"Point","coordinates":[7.5529,8.6806]}},{"type":"Feature","properties":{"project":"Santa Barbara","status":"operating","operator":"Aiteo Eastern E&P Company Limited","owner":"Aiteo Eastern E&P Company Limited (45%)","fuel_type":"oil and gas","url":"https://www.gem.wiki/Santa_Barbara_Oil_and_Gas_Field_(Nigeria)","_label":"Santa Barbara","_status_group":"operating","_states":["Bayelsa"]},"geometry":{"type":"Point","coordinates":[6.5317,4.5662]}},{"type":"Feature","properties":{"project":"Seibou","status":"operating","operator":"Shell Petroleum Development Company of Nigeria","fuel_type":"oil and gas","url":"https://www.gem.wiki/Seibou_Oil_and_Gas_Field_(Nigeria)","_label":"Seibou","_status_group":"operating","_states":["Nasarawa"]},"geometry":{"type":"Point","coordinates":[7.5529,8.6806]}},{"type":"Feature","properties":{"project":"Sonam","status":"operating","operator":"Chevron","owner":"Chevron (40%);Nigerian National Petroleum Corporation (60%)","fuel_type":"oil and gas","start_year":"2017","url":"https://www.gem.wiki/Sonam_Oil_and_Gas_Field_(Nigeria)","_label":"Sonam","_status_group":"operating","_states":[]},"geometry":{"type":"Point","coordinates":[4.819,5.497]}},{"type":"Feature","properties":{"project":"Taylor Creek","status":"operating","operator":"Nigerian Agip Oil Company","fuel_type":"oil and gas","url":"https://www.gem.wiki/Taylor_Creek_Oil_and_Gas_Field_(Nigeria)","_label":"Taylor Creek","_status_group":"operating","_states":["Nasarawa"]},"geometry":{"type":"Point","coordinates":[7.5529,8.6806]}},{"type":"Feature","properties":{"project":"Tunu","status":"operating","operator":"Shell Petroleum Development Company of Nigeria","owner":"Nigerian National Petroleum Corporation (55%);Royal Dutch Shell (30%);TotalEnergies E&P Nigeria Limited (10%);Eni S.P.A. (5%)","fuel_type":"oil and gas","url":"https://www.gem.wiki/Tunu_Oil_and_Gas_Field_(Nigeria)","_label":"Tunu","_status_group":"operating","_states":["Bayelsa"]},"geometry":{"type":"Point","coordinates":[5.6344,4.9134]}},{"type":"Feature","properties":{"project":"Ughelli East","status":"operating","operator":"Nigerian Petroleum Development Company","owner":"Nigerian Petroleum Development Company;ND Western","fuel_type":"oil and gas","discovery_year":1959.0,"url":"https://www.gem.wiki/Ughelli_East_Oil_and_Gas_Field_(Nigeria)","_label":"Ughelli East","_status_group":"operating","_year":1959,"_year_label":"Discovery year","_states":["Delta"]},"geometry":{"type":"Point","coordinates":[5.933,5.5197]}},{"type":"Feature","properties":{"project":"Ukpam","status":"operating","operator":"Addax","fuel_type":"oil and gas","discovery_year":1989.0,"url":"https://www.gem.wiki/Ukpam_Oil_and_Gas_Field_(Nigeria)","_label":"Ukpam","_status_group":"operating","_year":1989,"_year_label":"Discovery year","_states":["Nasarawa"]},"geometry":{"type":"Point","coordinates":[7.5529,8.6806]}},{"type":"Feature","properties":{"project":"Umusadege","status":"operating","operator":"Midwestern Oil and Gas Limited","owner":"Midwestern Oil & Gas Company Limited (70%);SunTrust Oil Company Limited (30%)","fuel_type":"oil and gas","discovery_year":1974.0,"start_year":"2008","url":"https://www.gem.wiki/Umusadege_Oil_and_Gas_Field_(Nigeria)","_label":"Umusadege","_status_group":"operating","_year":1974,"_year_label":"Discovery year","_states":["Delta"]},"geometry":{"type":"Point","coordinates":[6.477,5.414]}},{"type":"Feature","properties":{"project":"Unam","status":"operating","operator":"Mobil","fuel_type":"oil and gas","url":"https://www.gem.wiki/Unam_Oil_and_Gas_Field_(Nigeria)","_label":"Unam","_status_group":"operating","_states":[]},"geometry":{"type":"Point","coordinates":[8.196,4.3086]}},{"type":"Feature","properties":{"project":"Uquo","status":"operating","operator":"Savannah Energy","owner":"Savannah Energy (80%);African Infrastructure Investment Managers (20%)","fuel_type":"oil and gas","discovery_year":1958.0,"url":"https://www.gem.wiki/Uquo_Oil_and_Gas_Field_(Nigeria)","_label":"Uquo","_status_group":"operating","_year":1958,"_year_label":"Discovery year","_states":["Osun"]},"geometry":{"type":"Point","coordinates":[4.6472,7.9179]}},{"type":"Feature","properties":{"project":"Utonana","status":"operating","operator":"Chevron","fuel_type":"oil and gas","url":"https://www.gem.wiki/Utonana_Oil_and_Gas_Field_(Nigeria)","_label":"Utonana","_status_group":"operating","_states":["Delta"]},"geometry":{"type":"Point","coordinates":[5.3533,5.7263]}},{"type":"Feature","properties":{"project":"Utorogu/Ugheli (ND Western)","status":"operating","operator":"ND Western","fuel_type":"oil and gas","url":"https://www.gem.wiki/UtoroguUgheli_(ND_Western)_Oil_and_Gas_Field_(Nigeria)","_label":"Utorogu/Ugheli (ND Western)","_status_group":"operating","_states":["Delta"]},"geometry":{"type":"Point","coordinates":[5.8821,5.4547]}},{"type":"Feature","properties":{"project":"Utorogu/Ugheli (NPDC)","status":"operating","operator":"Nigerian Petroleum Development Company","owner":"FIRST Exploration & Petroleum Development (55%);Petrolin Group (20.3%);Nigerian National Petroleum Corporation (20.2%)","fuel_type":"oil and gas","url":"https://www.gem.wiki/UtoroguUgheli_(NPDC)_Oil_and_Gas_Field_(Nigeria)","_label":"Utorogu/Ugheli (NPDC)","_status_group":"operating","_states":["Delta"]},"geometry":{"type":"Point","coordinates":[5.8821,5.4547]}},{"type":"Feature","properties":{"project":"Utue","status":"operating","operator":"Mobil","fuel_type":"oil and gas","url":"https://www.gem.wiki/Utue_Oil_and_Gas_Field_(Nigeria)","_label":"Utue","_status_group":"operating","_states":[]},"geometry":{"type":"Point","coordinates":[8.213,4.183]}},{"type":"Feature","properties":{"project":"Uzu","status":"operating","operator":"Shell","owner":"Shell (30%);Nigerian National Petroleum Corporation;Nigerian Agip Oil Company;TotalEnergies","fuel_type":"oil and gas","discovery_year":1971.0,"url":"https://www.gem.wiki/Uzu_Oil_and_Gas_Field_(Nigeria)","_label":"Uzu","_status_group":"operating","_year":1971,"_year_label":"Discovery year","_states":["Bayelsa"]},"geometry":{"type":"Point","coordinates":[6.3546,5.0741]}},{"type":"Feature","properties":{"project":"Yoho","status":"operating","operator":"Mobil","owner":"Nigerian National Petroleum Corporation (60%);Mobil Producing Nigeria Unlimited (40%)","fuel_type":"oil and gas","discovery_year":1991.0,"start_year":"2003","url":"https://www.gem.wiki/Yoho_Oil_and_Gas_Field_(Nigeria)","_label":"Yoho","_status_group":"operating","_year":1991,"_year_label":"Discovery year","_states":[]},"geometry":{"type":"Point","coordinates":[7.463,3.894]}},{"type":"Feature","properties":{"project":"Zarama","status":"operating","operator":"Shell Petroleum Development Company of Nigeria","fuel_type":"gas","url":"https://www.gem.wiki/Zarama_Gas_Field_(Nigeria)","_label":"Zarama","_status_group":"operating","_states":["Bayelsa"]},"geometry":{"type":"Point","coordinates":[6.3925,5.1239]}}]}
