{"type":"FeatureCollection","name":"field_polygons_gas","atlas_release":{"version":"0.8.0","date":"2026-07-25","title":"State Analytics and Downloadable Reports"},"metadata":{"description":"Gas-only field boundary polygons, including field names not present in the GOGET point inventory above.","source":"Nigeria SE4ALL Open Data Portal","source_date":"2026-07-24","license":"Public portal; explicit redistribution terms not stated","quality":"B","quality_note":"62 of 124 SE4ALL polygons are classified Gas_Field. Adds real field footprints and field names not covered by GOGET.","path":"data/processed/01_resource/se4all_gas_fields_nigeria_2026-07.csv","key":"field_polygons_gas","label":"Gas Field Boundaries","category":"resource","category_label":"Resource","record_count":62,"download_url":"https://raw.githubusercontent.com/Diamonds10/nigeria-infrastructure-atlas/main/data/processed/01_resource/se4all_gas_fields_nigeria_2026-07.csv","refresh":{"cadence":"annual_or_source_release","last_checked":"2026-07-24","next_review_due":"2027-07-25","review_status":"current"}},"features":[{"type":"Feature","properties":{"name":"Adanga","field_type":"Gas_Field","in_goget_fields":"Yes","_label":"Adanga","_status_group":"unknown","_states":[]},"geometry":{"type":"Polygon","coordinates":[[[8.41464,4.25184],[8.42392,4.24042],[8.41607,4.22329],[8.39608,4.21687],[8.37181,4.22329],[8.36324,4.24685],[8.34825,4.25113],[8.35111,4.26469],[8.41464,4.25184]]]}},{"type":"Feature","properties":{"name":"Adanga","field_type":"Gas_Field","in_goget_fields":"Yes","_label":"Adanga","_status_group":"unknown","_states":[]},"geometry":{"type":"Polygon","coordinates":[[[8.41464,4.25184],[8.42392,4.24042],[8.41607,4.22329],[8.39608,4.21687],[8.37181,4.22329],[8.36324,4.24685],[8.34825,4.25113],[8.35111,4.26469],[8.41464,4.25184]]]}},{"type":"Feature","properties":{"name":"Akarino","field_type":"Gas_Field","in_goget_fields":"No","_label":"Akarino","_status_group":"unknown","_states":[]},"geometry":{"type":"Polygon","coordinates":[[[5.01982,4.58623],[5.05979,4.57862],[5.05408,4.56529],[5.01791,4.5672],[5.01982,4.58623]]]}},{"type":"Feature","properties":{"name":"Akarino","field_type":"Gas_Field","in_goget_fields":"No","_label":"Akarino","_status_group":"unknown","_states":[]},"geometry":{"type":"Polygon","coordinates":[[[5.01982,4.58623],[5.05979,4.57862],[5.05408,4.56529],[5.01791,4.5672],[5.01982,4.58623]]]}},{"type":"Feature","properties":{"name":"Akpo","field_type":"Gas_Field","in_goget_fields":"Yes","_label":"Akpo","_status_group":"unknown","_states":[]},"geometry":{"type":"Polygon","coordinates":[[[6.65951,3.00382],[6.76136,2.99525],[6.76421,2.97527],[6.76041,2.9629],[6.74708,2.95623],[6.70615,2.94386],[6.64333,2.95814],[6.64333,2.97622],[6.65951,3.00382]]]}},{"type":"Feature","properties":{"name":"Akpo","field_type":"Gas_Field","in_goget_fields":"Yes","_label":"Akpo","_status_group":"unknown","_states":[]},"geometry":{"type":"Polygon","coordinates":[[[6.65951,3.00382],[6.76136,2.99525],[6.76421,2.97527],[6.76041,2.9629],[6.74708,2.95623],[6.70615,2.94386],[6.64333,2.95814],[6.64333,2.97622],[6.65951,3.00382]]]}},{"type":"Feature","properties":{"name":"Amenam","field_type":"Gas_Field","in_goget_fields":"No","_label":"Amenam","_status_group":"unknown","_states":[]},"geometry":{"type":"Polygon","coordinates":[[[7.54008,4.06359],[7.5716,4.03504],[7.56625,4.0285],[7.50676,4.03087],[7.49368,4.00946],[7.43895,4.03266],[7.43954,4.04753],[7.46631,4.06299],[7.5026,4.06835],[7.54008,4.06359]]]}},{"type":"Feature","properties":{"name":"Amenam","field_type":"Gas_Field","in_goget_fields":"No","_label":"Amenam","_status_group":"unknown","_states":[]},"geometry":{"type":"Polygon","coordinates":[[[7.54008,4.06359],[7.5716,4.03504],[7.56625,4.0285],[7.50676,4.03087],[7.49368,4.00946],[7.43895,4.03266],[7.43954,4.04753],[7.46631,4.06299],[7.5026,4.06835],[7.54008,4.06359]]]}},{"type":"Feature","properties":{"name":"Ata N","field_type":"Gas_Field","in_goget_fields":"No","_label":"Ata N","_status_group":"unknown","_states":[]},"geometry":{"type":"Polygon","coordinates":[[[5.56146,3.98973],[5.55552,3.97588],[5.53176,3.96895],[5.52879,3.97588],[5.53869,3.98973],[5.56146,3.98973]]]}},{"type":"Feature","properties":{"name":"Ata N","field_type":"Gas_Field","in_goget_fields":"No","_label":"Ata N","_status_group":"unknown","_states":[]},"geometry":{"type":"Polygon","coordinates":[[[5.56146,3.98973],[5.55552,3.97588],[5.53176,3.96895],[5.52879,3.97588],[5.53869,3.98973],[5.56146,3.98973]]]}},{"type":"Feature","properties":{"name":"Biseni Samabiri","field_type":"Gas_Field","in_goget_fields":"No","_label":"Biseni Samabiri","_status_group":"unknown","_states":["Bayelsa"]},"geometry":{"type":"Polygon","coordinates":[[[6.39763,5.1793],[6.40548,5.16288],[6.38549,5.15788],[6.36336,5.16431],[6.35979,5.17359],[6.3705,5.18501],[6.39763,5.1793]]]}},{"type":"Feature","properties":{"name":"Biseni Samabiri","field_type":"Gas_Field","in_goget_fields":"No","_label":"Biseni Samabiri","_status_group":"unknown","_states":["Bayelsa"]},"geometry":{"type":"Polygon","coordinates":[[[6.39763,5.1793],[6.40548,5.16288],[6.38549,5.15788],[6.36336,5.16431],[6.35979,5.17359],[6.3705,5.18501],[6.39763,5.1793]]]}},{"type":"Feature","properties":{"name":"Bonga Main","field_type":"Gas_Field","in_goget_fields":"No","_label":"Bonga Main","_status_group":"unknown","_states":[]},"geometry":{"type":"Polygon","coordinates":[[[4.45278,4.43563],[4.51179,4.38995],[4.49276,4.36139],[4.49466,4.3081],[4.46421,4.31],[4.43946,4.33665],[4.44136,4.38043],[4.4604,4.38423],[4.45659,4.39566],[4.42804,4.38043],[4.43375,4.41659],[4.45278,4.43563]]]}},{"type":"Feature","properties":{"name":"Bonga Main","field_type":"Gas_Field","in_goget_fields":"No","_label":"Bonga Main","_status_group":"unknown","_states":[]},"geometry":{"type":"Polygon","coordinates":[[[4.45278,4.43563],[4.51179,4.38995],[4.49276,4.36139],[4.49466,4.3081],[4.46421,4.31],[4.43946,4.33665],[4.44136,4.38043],[4.4604,4.38423],[4.45659,4.39566],[4.42804,4.38043],[4.43375,4.41659],[4.45278,4.43563]]]}},{"type":"Feature","properties":{"name":"EA","field_type":"Gas_Field","in_goget_fields":"Yes","_label":"EA","_status_group":"unknown","_states":[]},"geometry":{"type":"Polygon","coordinates":[[[5.32064,4.70678],[5.31841,4.6867],[5.29781,4.68661],[5.28338,4.70297],[5.2824,4.72989],[5.30102,4.72802],[5.32064,4.70678]]]}},{"type":"Feature","properties":{"name":"EA","field_type":"Gas_Field","in_goget_fields":"Yes","_label":"EA","_status_group":"unknown","_states":[]},"geometry":{"type":"Polygon","coordinates":[[[5.32064,4.70678],[5.31841,4.6867],[5.29781,4.68661],[5.28338,4.70297],[5.2824,4.72989],[5.30102,4.72802],[5.32064,4.70678]]]}},{"type":"Feature","properties":{"name":"Funiwa","field_type":"Gas_Field","in_goget_fields":"Yes","_label":"Funiwa","_status_group":"unknown","_states":[]},"geometry":{"type":"Polygon","coordinates":[[[5.8318,4.21658],[5.83593,4.20641],[5.81445,4.19274],[5.78827,4.19882],[5.76934,4.23295],[5.74734,4.24081],[5.74442,4.25755],[5.75458,4.26648],[5.76589,4.26405],[5.79672,4.22867],[5.8318,4.21658]]]}},{"type":"Feature","properties":{"name":"Funiwa","field_type":"Gas_Field","in_goget_fields":"Yes","_label":"Funiwa","_status_group":"unknown","_states":[]},"geometry":{"type":"Polygon","coordinates":[[[5.8318,4.21658],[5.83593,4.20641],[5.81445,4.19274],[5.78827,4.19882],[5.76934,4.23295],[5.74734,4.24081],[5.74442,4.25755],[5.75458,4.26648],[5.76589,4.26405],[5.79672,4.22867],[5.8318,4.21658]]]}},{"type":"Feature","properties":{"name":"Ha","field_type":"Gas_Field","in_goget_fields":"Yes","_label":"Ha","_status_group":"unknown","_states":[]},"geometry":{"type":"Polygon","coordinates":[[[6.20184,4.06989],[6.1959,4.04911],[6.17709,4.05802],[6.18006,4.07979],[6.20184,4.06989]]]}},{"type":"Feature","properties":{"name":"Ha","field_type":"Gas_Field","in_goget_fields":"Yes","_label":"Ha","_status_group":"unknown","_states":[]},"geometry":{"type":"Polygon","coordinates":[[[6.20184,4.06989],[6.1959,4.04911],[6.17709,4.05802],[6.18006,4.07979],[6.20184,4.06989]]]}},{"type":"Feature","properties":{"name":"Ibowa","field_type":"Gas_Field","in_goget_fields":"No","_label":"Ibowa","_status_group":"unknown","_states":["Rivers"]},"geometry":{"type":"Polygon","coordinates":[[[6.67047,5.13145],[6.70581,5.12145],[6.70486,5.10717],[6.66584,5.1138],[6.67047,5.13145]]]}},{"type":"Feature","properties":{"name":"Ibowa","field_type":"Gas_Field","in_goget_fields":"No","_label":"Ibowa","_status_group":"unknown","_states":["Rivers"]},"geometry":{"type":"Polygon","coordinates":[[[6.67047,5.13145],[6.70581,5.12145],[6.70486,5.10717],[6.66584,5.1138],[6.67047,5.13145]]]}},{"type":"Feature","properties":{"name":"Inda","field_type":"Gas_Field","in_goget_fields":"No","_label":"Inda","_status_group":"unknown","_states":[]},"geometry":{"type":"Polygon","coordinates":[[[7.11787,4.24939],[7.12772,4.24017],[7.11952,4.22315],[7.08212,4.21788],[7.07343,4.22958],[7.08912,4.24573],[7.11787,4.24939]]]}},{"type":"Feature","properties":{"name":"Inda","field_type":"Gas_Field","in_goget_fields":"No","_label":"Inda","_status_group":"unknown","_states":[]},"geometry":{"type":"Polygon","coordinates":[[[7.11787,4.24939],[7.12772,4.24017],[7.11952,4.22315],[7.08212,4.21788],[7.07343,4.22958],[7.08912,4.24573],[7.11787,4.24939]]]}},{"type":"Feature","properties":{"name":"Madu","field_type":"Gas_Field","in_goget_fields":"No","_label":"Madu","_status_group":"unknown","_states":[]},"geometry":{"type":"Polygon","coordinates":[[[5.76931,4.03328],[5.76733,4.0214],[5.75644,4.02239],[5.72477,4.03823],[5.73862,4.04515],[5.76931,4.03328]]]}},{"type":"Feature","properties":{"name":"Madu","field_type":"Gas_Field","in_goget_fields":"No","_label":"Madu","_status_group":"unknown","_states":[]},"geometry":{"type":"Polygon","coordinates":[[[5.76931,4.03328],[5.76733,4.0214],[5.75644,4.02239],[5.72477,4.03823],[5.73862,4.04515],[5.76931,4.03328]]]}},{"type":"Feature","properties":{"name":"Nembe Creek","field_type":"Gas_Field","in_goget_fields":"No","_label":"Nembe Creek","_status_group":"unknown","_states":["Bayelsa"]},"geometry":{"type":"Polygon","coordinates":[[[6.18235,4.41963],[6.1852,4.39822],[6.17093,4.3868],[6.14094,4.39251],[6.13952,4.41678],[6.15522,4.43248],[6.18235,4.41963]]]}},{"type":"Feature","properties":{"name":"Nembe Creek","field_type":"Gas_Field","in_goget_fields":"No","_label":"Nembe Creek","_status_group":"unknown","_states":["Bayelsa"]},"geometry":{"type":"Polygon","coordinates":[[[6.18235,4.41963],[6.1852,4.39822],[6.17093,4.3868],[6.14094,4.39251],[6.13952,4.41678],[6.15522,4.43248],[6.18235,4.41963]]]}},{"type":"Feature","properties":{"name":"Ngo/Imo","field_type":"Gas_Field","in_goget_fields":"No","_label":"Ngo/Imo","_status_group":"unknown","_states":[]},"geometry":{"type":"Polygon","coordinates":[[[7.37655,4.19616],[7.38027,4.18105],[7.3124,4.15585],[7.30799,4.17884],[7.31695,4.18523],[7.37655,4.19616]]]}},{"type":"Feature","properties":{"name":"Ngo/Imo","field_type":"Gas_Field","in_goget_fields":"No","_label":"Ngo/Imo","_status_group":"unknown","_states":[]},"geometry":{"type":"Polygon","coordinates":[[[7.37655,4.19616],[7.38027,4.18105],[7.3124,4.15585],[7.30799,4.17884],[7.31695,4.18523],[7.37655,4.19616]]]}},{"type":"Feature","properties":{"field_type":"Gas_Field","in_goget_fields":"No","_label":null,"_status_group":"unknown","_states":[]},"geometry":{"type":"Polygon","coordinates":[[[8.04974,4.42466],[8.04617,4.38612],[8.02761,4.3904],[8.02975,4.42823],[8.04974,4.42466]]]}},{"type":"Feature","properties":{"field_type":"Gas_Field","in_goget_fields":"No","_label":null,"_status_group":"unknown","_states":[]},"geometry":{"type":"Polygon","coordinates":[[[8.04974,4.42466],[8.04617,4.38612],[8.02761,4.3904],[8.02975,4.42823],[8.04974,4.42466]]]}},{"type":"Feature","properties":{"name":"Nun River","field_type":"Gas_Field","in_goget_fields":"Yes","_label":"Nun River","_status_group":"unknown","_states":["Bayelsa"]},"geometry":{"type":"Polygon","coordinates":[[[6.04045,4.73037],[6.0815,4.73216],[6.11005,4.70539],[6.10827,4.68754],[6.07079,4.68398],[6.05116,4.6929],[6.02975,4.71431],[6.04045,4.73037]]]}},{"type":"Feature","properties":{"name":"Nun River","field_type":"Gas_Field","in_goget_fields":"Yes","_label":"Nun River","_status_group":"unknown","_states":["Bayelsa"]},"geometry":{"type":"Polygon","coordinates":[[[6.04045,4.73037],[6.0815,4.73216],[6.11005,4.70539],[6.10827,4.68754],[6.07079,4.68398],[6.05116,4.6929],[6.02975,4.71431],[6.04045,4.73037]]]}},{"type":"Feature","properties":{"name":"Oben N","field_type":"Gas_Field","in_goget_fields":"No","_label":"Oben N","_status_group":"unknown","_states":["Edo"]},"geometry":{"type":"Polygon","coordinates":[[[5.97867,5.91803],[5.98914,5.92088],[6.00627,5.90565],[6.02816,5.91612],[6.04339,5.90756],[6.04244,5.88662],[5.98533,5.86378],[5.97867,5.91803]]]}},{"type":"Feature","properties":{"name":"Oben N","field_type":"Gas_Field","in_goget_fields":"No","_label":"Oben N","_status_group":"unknown","_states":["Edo"]},"geometry":{"type":"Polygon","coordinates":[[[5.97867,5.91803],[5.98914,5.92088],[6.00627,5.90565],[6.02816,5.91612],[6.04339,5.90756],[6.04244,5.88662],[5.98533,5.86378],[5.97867,5.91803]]]}},{"type":"Feature","properties":{"name":"Odudu","field_type":"Gas_Field","in_goget_fields":"Yes","_label":"Odudu","_status_group":"unknown","_states":[]},"geometry":{"type":"Polygon","coordinates":[[[7.76742,3.89851],[7.77456,3.88542],[7.76861,3.86758],[7.74481,3.86282],[7.74362,3.87709],[7.76742,3.89851]]]}},{"type":"Feature","properties":{"name":"Odudu","field_type":"Gas_Field","in_goget_fields":"Yes","_label":"Odudu","_status_group":"unknown","_states":[]},"geometry":{"type":"Polygon","coordinates":[[[7.76742,3.89851],[7.77456,3.88542],[7.76861,3.86758],[7.74481,3.86282],[7.74362,3.87709],[7.76742,3.89851]]]}},{"type":"Feature","properties":{"name":"Ogbolobo","field_type":"Gas_Field","in_goget_fields":"No","_label":"Ogbolobo","_status_group":"unknown","_states":["Bayelsa"]},"geometry":{"type":"Polygon","coordinates":[[[5.544,4.9091],[5.54436,4.89213],[5.5178,4.88356],[5.49013,4.89772],[5.48541,4.90969],[5.49112,4.92312],[5.51319,4.92603],[5.544,4.9091]]]}},{"type":"Feature","properties":{"name":"Ogbolobo","field_type":"Gas_Field","in_goget_fields":"No","_label":"Ogbolobo","_status_group":"unknown","_states":["Bayelsa"]},"geometry":{"type":"Polygon","coordinates":[[[5.544,4.9091],[5.54436,4.89213],[5.5178,4.88356],[5.49013,4.89772],[5.48541,4.90969],[5.49112,4.92312],[5.51319,4.92603],[5.544,4.9091]]]}},{"type":"Feature","properties":{"name":"Ograinbiri","field_type":"Gas_Field","in_goget_fields":"No","_label":"Ograinbiri","_status_group":"unknown","_states":["Bayelsa"]},"geometry":{"type":"Polygon","coordinates":[[[5.93489,4.74302],[5.94917,4.74492],[5.95774,4.72113],[5.95202,4.70495],[5.92823,4.72684],[5.93489,4.74302]]]}},{"type":"Feature","properties":{"name":"Ograinbiri","field_type":"Gas_Field","in_goget_fields":"No","_label":"Ograinbiri","_status_group":"unknown","_states":["Bayelsa"]},"geometry":{"type":"Polygon","coordinates":[[[5.93489,4.74302],[5.94917,4.74492],[5.95774,4.72113],[5.95202,4.70495],[5.92823,4.72684],[5.93489,4.74302]]]}},{"type":"Feature","properties":{"name":"Okoro","field_type":"Gas_Field","in_goget_fields":"Yes","_label":"Okoro","_status_group":"unknown","_states":[]},"geometry":{"type":"Polygon","coordinates":[[[7.89345,4.4251],[7.86445,4.40923],[7.84881,4.42197],[7.87218,4.44196],[7.89345,4.4251]]]}},{"type":"Feature","properties":{"name":"Okoro","field_type":"Gas_Field","in_goget_fields":"Yes","_label":"Okoro","_status_group":"unknown","_states":[]},"geometry":{"type":"Polygon","coordinates":[[[7.89345,4.4251],[7.86445,4.40923],[7.84881,4.42197],[7.87218,4.44196],[7.89345,4.4251]]]}},{"type":"Feature","properties":{"name":"Okwori","field_type":"Gas_Field","in_goget_fields":"Yes","_label":"Okwori","_status_group":"unknown","_states":[]},"geometry":{"type":"Polygon","coordinates":[[[6.99133,3.76868],[6.99133,3.75227],[6.97634,3.73942],[6.92423,3.74584],[6.94993,3.77582],[6.96635,3.7801],[6.99133,3.76868]]]}},{"type":"Feature","properties":{"name":"Okwori","field_type":"Gas_Field","in_goget_fields":"Yes","_label":"Okwori","_status_group":"unknown","_states":[]},"geometry":{"type":"Polygon","coordinates":[[[6.99133,3.76868],[6.99133,3.75227],[6.97634,3.73942],[6.92423,3.74584],[6.94993,3.77582],[6.96635,3.7801],[6.99133,3.76868]]]}},{"type":"Feature","properties":{"name":"Oshi","field_type":"Gas_Field","in_goget_fields":"Yes","_label":"Oshi","_status_group":"unknown","_states":["Bayelsa"]},"geometry":{"type":"Polygon","coordinates":[[[6.42247,4.95526],[6.42425,4.93112],[6.39586,4.92338],[6.3419,4.94875],[6.377,4.96219],[6.42247,4.95526]]]}},{"type":"Feature","properties":{"name":"Oshi","field_type":"Gas_Field","in_goget_fields":"Yes","_label":"Oshi","_status_group":"unknown","_states":["Bayelsa"]},"geometry":{"type":"Polygon","coordinates":[[[6.42247,4.95526],[6.42425,4.93112],[6.39586,4.92338],[6.3419,4.94875],[6.377,4.96219],[6.42247,4.95526]]]}},{"type":"Feature","properties":{"name":"Oso","field_type":"Gas_Field","in_goget_fields":"Yes","_label":"Oso","_status_group":"unknown","_states":[]},"geometry":{"type":"Polygon","coordinates":[[[7.6793,4.22587],[7.68501,4.20683],[7.65836,4.1897],[7.63456,4.1878],[7.62124,4.20303],[7.62124,4.2173],[7.63837,4.21635],[7.65836,4.23158],[7.6793,4.22587]]]}},{"type":"Feature","properties":{"name":"Oso","field_type":"Gas_Field","in_goget_fields":"Yes","_label":"Oso","_status_group":"unknown","_states":[]},"geometry":{"type":"Polygon","coordinates":[[[7.6793,4.22587],[7.68501,4.20683],[7.65836,4.1897],[7.63456,4.1878],[7.62124,4.20303],[7.62124,4.2173],[7.63837,4.21635],[7.65836,4.23158],[7.6793,4.22587]]]}},{"type":"Feature","properties":{"name":"Sapele","field_type":"Gas_Field","in_goget_fields":"No","_label":"Sapele","_status_group":"unknown","_states":["Delta"]},"geometry":{"type":"Polygon","coordinates":[[[5.55133,5.85125],[5.55419,5.83412],[5.52278,5.83793],[5.50945,5.8522],[5.55133,5.85125]]]}},{"type":"Feature","properties":{"name":"Sapele","field_type":"Gas_Field","in_goget_fields":"No","_label":"Sapele","_status_group":"unknown","_states":["Delta"]},"geometry":{"type":"Polygon","coordinates":[[[5.55133,5.85125],[5.55419,5.83412],[5.52278,5.83793],[5.50945,5.8522],[5.55133,5.85125]]]}},{"type":"Feature","properties":{"name":"Sonam","field_type":"Gas_Field","in_goget_fields":"Yes","_label":"Sonam","_status_group":"unknown","_states":[]},"geometry":{"type":"Polygon","coordinates":[[[4.75569,5.44756],[4.7871,5.45327],[4.82327,5.43043],[4.81756,5.36191],[4.76711,5.40854],[4.75569,5.44756]]]}},{"type":"Feature","properties":{"name":"Sonam","field_type":"Gas_Field","in_goget_fields":"Yes","_label":"Sonam","_status_group":"unknown","_states":[]},"geometry":{"type":"Polygon","coordinates":[[[4.75569,5.44756],[4.7871,5.45327],[4.82327,5.43043],[4.81756,5.36191],[4.76711,5.40854],[4.75569,5.44756]]]}},{"type":"Feature","properties":{"name":"Tabidaba","field_type":"Gas_Field","in_goget_fields":"No","_label":"Tabidaba","_status_group":"unknown","_states":["Bayelsa"]},"geometry":{"type":"Polygon","coordinates":[[[5.90304,4.47877],[5.90661,4.45378],[5.87984,4.44665],[5.85307,4.46449],[5.85307,4.4859],[5.87627,4.49304],[5.90304,4.47877]]]}},{"type":"Feature","properties":{"name":"Tabidaba","field_type":"Gas_Field","in_goget_fields":"No","_label":"Tabidaba","_status_group":"unknown","_states":["Bayelsa"]},"geometry":{"type":"Polygon","coordinates":[[[5.90304,4.47877],[5.90661,4.45378],[5.87984,4.44665],[5.85307,4.46449],[5.85307,4.4859],[5.87627,4.49304],[5.90304,4.47877]]]}},{"type":"Feature","properties":{"name":"Tubu","field_type":"Gas_Field","in_goget_fields":"Yes","_label":"Tubu","_status_group":"unknown","_states":[]},"geometry":{"type":"Polygon","coordinates":[[[7.3642,4.30303],[7.36882,4.29073],[7.3497,4.27935],[7.28964,4.28227],[7.29382,4.30047],[7.325,4.29505],[7.3642,4.30303]]]}},{"type":"Feature","properties":{"name":"Tubu","field_type":"Gas_Field","in_goget_fields":"Yes","_label":"Tubu","_status_group":"unknown","_states":[]},"geometry":{"type":"Polygon","coordinates":[[[7.3642,4.30303],[7.36882,4.29073],[7.3497,4.27935],[7.28964,4.28227],[7.29382,4.30047],[7.325,4.29505],[7.3642,4.30303]]]}},{"type":"Feature","properties":{"name":"Usan","field_type":"Gas_Field","in_goget_fields":"Yes","_label":"Usan","_status_group":"unknown","_states":[]},"geometry":{"type":"Polygon","coordinates":[[[7.40192,3.48014],[7.44189,3.4868],[7.44189,3.45349],[7.41429,3.38973],[7.40858,3.43065],[7.38859,3.44969],[7.38669,3.46396],[7.40192,3.48014]]]}},{"type":"Feature","properties":{"name":"Usan","field_type":"Gas_Field","in_goget_fields":"Yes","_label":"Usan","_status_group":"unknown","_states":[]},"geometry":{"type":"Polygon","coordinates":[[[7.40192,3.48014],[7.44189,3.4868],[7.44189,3.45349],[7.41429,3.38973],[7.40858,3.43065],[7.38859,3.44969],[7.38669,3.46396],[7.40192,3.48014]]]}},{"type":"Feature","properties":{"name":"Utapate","field_type":"Gas_Field","in_goget_fields":"No","_label":"Utapate","_status_group":"unknown","_states":[]},"geometry":{"type":"Polygon","coordinates":[[[7.7508,4.42206],[7.79958,4.42444],[7.79958,4.39946],[7.7508,4.39708],[7.7508,4.42206]]]}},{"type":"Feature","properties":{"name":"Utapate","field_type":"Gas_Field","in_goget_fields":"No","_label":"Utapate","_status_group":"unknown","_states":[]},"geometry":{"type":"Polygon","coordinates":[[[7.7508,4.42206],[7.79958,4.42444],[7.79958,4.39946],[7.7508,4.39708],[7.7508,4.42206]]]}}]}
