{"type":"FeatureCollection","name":"field_polygons_mixed","atlas_release":{"version":"0.6.0","date":"2026-07-24","title":"Structured Distributed Energy and Open Contributions"},"metadata":{"description":"Oil-and-gas field boundary polygons, including field names not present in the GOGET point inventory above.","source":"Nigeria SE4ALL Open Data Portal","source_date":"2026-07-24","license":"Public portal; explicit redistribution terms not stated","quality":"B","quality_note":"60 of 124 SE4ALL polygons are classified Crude Oil and Gas Field; 2 more have no field_type recorded and are folded in here rather than treated as pure gas or oil. 8 of 124 total polygons carry no field name in the source.","path":"data/processed/01_resource/se4all_gas_fields_nigeria_2026-07.csv","key":"field_polygons_mixed","label":"Oil & Gas Field Boundaries (mixed)","category":"resource","category_label":"Resource","record_count":62,"download_url":"https://raw.githubusercontent.com/Diamonds10/nigeria-infrastructure-atlas/main/data/processed/01_resource/se4all_gas_fields_nigeria_2026-07.csv"},"features":[{"type":"Feature","properties":{"name":"Abura","field_type":"Crude Oil and Gas Field","in_goget_fields":"No","_label":"Abura","_status_group":"unknown","_states":["Delta"]},"geometry":{"type":"Polygon","coordinates":[[[5.78935,5.37275],[5.79315,5.36038],[5.7922,5.34135],[5.77983,5.34991],[5.77412,5.37085],[5.78935,5.37275]]]}},{"type":"Feature","properties":{"name":"Abura","field_type":"Crude Oil and Gas Field","in_goget_fields":"No","_label":"Abura","_status_group":"unknown","_states":["Delta"]},"geometry":{"type":"Polygon","coordinates":[[[5.78935,5.37275],[5.79315,5.36038],[5.7922,5.34135],[5.77983,5.34991],[5.77412,5.37085],[5.78935,5.37275]]]}},{"type":"Feature","properties":{"name":"Afiesere","field_type":"Crude Oil and Gas Field","in_goget_fields":"No","_label":"Afiesere","_status_group":"unknown","_states":["Delta"]},"geometry":{"type":"Polygon","coordinates":[[[5.99023,5.51368],[5.98369,5.49606],[5.96716,5.5012],[5.9284,5.52697],[5.92395,5.54348],[5.93137,5.54871],[5.98279,5.52645],[5.99023,5.51368]]]}},{"type":"Feature","properties":{"name":"Afiesere","field_type":"Crude Oil and Gas Field","in_goget_fields":"No","_label":"Afiesere","_status_group":"unknown","_states":["Delta"]},"geometry":{"type":"Polygon","coordinates":[[[5.99023,5.51368],[5.98369,5.49606],[5.96716,5.5012],[5.9284,5.52697],[5.92395,5.54348],[5.93137,5.54871],[5.98279,5.52645],[5.99023,5.51368]]]}},{"type":"Feature","properties":{"name":"Agbada","field_type":"Crude Oil and Gas Field","in_goget_fields":"Yes","_label":"Agbada","_status_group":"unknown","_states":["Rivers"]},"geometry":{"type":"Polygon","coordinates":[[[7.02983,4.93906],[7.0717,4.92477],[7.06897,4.91643],[7.05585,4.91173],[6.98114,4.9104],[6.94211,4.95362],[6.95227,4.95983],[6.9802,4.9522],[6.992,4.93451],[7.02983,4.93906]]]}},{"type":"Feature","properties":{"name":"Agbada","field_type":"Crude Oil and Gas Field","in_goget_fields":"Yes","_label":"Agbada","_status_group":"unknown","_states":["Rivers"]},"geometry":{"type":"Polygon","coordinates":[[[7.02983,4.93906],[7.0717,4.92477],[7.06897,4.91643],[7.05585,4.91173],[6.98114,4.9104],[6.94211,4.95362],[6.95227,4.95983],[6.9802,4.9522],[6.992,4.93451],[7.02983,4.93906]]]}},{"type":"Feature","properties":{"name":"Akuba","field_type":"Crude Oil and Gas Field","in_goget_fields":"No","_label":"Akuba","_status_group":"unknown","_states":["Rivers"]},"geometry":{"type":"Polygon","coordinates":[[[7.14929,4.67313],[7.14861,4.65941],[7.13374,4.6601],[7.13679,4.67172],[7.14929,4.67313]]]}},{"type":"Feature","properties":{"name":"Akuba","field_type":"Crude Oil and Gas Field","in_goget_fields":"No","_label":"Akuba","_status_group":"unknown","_states":["Rivers"]},"geometry":{"type":"Polygon","coordinates":[[[7.14929,4.67313],[7.14861,4.65941],[7.13374,4.6601],[7.13679,4.67172],[7.14929,4.67313]]]}},{"type":"Feature","properties":{"name":"Alakiri","field_type":"Crude Oil and Gas Field","in_goget_fields":"No","_label":"Alakiri","_status_group":"unknown","_states":["Rivers"]},"geometry":{"type":"Polygon","coordinates":[[[7.0731,4.65916],[7.0785,4.63678],[7.06185,4.62178],[7.05006,4.62433],[7.04786,4.63982],[7.0247,4.65274],[7.05392,4.66787],[7.0731,4.65916]]]}},{"type":"Feature","properties":{"name":"Alakiri","field_type":"Crude Oil and Gas Field","in_goget_fields":"No","_label":"Alakiri","_status_group":"unknown","_states":["Rivers"]},"geometry":{"type":"Polygon","coordinates":[[[7.0731,4.65916],[7.0785,4.63678],[7.06185,4.62178],[7.05006,4.62433],[7.04786,4.63982],[7.0247,4.65274],[7.05392,4.66787],[7.0731,4.65916]]]}},{"type":"Feature","properties":{"name":"Belema","field_type":"Crude Oil and Gas Field","in_goget_fields":"Yes","_label":"Belema","_status_group":"unknown","_states":["Bayelsa"]},"geometry":{"type":"Polygon","coordinates":[[[6.43598,4.36031],[6.44133,4.34068],[6.42527,4.33711],[6.38958,4.34782],[6.38422,4.38172],[6.43598,4.36031]]]}},{"type":"Feature","properties":{"name":"Belema","field_type":"Crude Oil and Gas Field","in_goget_fields":"Yes","_label":"Belema","_status_group":"unknown","_states":["Bayelsa"]},"geometry":{"type":"Polygon","coordinates":[[[6.43598,4.36031],[6.44133,4.34068],[6.42527,4.33711],[6.38958,4.34782],[6.38422,4.38172],[6.43598,4.36031]]]}},{"type":"Feature","properties":{"name":"Bomu","field_type":"Crude Oil and Gas Field","in_goget_fields":"No","_label":"Bomu","_status_group":"unknown","_states":["Rivers"]},"geometry":{"type":"Polygon","coordinates":[[[7.31056,4.57407],[7.31493,4.55972],[7.30769,4.54305],[7.29274,4.53541],[7.26103,4.5514],[7.26801,4.57344],[7.31056,4.57407]]]}},{"type":"Feature","properties":{"name":"Bomu","field_type":"Crude Oil and Gas Field","in_goget_fields":"No","_label":"Bomu","_status_group":"unknown","_states":["Rivers"]},"geometry":{"type":"Polygon","coordinates":[[[7.31056,4.57407],[7.31493,4.55972],[7.30769,4.54305],[7.29274,4.53541],[7.26103,4.5514],[7.26801,4.57344],[7.31056,4.57407]]]}},{"type":"Feature","properties":{"name":"Creek","field_type":"Crude Oil and Gas Field","in_goget_fields":"No","_label":"Creek","_status_group":"unknown","_states":["Delta"]},"geometry":{"type":"Polygon","coordinates":[[[5.37916,5.60192],[5.37286,5.58578],[5.36211,5.5836],[5.34836,5.60182],[5.34436,5.62459],[5.36092,5.62403],[5.37916,5.60192]]]}},{"type":"Feature","properties":{"name":"Creek","field_type":"Crude Oil and Gas Field","in_goget_fields":"No","_label":"Creek","_status_group":"unknown","_states":["Delta"]},"geometry":{"type":"Polygon","coordinates":[[[5.37916,5.60192],[5.37286,5.58578],[5.36211,5.5836],[5.34836,5.60182],[5.34436,5.62459],[5.36092,5.62403],[5.37916,5.60192]]]}},{"type":"Feature","properties":{"name":"Egwa","field_type":"Crude Oil and Gas Field","in_goget_fields":"Yes","_label":"Egwa","_status_group":"unknown","_states":["Delta"]},"geometry":{"type":"Polygon","coordinates":[[[5.38591,5.53929],[5.39199,5.56497],[5.41316,5.5616],[5.42737,5.53732],[5.42588,5.52193],[5.39541,5.5267],[5.38591,5.53929]]]}},{"type":"Feature","properties":{"name":"Egwa","field_type":"Crude Oil and Gas Field","in_goget_fields":"Yes","_label":"Egwa","_status_group":"unknown","_states":["Delta"]},"geometry":{"type":"Polygon","coordinates":[[[5.38591,5.53929],[5.39199,5.56497],[5.41316,5.5616],[5.42737,5.53732],[5.42588,5.52193],[5.39541,5.5267],[5.38591,5.53929]]]}},{"type":"Feature","properties":{"name":"Ewan","field_type":"Crude Oil and Gas Field","in_goget_fields":"Yes","_label":"Ewan","_status_group":"unknown","_states":[]},"geometry":{"type":"Polygon","coordinates":[[[4.94602,5.8103],[4.9431,5.79488],[4.89509,5.79361],[4.86046,5.83104],[4.85557,5.86802],[4.8792,5.86471],[4.94602,5.8103]]]}},{"type":"Feature","properties":{"name":"Ewan","field_type":"Crude Oil and Gas Field","in_goget_fields":"Yes","_label":"Ewan","_status_group":"unknown","_states":[]},"geometry":{"type":"Polygon","coordinates":[[[4.94602,5.8103],[4.9431,5.79488],[4.89509,5.79361],[4.86046,5.83104],[4.85557,5.86802],[4.8792,5.86471],[4.94602,5.8103]]]}},{"type":"Feature","properties":{"name":"Forcados Yorki","field_type":"Crude Oil and Gas Field","in_goget_fields":"No","_label":"Forcados Yorki","_status_group":"unknown","_states":[]},"geometry":{"type":"Polygon","coordinates":[[[5.21683,5.39521],[5.31116,5.34687],[5.32662,5.32066],[5.33276,5.28596],[5.30471,5.28307],[5.28237,5.29272],[5.25007,5.34905],[5.21051,5.38208],[5.20906,5.39166],[5.21683,5.39521]]]}},{"type":"Feature","properties":{"name":"Forcados Yorki","field_type":"Crude Oil and Gas Field","in_goget_fields":"No","_label":"Forcados Yorki","_status_group":"unknown","_states":[]},"geometry":{"type":"Polygon","coordinates":[[[5.21683,5.39521],[5.31116,5.34687],[5.32662,5.32066],[5.33276,5.28596],[5.30471,5.28307],[5.28237,5.29272],[5.25007,5.34905],[5.21051,5.38208],[5.20906,5.39166],[5.21683,5.39521]]]}},{"type":"Feature","properties":{"name":"Imo River","field_type":"Crude Oil and Gas Field","in_goget_fields":"Yes","_label":"Imo River","_status_group":"unknown","_states":["Rivers","Abia"]},"geometry":{"type":"Polygon","coordinates":[[[7.21036,4.88775],[7.21418,4.84816],[7.17179,4.85786],[7.156,4.85438],[7.15106,4.87411],[7.16125,4.88568],[7.1973,4.89201],[7.21036,4.88775]]]}},{"type":"Feature","properties":{"name":"Imo River","field_type":"Crude Oil and Gas Field","in_goget_fields":"Yes","_label":"Imo River","_status_group":"unknown","_states":["Rivers","Abia"]},"geometry":{"type":"Polygon","coordinates":[[[7.21036,4.88775],[7.21418,4.84816],[7.17179,4.85786],[7.156,4.85438],[7.15106,4.87411],[7.16125,4.88568],[7.1973,4.89201],[7.21036,4.88775]]]}},{"type":"Feature","properties":{"name":"Isimiri","field_type":"Crude Oil and Gas Field","in_goget_fields":"No","_label":"Isimiri","_status_group":"unknown","_states":["Rivers"]},"geometry":{"type":"Polygon","coordinates":[[[7.22969,4.75224],[7.21047,4.72156],[7.19718,4.72856],[7.20004,4.7443],[7.22969,4.75224]]]}},{"type":"Feature","properties":{"name":"Isimiri","field_type":"Crude Oil and Gas Field","in_goget_fields":"No","_label":"Isimiri","_status_group":"unknown","_states":["Rivers"]},"geometry":{"type":"Polygon","coordinates":[[[7.22969,4.75224],[7.21047,4.72156],[7.19718,4.72856],[7.20004,4.7443],[7.22969,4.75224]]]}},{"type":"Feature","properties":{"name":"Jone Creek","field_type":"Crude Oil and Gas Field","in_goget_fields":"No","_label":"Jone Creek","_status_group":"unknown","_states":["Delta"]},"geometry":{"type":"Polygon","coordinates":[[[5.44163,5.71473],[5.43173,5.70162],[5.4049,5.7083],[5.36,5.75004],[5.38183,5.75552],[5.42651,5.73901],[5.44163,5.71473]]]}},{"type":"Feature","properties":{"name":"Jone Creek","field_type":"Crude Oil and Gas Field","in_goget_fields":"No","_label":"Jone Creek","_status_group":"unknown","_states":["Delta"]},"geometry":{"type":"Polygon","coordinates":[[[5.44163,5.71473],[5.43173,5.70162],[5.4049,5.7083],[5.36,5.75004],[5.38183,5.75552],[5.42651,5.73901],[5.44163,5.71473]]]}},{"type":"Feature","properties":{"name":"Kokori","field_type":"Crude Oil and Gas Field","in_goget_fields":"Yes","_label":"Kokori","_status_group":"unknown","_states":["Delta"]},"geometry":{"type":"Polygon","coordinates":[[[6.07095,5.60653],[6.06786,5.58563],[6.04157,5.57651],[6.02197,5.59305],[6.01825,5.62264],[6.04451,5.62519],[6.07095,5.60653]]]}},{"type":"Feature","properties":{"name":"Kokori","field_type":"Crude Oil and Gas Field","in_goget_fields":"Yes","_label":"Kokori","_status_group":"unknown","_states":["Delta"]},"geometry":{"type":"Polygon","coordinates":[[[6.07095,5.60653],[6.06786,5.58563],[6.04157,5.57651],[6.02197,5.59305],[6.01825,5.62264],[6.04451,5.62519],[6.07095,5.60653]]]}},{"type":"Feature","properties":{"name":"Kolo Creek","field_type":"Crude Oil and Gas Field","in_goget_fields":"No","_label":"Kolo Creek","_status_group":"unknown","_states":["Bayelsa"]},"geometry":{"type":"Polygon","coordinates":[[[6.32469,4.84109],[6.37644,4.83931],[6.38715,4.82503],[6.37288,4.8054],[6.32469,4.80897],[6.30684,4.82146],[6.32469,4.84109]]]}},{"type":"Feature","properties":{"name":"Kolo Creek","field_type":"Crude Oil and Gas Field","in_goget_fields":"No","_label":"Kolo Creek","_status_group":"unknown","_states":["Bayelsa"]},"geometry":{"type":"Polygon","coordinates":[[[6.32469,4.84109],[6.37644,4.83931],[6.38715,4.82503],[6.37288,4.8054],[6.32469,4.80897],[6.30684,4.82146],[6.32469,4.84109]]]}},{"type":"Feature","properties":{"name":"Mak araba and Obodo","field_type":"Crude Oil and Gas Field","in_goget_fields":"No","_label":"Mak araba and Obodo","_status_group":"unknown","_states":["Delta"]},"geometry":{"type":"Polygon","coordinates":[[[5.3329,5.56729],[5.33816,5.54275],[5.32682,5.54161],[5.2821,5.57248],[5.20731,5.57979],[5.19836,5.58222],[5.1984,5.59238],[5.21574,5.59799],[5.21607,5.60456],[5.24084,5.60595],[5.28227,5.59112],[5.29175,5.57674],[5.3329,5.56729]]]}},{"type":"Feature","properties":{"name":"Mak araba and Obodo","field_type":"Crude Oil and Gas Field","in_goget_fields":"No","_label":"Mak araba and Obodo","_status_group":"unknown","_states":["Delta"]},"geometry":{"type":"Polygon","coordinates":[[[5.3329,5.56729],[5.33816,5.54275],[5.32682,5.54161],[5.2821,5.57248],[5.20731,5.57979],[5.19836,5.58222],[5.1984,5.59238],[5.21574,5.59799],[5.21607,5.60456],[5.24084,5.60595],[5.28227,5.59112],[5.29175,5.57674],[5.3329,5.56729]]]}},{"type":"Feature","properties":{"name":"Middlelon","field_type":"Crude Oil and Gas Field","in_goget_fields":"No","_label":"Middlelon","_status_group":"unknown","_states":[]},"geometry":{"type":"Polygon","coordinates":[[[5.52358,4.42614],[5.54996,4.42487],[5.56541,4.41405],[5.55344,4.402],[5.53916,4.40159],[5.52726,4.40642],[5.52358,4.42614]]]}},{"type":"Feature","properties":{"name":"Middlelon","field_type":"Crude Oil and Gas Field","in_goget_fields":"No","_label":"Middlelon","_status_group":"unknown","_states":[]},"geometry":{"type":"Polygon","coordinates":[[[5.52358,4.42614],[5.54996,4.42487],[5.56541,4.41405],[5.55344,4.402],[5.53916,4.40159],[5.52726,4.40642],[5.52358,4.42614]]]}},{"type":"Feature","properties":{"field_type":"Crude Oil and Gas Field","in_goget_fields":"No","_label":null,"_status_group":"unknown","_states":[]},"geometry":{"type":"Polygon","coordinates":[[[5.0555,5.41574],[5.08765,5.395],[5.10992,5.36353],[5.12364,5.36138],[5.12655,5.33925],[5.11104,5.3402],[5.0757,5.38996],[5.05485,5.40049],[5.0555,5.41574]]]}},{"type":"Feature","properties":{"field_type":"Crude Oil and Gas Field","in_goget_fields":"No","_label":null,"_status_group":"unknown","_states":["Rivers"]},"geometry":{"type":"Polygon","coordinates":[[[6.67615,4.50869],[6.71714,4.49235],[6.70097,4.4738],[6.67275,4.47108],[6.64517,4.45653],[6.61022,4.46164],[6.61351,4.4807],[6.64039,4.49848],[6.67615,4.50869]]]}},{"type":"Feature","properties":{"field_type":"Crude Oil and Gas Field","in_goget_fields":"No","_label":null,"_status_group":"unknown","_states":[]},"geometry":{"type":"Polygon","coordinates":[[[5.0555,5.41574],[5.08765,5.395],[5.10992,5.36353],[5.12364,5.36138],[5.12655,5.33925],[5.11104,5.3402],[5.0757,5.38996],[5.05485,5.40049],[5.0555,5.41574]]]}},{"type":"Feature","properties":{"field_type":"Crude Oil and Gas Field","in_goget_fields":"No","_label":null,"_status_group":"unknown","_states":["Rivers"]},"geometry":{"type":"Polygon","coordinates":[[[6.67615,4.50869],[6.71714,4.49235],[6.70097,4.4738],[6.67275,4.47108],[6.64517,4.45653],[6.61022,4.46164],[6.61351,4.4807],[6.64039,4.49848],[6.67615,4.50869]]]}},{"type":"Feature","properties":{"field_type":"Unspecified","in_goget_fields":"No","_label":null,"_status_group":"unknown","_states":["Rivers"]},"geometry":{"type":"Polygon","coordinates":[[[6.7718,4.47185],[6.81369,4.46412],[6.80705,4.42254],[6.78092,4.4209],[6.74924,4.43693],[6.7718,4.47185]]]}},{"type":"Feature","properties":{"field_type":"Unspecified","in_goget_fields":"No","_label":null,"_status_group":"unknown","_states":["Rivers"]},"geometry":{"type":"Polygon","coordinates":[[[6.7718,4.47185],[6.81369,4.46412],[6.80705,4.42254],[6.78092,4.4209],[6.74924,4.43693],[6.7718,4.47185]]]}},{"type":"Feature","properties":{"name":"Oben","field_type":"Crude Oil and Gas Field","in_goget_fields":"No","_label":"Oben","_status_group":"unknown","_states":["Delta","Edo"]},"geometry":{"type":"Polygon","coordinates":[[[5.84322,5.93479],[5.88772,5.92882],[5.88141,5.90949],[5.86087,5.90864],[5.8403,5.92429],[5.84322,5.93479]]]}},{"type":"Feature","properties":{"name":"Oben","field_type":"Crude Oil and Gas Field","in_goget_fields":"No","_label":"Oben","_status_group":"unknown","_states":["Delta","Edo"]},"geometry":{"type":"Polygon","coordinates":[[[5.84322,5.93479],[5.88772,5.92882],[5.88141,5.90949],[5.86087,5.90864],[5.8403,5.92429],[5.84322,5.93479]]]}},{"type":"Feature","properties":{"name":"Oben N","field_type":"Crude Oil and Gas Field","in_goget_fields":"No","_label":"Oben N","_status_group":"unknown","_states":["Delta"]},"geometry":{"type":"Polygon","coordinates":[[[5.69739,5.90924],[5.72289,5.92155],[5.73619,5.9057],[5.73589,5.89327],[5.70271,5.8975],[5.69739,5.90924]]]}},{"type":"Feature","properties":{"name":"Oben N","field_type":"Crude Oil and Gas Field","in_goget_fields":"No","_label":"Oben N","_status_group":"unknown","_states":["Delta"]},"geometry":{"type":"Polygon","coordinates":[[[5.69739,5.90924],[5.72289,5.92155],[5.73619,5.9057],[5.73589,5.89327],[5.70271,5.8975],[5.69739,5.90924]]]}},{"type":"Feature","properties":{"name":"Obigbo","field_type":"Crude Oil and Gas Field","in_goget_fields":"No","_label":"Obigbo","_status_group":"unknown","_states":["Rivers"]},"geometry":{"type":"Polygon","coordinates":[[[7.13598,4.83144],[7.14159,4.81494],[7.13679,4.80828],[7.11838,4.79407],[7.10745,4.79772],[7.09902,4.81949],[7.13598,4.83144]]]}},{"type":"Feature","properties":{"name":"Obigbo","field_type":"Crude Oil and Gas Field","in_goget_fields":"No","_label":"Obigbo","_status_group":"unknown","_states":["Rivers"]},"geometry":{"type":"Polygon","coordinates":[[[7.13598,4.83144],[7.14159,4.81494],[7.13679,4.80828],[7.11838,4.79407],[7.10745,4.79772],[7.09902,4.81949],[7.13598,4.83144]]]}},{"type":"Feature","properties":{"name":"Ofon","field_type":"Crude Oil and Gas Field","in_goget_fields":"Yes","_label":"Ofon","_status_group":"unknown","_states":[]},"geometry":{"type":"Polygon","coordinates":[[[8.038,4.0596],[8.06805,4.07757],[8.12416,4.08202],[8.16573,4.05854],[8.16862,4.04406],[8.1567,4.03745],[8.10643,4.04541],[8.10818,4.02961],[8.08965,4.02089],[8.05559,4.03121],[8.03887,4.04385],[8.038,4.0596]]]}},{"type":"Feature","properties":{"name":"Ofon","field_type":"Crude Oil and Gas Field","in_goget_fields":"Yes","_label":"Ofon","_status_group":"unknown","_states":[]},"geometry":{"type":"Polygon","coordinates":[[[8.038,4.0596],[8.06805,4.07757],[8.12416,4.08202],[8.16573,4.05854],[8.16862,4.04406],[8.1567,4.03745],[8.10643,4.04541],[8.10818,4.02961],[8.08965,4.02089],[8.05559,4.03121],[8.03887,4.04385],[8.038,4.0596]]]}},{"type":"Feature","properties":{"name":"Opukushi","field_type":"Crude Oil and Gas Field","in_goget_fields":"Yes","_label":"Opukushi","_status_group":"unknown","_states":["Bayelsa"]},"geometry":{"type":"Polygon","coordinates":[[[5.78405,4.83898],[5.769,4.83079],[5.76749,4.81215],[5.75422,4.80324],[5.73491,4.80188],[5.72067,4.81557],[5.71861,4.83781],[5.73084,4.85605],[5.75299,4.85166],[5.76625,4.85806],[5.78405,4.83898]]]}},{"type":"Feature","properties":{"name":"Opukushi","field_type":"Crude Oil and Gas Field","in_goget_fields":"Yes","_label":"Opukushi","_status_group":"unknown","_states":["Bayelsa"]},"geometry":{"type":"Polygon","coordinates":[[[5.78405,4.83898],[5.769,4.83079],[5.76749,4.81215],[5.75422,4.80324],[5.73491,4.80188],[5.72067,4.81557],[5.71861,4.83781],[5.73084,4.85605],[5.75299,4.85166],[5.76625,4.85806],[5.78405,4.83898]]]}},{"type":"Feature","properties":{"name":"Otamini","field_type":"Crude Oil and Gas Field","in_goget_fields":"No","_label":"Otamini","_status_group":"unknown","_states":["Rivers"]},"geometry":{"type":"Polygon","coordinates":[[[6.97821,5.00925],[7.00622,4.99595],[6.99494,4.98121],[6.96662,4.98282],[6.95383,4.99436],[6.95559,5.00891],[6.94221,5.00255],[6.93968,5.01689],[6.95071,5.02876],[6.97191,5.03007],[6.97821,5.00925]]]}},{"type":"Feature","properties":{"name":"Otamini","field_type":"Crude Oil and Gas Field","in_goget_fields":"No","_label":"Otamini","_status_group":"unknown","_states":["Rivers"]},"geometry":{"type":"Polygon","coordinates":[[[6.97821,5.00925],[7.00622,4.99595],[6.99494,4.98121],[6.96662,4.98282],[6.95383,4.99436],[6.95559,5.00891],[6.94221,5.00255],[6.93968,5.01689],[6.95071,5.02876],[6.97191,5.03007],[6.97821,5.00925]]]}},{"type":"Feature","properties":{"name":"Oweh and Olomoro","field_type":"Crude Oil and Gas Field","in_goget_fields":"No","_label":"Oweh and Olomoro","_status_group":"unknown","_states":["Delta"]},"geometry":{"type":"Polygon","coordinates":[[[6.11628,5.48926],[6.12448,5.50499],[6.1644,5.48481],[6.16869,5.47393],[6.20441,5.46298],[6.21748,5.45264],[6.21334,5.43665],[6.18902,5.43988],[6.16338,5.4632],[6.13504,5.47267],[6.11628,5.48926]]]}},{"type":"Feature","properties":{"name":"Oweh and Olomoro","field_type":"Crude Oil and Gas Field","in_goget_fields":"No","_label":"Oweh and Olomoro","_status_group":"unknown","_states":["Delta"]},"geometry":{"type":"Polygon","coordinates":[[[6.11628,5.48926],[6.12448,5.50499],[6.1644,5.48481],[6.16869,5.47393],[6.20441,5.46298],[6.21748,5.45264],[6.21334,5.43665],[6.18902,5.43988],[6.16338,5.4632],[6.13504,5.47267],[6.11628,5.48926]]]}},{"type":"Feature","properties":{"name":"Pennington","field_type":"Crude Oil and Gas Field","in_goget_fields":"Yes","_label":"Pennington","_status_group":"unknown","_states":[]},"geometry":{"type":"Polygon","coordinates":[[[5.40168,4.58178],[5.45112,4.57742],[5.44147,4.54278],[5.4194,4.53628],[5.4087,4.54409],[5.39745,4.56446],[5.40168,4.58178]]]}},{"type":"Feature","properties":{"name":"Pennington","field_type":"Crude Oil and Gas Field","in_goget_fields":"Yes","_label":"Pennington","_status_group":"unknown","_states":[]},"geometry":{"type":"Polygon","coordinates":[[[5.40168,4.58178],[5.45112,4.57742],[5.44147,4.54278],[5.4194,4.53628],[5.4087,4.54409],[5.39745,4.56446],[5.40168,4.58178]]]}},{"type":"Feature","properties":{"name":"Usari","field_type":"Crude Oil and Gas Field","in_goget_fields":"Yes","_label":"Usari","_status_group":"unknown","_states":[]},"geometry":{"type":"Polygon","coordinates":[[[7.78626,4.1805],[7.80038,4.18531],[7.8027,4.19481],[7.83186,4.19495],[7.82953,4.1765],[7.80971,4.17592],[7.80334,4.15144],[7.78736,4.14119],[7.77625,4.14959],[7.78626,4.1805]]]}},{"type":"Feature","properties":{"name":"Usari","field_type":"Crude Oil and Gas Field","in_goget_fields":"Yes","_label":"Usari","_status_group":"unknown","_states":[]},"geometry":{"type":"Polygon","coordinates":[[[7.78626,4.1805],[7.80038,4.18531],[7.8027,4.19481],[7.83186,4.19495],[7.82953,4.1765],[7.80971,4.17592],[7.80334,4.15144],[7.78736,4.14119],[7.77625,4.14959],[7.78626,4.1805]]]}},{"type":"Feature","properties":{"name":"Uzere","field_type":"Crude Oil and Gas Field","in_goget_fields":"No","_label":"Uzere","_status_group":"unknown","_states":["Delta"]},"geometry":{"type":"Polygon","coordinates":[[[6.20723,5.28876],[6.26322,5.28171],[6.2841,5.26111],[6.26642,5.25523],[6.23022,5.26235],[6.20812,5.27585],[6.20723,5.28876]]]}},{"type":"Feature","properties":{"name":"Uzere","field_type":"Crude Oil and Gas Field","in_goget_fields":"No","_label":"Uzere","_status_group":"unknown","_states":["Delta"]},"geometry":{"type":"Polygon","coordinates":[[[6.20723,5.28876],[6.26322,5.28171],[6.2841,5.26111],[6.26642,5.25523],[6.23022,5.26235],[6.20812,5.27585],[6.20723,5.28876]]]}}]}
