{"type":"FeatureCollection","name":"fields_oil","product":{"name":"Infraxis Atlas — Nigeria","master_brand":"Infraxis Atlas","premium_brand":"Infraxis","country":"Nigeria","former_name":"Nigeria Infrastructure Atlas","tagline":"Mapping infrastructure. Measuring disruption.","role":"open_datasource","relationship":"This open atlas is the public datasource and screening layer; Infraxis is the separate premium analytical layer built on top of it."},"atlas_release":{"version":"0.12.1","date":"2026-08-05","title":"Ports State Join, Deferred Bundle, UI Polish"},"metadata":{"description":"Site-level Nigerian fields classified oil-only by the GOGET source, with status, operator, and ownership context.","source":"Global Energy Monitor / GreenInfo Network GOGET mirror","source_date":"2026-07-21","license":"CC BY 4.0 inferred; verify before redistribution","quality":"B","quality_note":"33 of 180 GOGET field points are source-classified oil-only. GOGET's fuel_type is not an authoritative reservoir classification: known gas-producing sites including Soku, Bonny, and Gbaran are labelled oil. Use this layer as source-classified screening evidence.","path":"data/processed/01_resource/goget_fields_nigeria_2023-08.csv","key":"fields_oil","label":"Oil-only Fields · Source Classified","category":"resource","category_label":"Resource","record_count":33,"download_url":"https://raw.githubusercontent.com/Diamonds10/infraxis-atlas-nigeria/main/data/processed/01_resource/goget_fields_nigeria_2023-08.csv","refresh":{"cadence":"annual_or_source_release","last_checked":"2026-07-21","next_review_due":"2027-07-22","review_status":"current"}},"features":[{"type":"Feature","properties":{"project":"Abang","status":"operating","operator":"Mobil","owner":"ExxonMobil;Nigerian National Petroleum Corporation","fuel_type":"oil","discovery_year":2002.0,"url":"https://www.gem.wiki/Abang_Oil_Field_(Nigeria)","_label":"Abang","_status_group":"operating","_year":2002,"_year_label":"Discovery year","_states":["Rivers"]},"geometry":{"type":"Point","coordinates":[7.642,4.229]}},{"type":"Feature","properties":{"project":"Afam","status":"operating","operator":"Nigerian National Petroleum Corporation","fuel_type":"oil","url":"https://www.gem.wiki/Afam_Oil_Field_(Nigeria)","_label":"Afam","_status_group":"operating","_states":["Rivers"]},"geometry":{"type":"Point","coordinates":[7.321,4.801]}},{"type":"Feature","properties":{"project":"Afiesere/Eriemu","status":"operating","operator":"Nigerian Petroleum Development Company","owner":"Nigerian Petroleum Development Company (55%);Shoreline Natural Resources Limited (45%)","fuel_type":"oil","discovery_year":1961.0,"start_year":"1964","url":"https://www.gem.wiki/AfiesereEriemu_Oil_Field_(Nigeria)","_label":"Afiesere/Eriemu","_status_group":"operating","_year":1961,"_year_label":"Discovery year","_states":["Delta"]},"geometry":{"type":"Point","coordinates":[6.0273,5.5453]}},{"type":"Feature","properties":{"project":"Asasa","status":"operating","operator":"Mobil","owner":"ExxonMobil (40%);Nigerian National Petroleum Corporation (60%)","fuel_type":"oil","discovery_year":1966.0,"start_year":"1996","url":"https://www.gem.wiki/Asasa_Oil_Field_(Nigeria)","_label":"Asasa","_status_group":"operating","_year":1966,"_year_label":"Discovery year","_states":["Akwa Ibom"]},"geometry":{"type":"Point","coordinates":[7.981,4.073]}},{"type":"Feature","properties":{"project":"Awawa/Yoho","status":"operating","fuel_type":"oil","url":"https://www.gem.wiki/AwawaYoho_Oil_Project_(Nigeria)","_label":"Awawa/Yoho","_status_group":"operating","_states":["Rivers"]},"geometry":{"type":"Point","coordinates":[7.463,3.894]}},{"type":"Feature","properties":{"project":"Barracuda","status":"in development","operator":"Emerald Energy Resources","fuel_type":"oil","discovery_year":2020.0,"start_year":"2023","url":"https://www.gem.wiki/Barracuda_Oil_Field_(Nigeria)","_label":"Barracuda","_status_group":"development","_year":2020,"_year_label":"Discovery year","_states":["Bayelsa"]},"geometry":{"type":"Point","coordinates":[6.1994,4.2402]}},{"type":"Feature","properties":{"project":"Bonny","status":"operating","operator":"Shell Petroleum Development Company of Nigeria","owner":"Nigerian National Petroleum Corporation (55%);Royal Dutch Shell (30%);TotalEnergies (10%);Agip (5%)","fuel_type":"oil","url":"https://www.gem.wiki/Bonny_Oil_Field_(Nigeria)","_label":"Bonny","_status_group":"operating","_states":["Rivers"]},"geometry":{"type":"Point","coordinates":[7.1809,4.4649]}},{"type":"Feature","properties":{"project":"Continental","status":"operating","operator":"Continental","fuel_type":"oil","url":"https://www.gem.wiki/Continental_Oil_Field_(Nigeria)","_label":"Continental","_status_group":"operating","_states":["Nasarawa"]},"geometry":{"type":"Point","coordinates":[7.5529,8.6806]}},{"type":"Feature","properties":{"project":"Egina","status":"operating","operator":"TotalEnergies Upstream Nigeria Limited","owner":"TotalEnergies Upstream Nigeria Limited (24%);Nigerian National Petroleum Corporation;South Atlantic Petroleum (SAPETRO) (15%);CNOOC E&P Nigeria Limited (45%);Petrobras (16%)","fuel_type":"oil","discovery_year":2003.0,"start_year":"2018","url":"https://www.gem.wiki/Egina_Oil_Field_(Nigeria)","_label":"Egina","_status_group":"operating","_year":2003,"_year_label":"Discovery year","_states":[]},"geometry":{"type":"Point","coordinates":[6.71,2.979]}},{"type":"Feature","properties":{"project":"Evwreni","status":"operating","owner":"Shoreline Natural Resources Limited (45%);Nigerian Petroleum Development Company (55%)","fuel_type":"oil","discovery_year":1967.0,"start_year":"1969","url":"https://www.gem.wiki/Evwreni_Oil_Field_(Nigeria)","_label":"Evwreni","_status_group":"operating","_year":1967,"_year_label":"Discovery year","_states":["Delta"]},"geometry":{"type":"Point","coordinates":[6.0363,5.3835]}},{"type":"Feature","properties":{"project":"Gbaran","status":"operating","operator":"Shell Petroleum Development Company of Nigeria","owner":"Shell Petroleum Development Company of Nigeria (30%);Nigerian National Petroleum Corporation (55%);TotalEnergies E&P Nigeria Limited (10%);Nigerian Agip Oil Company (5%)","fuel_type":"oil","url":"https://www.gem.wiki/Gbaran_Oil_Field_(Nigeria)","_label":"Gbaran","_status_group":"operating","_states":["Bayelsa"]},"geometry":{"type":"Point","coordinates":[6.3688,5.1559]}},{"type":"Feature","properties":{"project":"Gbetiokun","status":"operating","operator":"NPDC","owner":"Seplat Petroleum (45%);Nigerian Petroleum Development Company","fuel_type":"oil","start_year":"2019","url":"https://www.gem.wiki/Gbetiokun_Oil_Field_(Nigeria)","_label":"Gbetiokun","_status_group":"operating","_states":["Delta"]},"geometry":{"type":"Point","coordinates":[5.3406,5.9395]}},{"type":"Feature","properties":{"project":"Gbokoda","status":"operating","operator":"Chevron","owner":"Chevron (40%);Nigerian National Petroleum Corporation (60%)","fuel_type":"oil","start_year":"1998","url":"https://www.gem.wiki/Gbokoda_Oil_Field_(Nigeria)","_label":"Gbokoda","_status_group":"operating","_states":["Delta"]},"geometry":{"type":"Point","coordinates":[5.187,5.871]}},{"type":"Feature","properties":{"project":"Ibot","status":"in development","operator":"Mobil Producing Nigeria Unlimited","owner":"Nigerian Petroleum Development Company (60%);ExxonMobil (40%)","fuel_type":"oil","discovery_year":1979.0,"start_year":"2026 (expected)","url":"https://www.gem.wiki/Ibot_Oil_Field_(Nigeria)","_label":"Ibot","_status_group":"development","_year":1979,"_year_label":"Discovery year","_states":["Nasarawa"]},"geometry":{"type":"Point","coordinates":[7.5529,8.6806]}},{"type":"Feature","properties":{"project":"Iyak","status":"operating","operator":"Mobil","fuel_type":"oil","url":"https://www.gem.wiki/Iyak_Oil_Field_(Nigeria)","_label":"Iyak","_status_group":"operating","_states":["Akwa Ibom"]},"geometry":{"type":"Point","coordinates":[8.1441,4.1998]}},{"type":"Feature","properties":{"project":"Kokori","status":"operating","owner":"Shoreline Natural Resources Limited (45%);Nigerian Petroleum Development Company (55%)","fuel_type":"oil","discovery_year":1960.0,"start_year":"1966","url":"https://www.gem.wiki/Kokori_Oil_Field_(Nigeria)","_label":"Kokori","_status_group":"operating","_year":1960,"_year_label":"Discovery year","_states":["Delta"]},"geometry":{"type":"Point","coordinates":[6.077,5.655]}},{"type":"Feature","properties":{"project":"Koma","status":"operating","operator":"Shell Petroleum Development Company of Nigeria","fuel_type":"oil","url":"https://www.gem.wiki/Koma_Oil_Field_(Nigeria)","_label":"Koma","_status_group":"operating","_states":["Nasarawa"]},"geometry":{"type":"Point","coordinates":[7.5529,8.6806]}},{"type":"Feature","properties":{"project":"Meji","status":"operating","operator":"Chevron","owner":"Chevron (40%);Nigerian National Petroleum Corporation (60%)","fuel_type":"oil","discovery_year":1964.0,"url":"https://www.gem.wiki/Meji_Oil_Field_(Nigeria)","_label":"Meji","_status_group":"operating","_year":1964,"_year_label":"Discovery year","_states":["Delta"]},"geometry":{"type":"Point","coordinates":[5.139,5.45]}},{"type":"Feature","properties":{"project":"Meren","status":"operating","operator":"Chevron","owner":"Chevron (40%);Nigerian National Petroleum Corporation (60%)","fuel_type":"oil","discovery_year":1965.0,"start_year":"1968","url":"https://www.gem.wiki/Meren_Oil_Field_(Nigeria)","_label":"Meren","_status_group":"operating","_year":1965,"_year_label":"Discovery year","_states":["Delta"]},"geometry":{"type":"Point","coordinates":[4.8871,5.7876]}},{"type":"Feature","properties":{"project":"Ogo","status":"in development","operator":"Optimum Petroleum Development","fuel_type":"oil","discovery_year":2013.0,"start_year":"2023","url":"https://www.gem.wiki/Ogo_Oil_Field_(Nigeria)","_label":"Ogo","_status_group":"development","_year":2013,"_year_label":"Discovery year","_states":["Lagos"]},"geometry":{"type":"Point","coordinates":[3.2953,6.3717]}},{"type":"Feature","properties":{"project":"Okporhuru","status":"in development","operator":"Seplat","owner":"Seplat Petroleum (45%);Nigerian Petroleum Development Company (55%)","fuel_type":"oil","start_year":"2013","url":"https://www.gem.wiki/Okporhuru_Oil_Field_(Nigeria)","_label":"Okporhuru","_status_group":"development","_states":["Delta"]},"geometry":{"type":"Point","coordinates":[5.8507,5.9094]}},{"type":"Feature","properties":{"project":"Olomoro-Oleh","status":"operating","fuel_type":"oil","discovery_year":1962.0,"start_year":"1963","url":"https://www.gem.wiki/Olomoro-Oleh_Oil_Complex_(Nigeria)","_label":"Olomoro-Oleh","_status_group":"operating","_year":1962,"_year_label":"Discovery year","_states":["Delta"]},"geometry":{"type":"Point","coordinates":[6.174,5.463]}},{"type":"Feature","properties":{"project":"Opuama","status":"operating","operator":"Nigerian Petroleum Development Company","owner":"Nigerian Petroleum Development Company (55%);Eland Oil & Gas (45%)","fuel_type":"oil","discovery_year":1972.0,"start_year":"1975","url":"https://www.gem.wiki/Opuama_Oil_Field_(Nigeria)","_label":"Opuama","_status_group":"operating","_year":1972,"_year_label":"Discovery year","_states":["Delta"]},"geometry":{"type":"Point","coordinates":[5.0682,5.9596]}},{"type":"Feature","properties":{"project":"Oroni","status":"operating","owner":"Shoreline Natural Resources Limited (45%);Nigerian Petroleum Development Company (55%)","fuel_type":"oil","discovery_year":1965.0,"start_year":"1970","url":"https://www.gem.wiki/Oroni_Oil_Field_(Nigeria)","_label":"Oroni","_status_group":"operating","_year":1965,"_year_label":"Discovery year","_states":["Delta"]},"geometry":{"type":"Point","coordinates":[6.148,5.368]}},{"type":"Feature","properties":{"project":"Oweh","status":"operating","operator":"Nigerian Petroleum Development Company","owner":"Nigerian Petroleum Development Company (55%);Shoreline Natural Resources Limited (45%)","fuel_type":"oil","discovery_year":1964.0,"start_year":"1966","url":"https://www.gem.wiki/Oweh_Oil_Field_(Nigeria)","_label":"Oweh","_status_group":"operating","_year":1964,"_year_label":"Discovery year","_states":["Delta"]},"geometry":{"type":"Point","coordinates":[6.122,5.491]}},{"type":"Feature","properties":{"project":"Preowei","status":"in development","operator":"TotalEnergies E&P Nigeria Limited","fuel_type":"oil","discovery_year":2003.0,"start_year":"2024 (expected)","url":"https://www.gem.wiki/Preowei_Oil_Field_(Nigeria)","_label":"Preowei","_status_group":"development","_year":2003,"_year_label":"Discovery year","_states":[]},"geometry":{"type":"Point","coordinates":[6.7017,3.0396]}},{"type":"Feature","properties":{"project":"Sapele shallow","status":"operating","operator":"Seplat","owner":"Seplat Petroleum (45%);Nigerian Petroleum Development Company (55%)","fuel_type":"oil","url":"https://www.gem.wiki/Sapele_shallow_Oil_Field_(Nigeria)","_label":"Sapele shallow","_status_group":"operating","_states":["Delta"]},"geometry":{"type":"Point","coordinates":[5.5745,5.9126]}},{"type":"Feature","properties":{"project":"Soku","status":"operating","operator":"Shell Petroleum Development Company of Nigeria","owner":"Shell (30%);Nigerian National Petroleum Corporation (55%);TotalEnergies E&P Nigeria Limited (10%);Eni S.P.A. (5%)","fuel_type":"oil","start_year":"1999","url":"https://www.gem.wiki/Soku_Oil_Field_(Nigeria)","_label":"Soku","_status_group":"operating","_states":["Rivers"]},"geometry":{"type":"Point","coordinates":[6.6344,4.6711]}},{"type":"Feature","properties":{"project":"Tubu","status":"discovered","operator":"Amni Petroleum","owner":"Amni International (40%)","fuel_type":"oil","discovery_year":1965.0,"url":"https://www.gem.wiki/Tubu_Oil_Field_(Nigeria)","_label":"Tubu","_status_group":"proposed","_year":1965,"_year_label":"Discovery year","_states":["Rivers"]},"geometry":{"type":"Point","coordinates":[7.3,4.404]}},{"type":"Feature","properties":{"project":"Ubit","status":"operating","operator":"Mobil","owner":"ExxonMobil (40%);Nigerian National Petroleum Corporation (60%)","fuel_type":"oil","start_year":"1970","url":"https://www.gem.wiki/Ubit_Oil_Field_(Nigeria)","_label":"Ubit","_status_group":"operating","_states":["Akwa Ibom"]},"geometry":{"type":"Point","coordinates":[8.1246,4.23]}},{"type":"Feature","properties":{"project":"Usan","status":"operating","operator":"Esso Exploration and Production Nigeria (Offshore East)","owner":"TotalEnergies (20%);Chevron Petroleum Nigeria (30%);Esso Exploration and Production Nigeria (Offshore East) (30%);China National Petroleum Corporation (20%)","fuel_type":"oil","discovery_year":2002.0,"start_year":"2012","url":"https://www.gem.wiki/Usan_Oil_Field_(Nigeria)","_label":"Usan","_status_group":"operating","_year":2002,"_year_label":"Discovery year","_states":[]},"geometry":{"type":"Point","coordinates":[7.456,3.557]}},{"type":"Feature","properties":{"project":"Usari","status":"operating","operator":"Seplat Petroleum","owner":"Seplat Petroleum (40%);Nigerian National Petroleum Corporation (60%)","fuel_type":"oil","discovery_year":1964.0,"url":"https://www.gem.wiki/Usari_Oil_Field_(Nigeria)","_label":"Usari","_status_group":"operating","_year":1964,"_year_label":"Discovery year","_states":["Akwa Ibom"]},"geometry":{"type":"Point","coordinates":[7.768,4.229]}},{"type":"Feature","properties":{"project":"Zara","status":"operating","operator":"Shell Petroleum Development Company of Nigeria","owner":"Nigerian National Petroleum Corporation (55%);Shell Petroleum Development Company of Nigeria (30%);TotalEnergies E&P Nigeria Limited (10%);Nigerian Agip Oil Company (5%)","fuel_type":"oil","url":"https://www.gem.wiki/Zara_Oil_Field_(Nigeria)","_label":"Zara","_status_group":"operating","_states":["Nasarawa"]},"geometry":{"type":"Point","coordinates":[7.5529,8.6806]}}]}
