{"type":"FeatureCollection","name":"gas_infrastructure","atlas_release":{"version":"0.11.0","date":"2026-07-28","title":"Hydroelectric Coverage and State-scoped Filtering"},"metadata":{"description":"Upstream and midstream oil/gas point infrastructure: compressor stations, gas plants, flow stations, and FPSOs (floating production, storage & offloading vessels).","source":"Nigeria SE4ALL Open Data Portal","source_date":"2026-07-24","license":"Public portal; explicit redistribution terms not stated","quality":"C","quality_note":"Status, operator, and capacity fields are inconsistently populated. Records matching a facility already tracked in refineries or LNG terminals above are excluded here to avoid double-counting.","path":"data/processed/02_infrastructure/se4all_gas_infrastructure_nigeria_2026-07.csv","key":"gas_infrastructure","label":"Gas & Oil Point Infrastructure","category":"infrastructure","category_label":"Infrastructure","record_count":98,"download_url":"https://raw.githubusercontent.com/Diamonds10/nigeria-infrastructure-atlas/main/data/processed/02_infrastructure/se4all_gas_infrastructure_nigeria_2026-07.csv","refresh":{"cadence":"annual_or_source_release","last_checked":"2026-07-24","next_review_due":"2027-07-25","review_status":"current"}},"features":[{"type":"Feature","properties":{"name":"Amenam Kpono AG","type":"AG Plant","status":"Operational","company":"TEPNG","design_cap":0.0,"_label":"Amenam Kpono AG","_status_group":"operating","_states":[]},"geometry":{"type":"Point","coordinates":[7.50558,4.05779]}},{"type":"Feature","properties":{"name":"Obite AG","type":"AG Plant","status":"Operational","company":"TEPNG","location":"Obite-Obagi","design_cap":0.0,"_label":"Obite AG","_status_group":"operating","_states":["Rivers"]},"geometry":{"type":"Point","coordinates":[6.60889,5.24215]}},{"type":"Feature","properties":{"name":"Soku AG/NAG","type":"AG/NAG Plant","status":"Operational","company":"SPDC","location":"SOKU","design_cap":1100.0,"date_of_co":"1999","_label":"Soku AG/NAG","_status_group":"operating","_states":["Rivers"]},"geometry":{"type":"Point","coordinates":[6.61211,4.65608]}},{"type":"Feature","properties":{"name":"Agbada AGG","type":"AGG Plant","status":"Operational","company":"SPDC","location":"AGBADA","design_cap":58.0,"date_of_co":"2002","_label":"Agbada AGG","_status_group":"operating","_states":["Rivers"]},"geometry":{"type":"Point","coordinates":[7.01788,4.93192]}},{"type":"Feature","properties":{"name":"Awoba AGG","type":"AGG Plant","status":"down","company":"SPDC","location":"AWOBA","design_cap":50.0,"date_of_co":"2004","_label":"Awoba AGG","_status_group":"inactive","_states":["Rivers"]},"geometry":{"type":"Point","coordinates":[6.8295,4.53792]}},{"type":"Feature","properties":{"name":"Belema AGG","type":"AGG Plant","status":"On stand by","company":"SPDC","location":"AGG Plant","design_cap":55.0,"date_of_co":"2002","_label":"Belema AGG","_status_group":"other","_states":["Bayelsa"]},"geometry":{"type":"Point","coordinates":[6.44878,4.33346]}},{"type":"Feature","properties":{"name":"Cawthorne Channel AGG","type":"AGG Plant","status":"Operational","company":"SPDC","location":"Cawthorne Channel","design_cap":150.0,"date_of_co":"2005","_label":"Cawthorne Channel AGG","_status_group":"operating","_states":["Rivers"]},"geometry":{"type":"Point","coordinates":[7.00142,4.55974]}},{"type":"Feature","properties":{"name":"Imo River AGG","type":"AGG Plant","status":"Operational","company":"SPDC","location":"IMO RIVER 1 ?","design_cap":65.0,"date_of_co":"2002","_label":"Imo River AGG","_status_group":"operating","_states":["Abia"]},"geometry":{"type":"Point","coordinates":[7.2082,4.90212]}},{"type":"Feature","properties":{"name":"Krakama GC","type":"AGG Plant","status":"On stand by","company":"SPDC","location":"KRAKAMA","design_cap":5.0,"date_of_co":"Not Commissioned","_label":"Krakama GC","_status_group":"other","_states":["Rivers"]},"geometry":{"type":"Point","coordinates":[6.89952,4.55276]}},{"type":"Feature","properties":{"name":"Odidi AGG","type":"AGG Plant","status":"down","company":"SPDC","location":"ODIDI","design_cap":80.0,"date_of_co":"2001","_label":"Odidi AGG","_status_group":"inactive","_states":["Delta"]},"geometry":{"type":"Point","coordinates":[5.46918,5.52401]}},{"type":"Feature","properties":{"name":"Afiesere GC","type":"Compressor Station","status":"On stand by","company":"SPDC","location":"AFIESERE","design_cap":21.0,"date_of_co":"1997","_label":"Afiesere GC","_status_group":"other","_states":["Delta"]},"geometry":{"type":"Point","coordinates":[5.97442,5.53348]}},{"type":"Feature","properties":{"name":"Agbada_1 GC","type":"Compressor Station","status":"Operational","company":"SPDC","location":"AGBADA","design_cap":12.0,"date_of_co":"2002","_label":"Agbada_1 GC","_status_group":"operating","_states":["Rivers"]},"geometry":{"type":"Point","coordinates":[6.97755,4.93365]}},{"type":"Feature","properties":{"name":"Batan GC","type":"Compressor Station","status":"down","company":"SPDC","location":"BATAN","design_cap":10.0,"date_of_co":"2002","_label":"Batan GC","_status_group":"inactive","_states":["Delta"]},"geometry":{"type":"Point","coordinates":[5.53832,5.53386]}},{"type":"Feature","properties":{"name":"Belema GC","type":"Compressor Station","status":"On stand by","company":"SPDC","location":"BELEMA","design_cap":12.0,"date_of_co":"2002","_label":"Belema GC","_status_group":"other","_states":["Bayelsa"]},"geometry":{"type":"Point","coordinates":[6.45831,4.34752]}},{"type":"Feature","properties":{"name":"Benisede GC","type":"Compressor Station","company":"SHELL","location":"Benisede","design_cap":0.0,"_label":"Benisede GC","_status_group":"unknown","_states":["Bayelsa"]},"geometry":{"type":"Point","coordinates":[5.70023,4.99973]}},{"type":"Feature","properties":{"name":"EGWA_1 GC","type":"Compressor Station","status":"down","company":"SPDC","location":"EGWA","design_cap":10.0,"date_of_co":"2002","_label":"EGWA_1 GC","_status_group":"inactive","_states":["Delta"]},"geometry":{"type":"Point","coordinates":[5.45475,5.59945]}},{"type":"Feature","properties":{"name":"EGWA_2 GC","type":"Compressor Station","status":"down","company":"SPDC","location":"EGWA","design_cap":10.0,"date_of_co":"2002","_label":"EGWA_2 GC","_status_group":"inactive","_states":["Delta"]},"geometry":{"type":"Point","coordinates":[5.48941,5.55761]}},{"type":"Feature","properties":{"name":"Ekulama_1 GC","type":"Compressor Station","status":"On stand by","company":"SPDC","location":"EKULAMA","design_cap":12.0,"date_of_co":"2002","_label":"Ekulama_1 GC","_status_group":"other","_states":["Rivers"]},"geometry":{"type":"Point","coordinates":[6.71201,4.5592]}},{"type":"Feature","properties":{"name":"Ekulama_2 GC","type":"Compressor Station","status":"On stand by","company":"SPDC","location":"EKULAMA","design_cap":12.0,"date_of_co":"2002","_label":"Ekulama_2 GC","_status_group":"other","_states":["Rivers"]},"geometry":{"type":"Point","coordinates":[6.66386,4.54793]}},{"type":"Feature","properties":{"name":"Eriemu GC","type":"Compressor Station","status":"down","company":"SPDC","location":"ERIEMU","design_cap":10.0,"date_of_co":"2002","_label":"Eriemu GC","_status_group":"inactive","_states":["Delta"]},"geometry":{"type":"Point","coordinates":[6.05809,5.52053]}},{"type":"Feature","properties":{"name":"Escravos Beach GC","type":"Compressor Station","status":"down","company":"SPDC","location":"ESCRAVOS","design_cap":18.0,"date_of_co":"NGC","_label":"Escravos Beach GC","_status_group":"inactive","_states":["Delta"]},"geometry":{"type":"Point","coordinates":[5.194,5.53422]}},{"type":"Feature","properties":{"name":"Imo River_3 GC","type":"Compressor Station","status":"Operational","company":"SPDC","location":"IMO RIVER","design_cap":12.0,"date_of_co":"2002","_label":"Imo River_3 GC","_status_group":"operating","_states":["Abia"]},"geometry":{"type":"Point","coordinates":[7.20264,4.89921]}},{"type":"Feature","properties":{"name":"Jones Creek GC","type":"Compressor Station","status":"down","company":"SPDC","location":"JONES CREEK","design_cap":18.0,"date_of_co":"NGC","_label":"Jones Creek GC","_status_group":"inactive","_states":["Delta"]},"geometry":{"type":"Point","coordinates":[5.37867,5.68796]}},{"type":"Feature","properties":{"name":"Kokori GC","type":"Compressor Station","status":"down","company":"SPDC","location":"KOKORI","design_cap":8.0,"date_of_co":"NGC","_label":"Kokori GC","_status_group":"inactive","_states":["Delta"]},"geometry":{"type":"Point","coordinates":[6.05804,5.62219]}},{"type":"Feature","properties":{"name":"Nembe Creek _2 GC","type":"Compressor Station","status":"On stand by","company":"SPDC","location":"NEMBE CREEK","design_cap":10.0,"date_of_co":"2001","_label":"Nembe Creek _2 GC","_status_group":"other","_states":["Bayelsa"]},"geometry":{"type":"Point","coordinates":[6.32405,4.4532]}},{"type":"Feature","properties":{"name":"Nembe Creek_1 GC","type":"Compressor Station","status":"On stand by","company":"SPDC","location":"NEMBE CREEK","design_cap":10.0,"date_of_co":"2001","_label":"Nembe Creek_1 GC","_status_group":"other","_states":["Bayelsa"]},"geometry":{"type":"Point","coordinates":[6.32302,4.43392]}},{"type":"Feature","properties":{"name":"Nembe Creek_3 GC","type":"Compressor Station","status":"On stand by","company":"SPDC","location":"NEMBE CREEK","design_cap":5.0,"date_of_co":"2001","_label":"Nembe Creek_3 GC","_status_group":"other","_states":["Bayelsa"]},"geometry":{"type":"Point","coordinates":[6.2852,4.45067]}},{"type":"Feature","properties":{"name":"Nembe Creek_4 GC","type":"Compressor Station","status":"On stand by","company":"SPDC","location":"NEMBE CREEK","design_cap":5.0,"date_of_co":"2001","_label":"Nembe Creek_4 GC","_status_group":"other","_states":["Bayelsa"]},"geometry":{"type":"Point","coordinates":[6.36236,4.44151]}},{"type":"Feature","properties":{"name":"Nkali GC","type":"Compressor Station","status":"Operational","company":"SPDC","location":"NKALI","design_cap":12.0,"date_of_co":"2003","_label":"Nkali GC","_status_group":"operating","_states":["Rivers"]},"geometry":{"type":"Point","coordinates":[7.11776,4.98337]}},{"type":"Feature","properties":{"name":"Nun River GC","type":"Compressor Station","company":"SHELL","location":"Nun River","design_cap":0.0,"_label":"Nun River GC","_status_group":"unknown","_states":["Bayelsa"]},"geometry":{"type":"Point","coordinates":[6.07209,4.73175]}},{"type":"Feature","properties":{"name":"Oben GC","type":"Compressor Station","status":"On stand by","company":"SPDC","location":"OBEN","design_cap":16.0,"date_of_co":"NGC","_label":"Oben GC","_status_group":"other","_states":["Edo"]},"geometry":{"type":"Point","coordinates":[5.86673,6.01217]}},{"type":"Feature","properties":{"name":"Odeama Creek GC","type":"Compressor Station","status":"Not Commissioned","company":"SPDC","location":"ODEAMA CREEK","design_cap":5.0,"date_of_co":"Not Commissioned","_label":"Odeama Creek GC","_status_group":"operating","_states":["Bayelsa"]},"geometry":{"type":"Point","coordinates":[6.51938,4.4568]}},{"type":"Feature","properties":{"name":"Odidi GC","type":"Compressor Station","status":"down","company":"SPDC","location":"ODIDI","design_cap":18.0,"date_of_co":"NGC","_label":"Odidi GC","_status_group":"inactive","_states":["Delta"]},"geometry":{"type":"Point","coordinates":[5.46918,5.52401]}},{"type":"Feature","properties":{"name":"Olomoro Oleh GC","type":"Compressor Station","status":"down","company":"SPDC","location":"OLOMORO- OLEH","design_cap":3.3,"date_of_co":"NGC","_label":"Olomoro Oleh GC","_status_group":"inactive","_states":["Delta"]},"geometry":{"type":"Point","coordinates":[6.17685,5.46121]}},{"type":"Feature","properties":{"name":"Oweh GC","type":"Compressor Station","status":"down","company":"SPDC","location":"OWEH","design_cap":5.5,"date_of_co":"NGC","_label":"Oweh GC","_status_group":"inactive","_states":["Delta"]},"geometry":{"type":"Point","coordinates":[6.13519,5.48847]}},{"type":"Feature","properties":{"name":"Santa Barbara GC","type":"Compressor Station","status":"On stand by","company":"SPDC","location":"SANTA BARBARA","design_cap":8.0,"date_of_co":"2001","_label":"Santa Barbara GC","_status_group":"other","_states":["Bayelsa"]},"geometry":{"type":"Point","coordinates":[6.50339,4.53906]}},{"type":"Feature","properties":{"name":"Sapele GC","type":"Compressor Station","status":"On stand by","company":"SPDC","location":"SAPELE","design_cap":24.0,"date_of_co":"2003","_label":"Sapele GC","_status_group":"other","_states":["Delta"]},"geometry":{"type":"Point","coordinates":[5.58495,5.90141]}},{"type":"Feature","properties":{"name":"Soku GC","type":"Compressor Station","status":"On stand by","company":"SPDC","location":"SOKU","design_cap":5.0,"date_of_co":"2002","_label":"Soku GC","_status_group":"other","_states":["Rivers"]},"geometry":{"type":"Point","coordinates":[6.63327,4.64986]}},{"type":"Feature","properties":{"name":"Utorogu GC","type":"Compressor Station","status":"Operational","company":"SPDC","location":"UTOROGU","design_cap":7.0,"date_of_co":"2004","_label":"Utorogu GC","_status_group":"operating","_states":["Delta"]},"geometry":{"type":"Point","coordinates":[5.88125,5.36644]}},{"type":"Feature","properties":{"name":"Uzere West GC","type":"Compressor Station","status":"Down","company":"SPDC","location":"UZERE WEST","design_cap":10.0,"date_of_co":"NGC","_label":"Uzere West GC","_status_group":"inactive","_states":["Delta"]},"geometry":{"type":"Point","coordinates":[6.23505,5.28434]}},{"type":"Feature","properties":{"name":"Irri-Isoko CFS","type":"Condensate Flow Station","status":"Operational","company":"NAOC","location":"Isoko","design_cap":0.0,"_label":"Irri-Isoko CFS","_status_group":"operating","_states":["Delta"]},"geometry":{"type":"Point","coordinates":[6.25834,5.50574]}},{"type":"Feature","properties":{"name":"CNL","type":"Export Terminal","company":"Chevron","_label":"CNL","_status_group":"unknown","_states":[]},"geometry":{"type":"Point","coordinates":[4.99393,5.48838]}},{"type":"Feature","properties":{"name":"Forcados","type":"Export Terminal","status":"Existing","_label":"Forcados","_status_group":"other","_states":["Delta"]},"geometry":{"type":"Point","coordinates":[5.35035,5.3238]}},{"type":"Feature","properties":{"name":"MPNU","type":"Export Terminal","_label":"MPNU","_status_group":"unknown","_states":[]},"geometry":{"type":"Point","coordinates":[8.0568,4.21868]}},{"type":"Feature","properties":{"name":"NAOC","type":"Export Terminal","_label":"NAOC","_status_group":"unknown","_states":[]},"geometry":{"type":"Point","coordinates":[6.28487,4.05527]}},{"type":"Feature","properties":{"name":"Pennington","type":"Export Terminal","status":"Existing","company":"Chevron","location":"Pennington","_label":"Pennington","_status_group":"other","_states":[]},"geometry":{"type":"Point","coordinates":[5.60407,4.245]}},{"type":"Feature","properties":{"name":"SPDC","type":"Export Terminal","_label":"SPDC","_status_group":"unknown","_states":[]},"geometry":{"type":"Point","coordinates":[7.23764,4.18489]}},{"type":"Feature","properties":{"name":"SPDC","type":"Export Terminal","_label":"SPDC","_status_group":"unknown","_states":[]},"geometry":{"type":"Point","coordinates":[5.18436,5.16548]}},{"type":"Feature","properties":{"name":"Abo FPSO","type":"FPSO","company":"NAE","_label":"Abo FPSO","_status_group":"unknown","_states":[]},"geometry":{"type":"Point","coordinates":[4.46506,5.6836]}},{"type":"Feature","properties":{"name":"Agbami FPSO","type":"FPSO","company":"Chevron","location":"Agbami-Ekoli Field","_label":"Agbami FPSO","_status_group":"unknown","_states":[]},"geometry":{"type":"Point","coordinates":[5.58376,3.45669]}},{"type":"Feature","properties":{"name":"Akpo FPSO","type":"FPSO","company":"Total","_label":"Akpo FPSO","_status_group":"unknown","_states":[]},"geometry":{"type":"Point","coordinates":[6.87627,3.13345]}},{"type":"Feature","properties":{"name":"Akpo GI","type":"FPSO","status":"Operational","company":"Total Upstream","location":"OML 130","design_cap":530.0,"date_of_co":"3/1/2009","_label":"Akpo GI","_status_group":"operating","_states":[]},"geometry":{"type":"Point","coordinates":[6.82207,3.14082]}},{"type":"Feature","properties":{"name":"Antan FPSO","type":"FPSO","status":"Operating","company":"Addax","location":"Antan","_label":"Antan FPSO","_status_group":"operating","_states":[]},"geometry":{"type":"Point","coordinates":[8.33187,4.22421]}},{"type":"Feature","properties":{"name":"Bonga FPSO","type":"FPSO","company":"SNEPCO","location":"Bonga Field","_label":"Bonga FPSO","_status_group":"unknown","_states":[]},"geometry":{"type":"Point","coordinates":[4.49948,4.43136]}},{"type":"Feature","properties":{"name":"EA FPSO","type":"FPSO","company":"SNEPCO","location":"EA Field","_label":"EA FPSO","_status_group":"unknown","_states":[]},"geometry":{"type":"Point","coordinates":[5.33382,4.71827]}},{"type":"Feature","properties":{"name":"Erha FPSO","type":"FPSO","company":"ESSO","location":"Erha Field","_label":"Erha FPSO","_status_group":"unknown","_states":[]},"geometry":{"type":"Point","coordinates":[4.32856,5.34239]}},{"type":"Feature","properties":{"name":"Obe APSO","type":"FPSO","company":"Cavendish","location":"Obe Field","_label":"Obe APSO","_status_group":"unknown","_states":[]},"geometry":{"type":"Point","coordinates":[4.70388,5.96953]}},{"type":"Feature","properties":{"name":"Odudu FSO","type":"FPSO","_label":"Odudu FSO","_status_group":"unknown","_states":[]},"geometry":{"type":"Point","coordinates":[7.78104,3.88256]}},{"type":"Feature","properties":{"name":"Okono/Okpoho FPSO","type":"FPSO","company":"AENR","location":"Okono","_label":"Okono/Okpoho FPSO","_status_group":"unknown","_states":[]},"geometry":{"type":"Point","coordinates":[7.27995,3.97349]}},{"type":"Feature","properties":{"name":"Okoro-Setu FPSO","type":"FPSO","company":"Bumi Armada Berhand","location":"Okoro-Setu Offshore","_label":"Okoro-Setu FPSO","_status_group":"unknown","_states":[]},"geometry":{"type":"Point","coordinates":[7.85541,4.4147]}},{"type":"Feature","properties":{"name":"Okwori FPSO","type":"FPSO","status":"Operating","location":"Okwori Field","_label":"Okwori FPSO","_status_group":"operating","_states":[]},"geometry":{"type":"Point","coordinates":[6.98091,3.78771]}},{"type":"Feature","properties":{"name":"Ukpokiti FPSO","type":"FPSO","status":"Operating","company":"Express","location":"Ukpokiti Field","_label":"Ukpokiti FPSO","_status_group":"operating","_states":[]},"geometry":{"type":"Point","coordinates":[4.8434,5.70734]}},{"type":"Feature","properties":{"name":"Yoho FPSO","type":"FPSO","company":"Mobil","location":"Yoho Field","_label":"Yoho FPSO","_status_group":"unknown","_states":[]},"geometry":{"type":"Point","coordinates":[7.52475,4.01355]}},{"type":"Feature","properties":{"name":"Lagos FTZ","type":"Free Trade Zone","status":"Under Construction","location":"Lagos","_label":"Lagos FTZ","_status_group":"development","_states":["Lagos"]},"geometry":{"type":"Point","coordinates":[3.94416,6.44433]}},{"type":"Feature","properties":{"name":"OK FTZ","type":"Free Trade Zone","status":"Under Construction","location":"Ogun/Ondo","_label":"OK FTZ","_status_group":"development","_states":["Ogun"]},"geometry":{"type":"Point","coordinates":[4.47158,6.35276]}},{"type":"Feature","properties":{"name":"Evwreni GC","type":"Gas Compression Plant","company":"SPDC","location":"Evwreni","design_cap":0.0,"_label":"Evwreni GC","_status_group":"unknown","_states":["Delta"]},"geometry":{"type":"Point","coordinates":[6.04781,5.35627]}},{"type":"Feature","properties":{"name":"Oso-RX","type":"Gas Compression Plant","status":"Operational","company":"MPNU","location":"Oso - Offshore","design_cap":0.0,"_label":"Oso-RX","_status_group":"operating","_states":[]},"geometry":{"type":"Point","coordinates":[7.64101,4.2417]}},{"type":"Feature","properties":{"name":"Qua Iboe","type":"Gas Gathering & Processing Plant","_label":"Qua Iboe","_status_group":"unknown","_states":[]},"geometry":{"type":"Point","coordinates":[8.00088,4.48574]}},{"type":"Feature","properties":{"name":"Izombe GI","type":"Gas Injection Plant","status":"Operational","company":"Addax","location":"Imo/Izombe","design_cap":0.0,"_label":"Izombe GI","_status_group":"operating","_states":["Imo"]},"geometry":{"type":"Point","coordinates":[6.82044,5.52337]}},{"type":"Feature","properties":{"name":"Oguta GI","type":"Gas Injection Plant","status":"Operational","company":"SPDC","location":"OGUTA","design_cap":40.0,"date_of_co":"Recommissioned in 2004","_label":"Oguta GI","_status_group":"operating","_states":["Imo"]},"geometry":{"type":"Point","coordinates":[6.71344,5.66215]}},{"type":"Feature","properties":{"name":"Delta Steel","type":"Gas Plant","_label":"Delta Steel","_status_group":"unknown","_states":["Delta"]},"geometry":{"type":"Point","coordinates":[5.80302,5.36451]}},{"type":"Feature","properties":{"name":"EGP 3","type":"Gas Plant","status":"Ongoing Installation","company":"CHEVRON","location":"Escravos","design_cap":395.0,"date_of_co":"Apr-10","_label":"EGP 3","_status_group":"other","_states":[]},"geometry":{"type":"Point","coordinates":[5.23341,5.60371]}},{"type":"Feature","properties":{"name":"ENCON Lagos Island","type":"Gas Plant","_label":"ENCON Lagos Island","_status_group":"unknown","_states":["Lagos"]},"geometry":{"type":"Point","coordinates":[3.30967,6.44454]}},{"type":"Feature","properties":{"name":"Gbaran Ubie Gas Plant","type":"Gas Plant","_label":"Gbaran Ubie Gas Plant","_status_group":"unknown","_states":["Rivers"]},"geometry":{"type":"Point","coordinates":[6.44481,5.01501]}},{"type":"Feature","properties":{"name":"Oben Gas Plant","type":"Gas Plant","_label":"Oben Gas Plant","_status_group":"unknown","_states":["Edo"]},"geometry":{"type":"Point","coordinates":[5.84411,5.95612]}},{"type":"Feature","properties":{"name":"Obiafu","type":"Gas Plant","_label":"Obiafu","_status_group":"unknown","_states":["Rivers"]},"geometry":{"type":"Point","coordinates":[6.65268,5.28961]}},{"type":"Feature","properties":{"name":"Obite","type":"Gas Plant","_label":"Obite","_status_group":"unknown","_states":["Rivers"]},"geometry":{"type":"Point","coordinates":[6.6998,5.25654]}},{"type":"Feature","properties":{"name":"Ogharefe","type":"Gas Plant","status":"Operational","company":"POOCN","location":"Ogharefe","design_cap":0.0,"_label":"Ogharefe","_status_group":"operating","_states":["Edo"]},"geometry":{"type":"Point","coordinates":[5.72426,6.03403]}},{"type":"Feature","properties":{"name":"Okpai Gas Plant","type":"Gas Plant","status":"Operational","company":"NAOC","location":"Kwale","design_cap":0.0,"_label":"Okpai Gas Plant","_status_group":"operating","_states":["Delta"]},"geometry":{"type":"Point","coordinates":[6.53228,5.70218]}},{"type":"Feature","properties":{"name":"Shell Okoloma Gas Plant","type":"Gas Plant","_label":"Shell Okoloma Gas Plant","_status_group":"unknown","_states":["Rivers"]},"geometry":{"type":"Point","coordinates":[7.26509,4.75182]}},{"type":"Feature","properties":{"name":"Ughelli East Gas plant","type":"Gas Plant","_label":"Ughelli East Gas plant","_status_group":"unknown","_states":["Delta"]},"geometry":{"type":"Point","coordinates":[5.91665,5.39217]}},{"type":"Feature","properties":{"name":"Unicem Cement","type":"Gas Plant","_label":"Unicem Cement","_status_group":"unknown","_states":["Cross River"]},"geometry":{"type":"Point","coordinates":[8.34162,4.86356]}},{"type":"Feature","properties":{"name":"Utorogu","type":"Gas Plant","_label":"Utorogu","_status_group":"unknown","_states":["Delta"]},"geometry":{"type":"Point","coordinates":[5.86278,5.35254]}},{"type":"Feature","properties":{"name":"Escravos","type":"LNG Plant","_label":"Escravos","_status_group":"unknown","_states":[]},"geometry":{"type":"Point","coordinates":[5.15174,5.51844]}},{"type":"Feature","properties":{"name":"Imo River","type":"LNG Plant","_label":"Imo River","_status_group":"unknown","_states":["Abia"]},"geometry":{"type":"Point","coordinates":[7.20902,4.89033]}},{"type":"Feature","properties":{"name":"Obigbo Node","type":"LNG Plant","_label":"Obigbo Node","_status_group":"unknown","_states":["Rivers"]},"geometry":{"type":"Point","coordinates":[7.12295,4.82044]}},{"type":"Feature","properties":{"name":"Ukanakafu Pigging Station","type":"LNG Plant","_label":"Ukanakafu Pigging Station","_status_group":"unknown","_states":["Akwa Ibom"]},"geometry":{"type":"Point","coordinates":[7.5228,4.79889]}},{"type":"Feature","properties":{"name":"Alakiri NAG","type":"NAG Plant","status":"Operational","company":"SPDC","location":"ALAKIRI","design_cap":120.0,"date_of_co":"1987","_label":"Alakiri NAG","_status_group":"operating","_states":["Rivers"]},"geometry":{"type":"Point","coordinates":[7.06379,4.65732]}},{"type":"Feature","properties":{"name":"Bonny NAG","type":"NAG Plant","status":"Operational","company":"SPDC","location":"Bonny","design_cap":450.0,"date_of_co":"2002","_label":"Bonny NAG","_status_group":"operating","_states":[]},"geometry":{"type":"Point","coordinates":[7.17144,4.35082]}},{"type":"Feature","properties":{"name":"Okoloma NAG","type":"NAG Plant","status":"Operational","company":"SPDC","location":"OKOLAMA","design_cap":240.0,"date_of_co":"2008","_label":"Okoloma NAG","_status_group":"operating","_states":["Rivers"]},"geometry":{"type":"Point","coordinates":[7.26789,4.76515]}},{"type":"Feature","properties":{"name":"Sapele NAG","type":"NAG Plant","status":"Operational","company":"SPDC","location":"SAPELE","design_cap":120.0,"date_of_co":"1978","_label":"Sapele NAG","_status_group":"operating","_states":["Delta"]},"geometry":{"type":"Point","coordinates":[5.58453,5.89783]}},{"type":"Feature","properties":{"name":"Ughelli East NAG","type":"NAG Plant","status":"Operational","company":"SPDC","location":"UGHELLI EAST","design_cap":150.0,"date_of_co":"1966","_label":"Ughelli East NAG","_status_group":"operating","_states":["Delta"]},"geometry":{"type":"Point","coordinates":[5.9232,5.39227]}},{"type":"Feature","properties":{"name":"Utorogu NAG","type":"NAG Plant","status":"Operational","company":"SPDC","location":"UTOROGU NAG Plant","design_cap":0.0,"date_of_co":"1988","_label":"Utorogu NAG","_status_group":"operating","_states":["Delta"]},"geometry":{"type":"Point","coordinates":[5.86939,5.36437]}},{"type":"Feature","properties":{"name":"Oben NAG","type":"NAG Plant Oben","status":"Operational","company":"SPDC","location":"OBEN","design_cap":90.0,"date_of_co":"1982","_label":"Oben NAG","_status_group":"operating","_states":["Edo"]},"geometry":{"type":"Point","coordinates":[5.86861,6.01387]}},{"type":"Feature","properties":{"name":"Escravos Node","type":"Node","_label":"Escravos Node","_status_group":"unknown","_states":["Delta"]},"geometry":{"type":"Point","coordinates":[5.19943,5.51941]}},{"type":"Feature","properties":{"name":"Oben Node","type":"Node","_label":"Oben Node","_status_group":"unknown","_states":["Delta"]},"geometry":{"type":"Point","coordinates":[5.69538,5.92307]}},{"type":"Feature","properties":{"name":"Amape","type":"Refinery","status":"Planned","_label":"Amape","_status_group":"proposed","_states":["Akwa Ibom"]},"geometry":{"type":"Point","coordinates":[7.93789,4.64995]}},{"type":"Feature","properties":{"name":"Cheviron Platform","type":"Tanker Terminal","_label":"Cheviron Platform","_status_group":"unknown","_states":[]},"geometry":{"type":"Point","coordinates":[5.02238,5.5006]}}]}
