{"type":"FeatureCollection","name":"gas_pipelines","atlas_release":{"version":"0.10.0","date":"2026-07-25","title":"Licensed Historical Security Context"},"metadata":{"description":"Gas transmission pipeline routes that include Nigeria.","source":"Global Energy Monitor / GreenInfo Network GGIT mirror","source_date":"2026-07-21","license":"CC BY 4.0 inferred; verify before redistribution","quality":"B","quality_note":"Public route geometry; cross-border projects may extend beyond Nigeria.","path":"data/processed/02_infrastructure/ggit_gas_pipelines_nigeria.csv","key":"gas_pipelines","label":"Gas Pipelines","category":"infrastructure","category_label":"Infrastructure","record_count":24,"download_url":"https://raw.githubusercontent.com/Diamonds10/nigeria-infrastructure-atlas/main/data/processed/02_infrastructure/ggit_gas_pipelines_nigeria.csv","refresh":{"cadence":"annual_or_source_release","last_checked":"2026-07-21","next_review_due":"2027-07-22","review_status":"current"}},"features":[{"type":"Feature","properties":{"project":"Ajaokuta-Obajana Gas Pipeline","parent":"Nigerian National Petroleum Corporation [100.00%]","status":"operating","capacity":0.84,"capacity_units":"Bcm/y","url":"https://www.gem.wiki/Ajaokuta-Obajana_gas_pipeline","_label":"Ajaokuta-Obajana Gas Pipeline","_status_group":"operating","_states":["Kogi"]},"geometry":{"type":"LineString","coordinates":[[6.64999,7.54339],[6.43139,7.92045]]}},{"type":"Feature","properties":{"project":"Egbin Node-Alagbado Gas Pipeline","parent":"Nigerian National Petroleum Corporation [100.00%]","status":"operating","capacity":1.6,"capacity_units":"Bcm/y","url":"https://www.gem.wiki/Egbin_Node-Alagbado_gas_pipeline","_label":"Egbin Node-Alagbado Gas Pipeline","_status_group":"operating","_states":["Ogun","Lagos"]},"geometry":{"type":"LineString","coordinates":[[3.61523,6.57264],[3.6428,6.68697],[3.4162,6.7358],[3.31428,6.73699],[3.27592,6.72984]]}},{"type":"Feature","properties":{"project":"Escravos-Egbin Gas Pipeline","parent":"Nigerian National Petroleum Corporation [100.00%]","status":"operating","capacity":10.28,"capacity_units":"Bcm/y","url":"https://www.gem.wiki/Escravos-Egbin_gas_pipeline","_label":"Escravos-Egbin Gas Pipeline","_status_group":"operating","_states":["Lagos"]},"geometry":{"type":"LineString","coordinates":[[5.1547,5.61174],[5.06358,5.69049],[4.93169,5.77877],[4.90771,5.84557],[4.83817,5.93382],[4.74705,6.00537],[4.61996,6.05783],[4.35799,6.19135],[4.08222,6.32007],[3.78908,6.42969],[3.6404,6.46067],[3.58046,6.46305],[3.61403,6.57503]]}},{"type":"Feature","properties":{"project":"Escravos-Lagos Pipeline System (ELPS)","parent":"Nigerian National Petroleum Corporation [100.00%]","status":"operating","start_year":1989.0,"capacity":11.38,"capacity_units":"Bcm/y","url":"https://www.gem.wiki/Escravos%E2%80%93Lagos_Pipeline_System","_label":"Escravos-Lagos Pipeline System (ELPS)","_status_group":"operating","_year":1989,"_year_label":"Start year","_states":["Ogun","Bayelsa","Ondo","Delta","Edo"]},"geometry":{"type":"MultiLineString","coordinates":[[[6.25467,4.97706],[6.27304,5.20423],[6.26768,5.2986],[6.24271,5.33894],[6.18872,5.37372],[5.92514,5.49069],[5.71305,5.57469],[5.66238,6.30451],[5.64219,6.37207],[5.51664,6.46181],[4.96845,6.66167],[4.75749,6.72364],[4.63652,6.7316],[4.4102,6.7316],[3.98271,6.70662],[3.70441,6.70466],[3.49065,6.70466],[3.28185,6.71734]],[[5.71305,5.57469],[5.62049,5.6038],[5.55963,5.63711],[5.42726,5.66891],[5.31771,5.66739],[5.2386,5.64166],[5.20127,5.61139]]]}},{"type":"Feature","properties":{"project":"Escravos-Lagos Pipeline System (ELPS)","parent":"Nigerian National Petroleum Corporation [100.00%]","status":"operating","start_year":2021.0,"capacity":11.38,"capacity_units":"Bcm/y","url":"https://www.gem.wiki/Escravos%E2%80%93Lagos_Pipeline_System","_label":"Escravos-Lagos Pipeline System (ELPS)","_status_group":"operating","_year":2021,"_year_label":"Start year","_states":["Ogun","Oyo","Lagos","Ondo","Delta","Edo","Osun"]},"geometry":{"type":"LineString","coordinates":[[3.36838,6.5028],[3.94712,7.37117],[4.51562,7.52913],[5.19398,7.284],[5.65158,7.06599],[5.77598,5.5545]]}},{"type":"Feature","properties":{"project":"Escravos-Warri-Oben Gas Pipeline","parent":"Nigerian National Petroleum Corporation [100.00%]","status":"operating","capacity":1.55,"capacity_units":"Bcm/y","url":"https://www.gem.wiki/Escravos-Warri-Oben_Gas_Pipeline","_label":"Escravos-Warri-Oben Gas Pipeline","_status_group":"operating","_states":["Delta","Edo"]},"geometry":{"type":"LineString","coordinates":[[5.204,5.61],[5.713,5.566],[5.8995,5.99369]]}},{"type":"Feature","properties":{"project":"Ibadan–Jebba Gas Pipeline","parent":"Helios Investment Partners [100.00%]","status":"proposed","capacity_units":"Bcm/y","url":"https://www.gem.wiki/Ibadan%E2%80%93Jebba_Gas_Pipeline","_label":"Ibadan–Jebba Gas Pipeline","_status_group":"proposed","_states":["Oyo","Kwara","Osun","Niger"]},"geometry":{"type":"LineString","coordinates":[[3.92786,7.37585],[4.54122,8.47954],[4.81821,9.22472]]}},{"type":"Feature","properties":{"project":"Nigeria-Morocco Gas Pipeline","parent":"Moroccan National Board of Hydrocarbons and Mines [unknown %]; Nigerian National Petroleum Corporation [unknown %]","status":"proposed","start_year":2046.0,"capacity":30.0,"capacity_units":"Bcm/y","url":"https://www.gem.wiki/Nigeria-Morocco_Gas_Pipeline","_label":"Nigeria-Morocco Gas Pipeline","_status_group":"proposed","_states":[]},"geometry":{"type":"MultiLineString","coordinates":[[[-1.44902,4.13587],[-1.91106,4.01473],[-2.25485,3.89218],[-2.54971,3.81706],[-2.97631,3.77325],[-3.46342,3.76925],[-3.96702,3.8779],[-4.71561,4.0001],[-5.50503,3.97295],[-6.37612,3.72851],[-7.07027,3.59268],[-7.50582,3.56551],[-8.37691,3.56551],[-8.81245,3.64701],[-9.17994,3.80999],[-10.35047,4.40733],[-10.67713,4.62442],[-10.92212,4.76007],[-11.68432,5.26175],[-12.56902,5.91196],[-13.31762,6.53436],[-13.60344,6.84528],[-13.91649,7.1965],[-14.10704,7.426],[-14.36565,7.76329],[-14.67869,8.42357],[-14.88286,8.82727],[-15.34562,9.83456],[-15.41368,9.96864],[-15.63145,10.12946],[-16.12144,10.54455],[-16.62504,11.06596],[-16.85642,11.2529],[-17.00614,11.45307],[-17.36002,11.85298],[-17.5914,12.07933],[-17.82278,12.35868],[-17.99972,12.53147],[-18.16305,12.88995],[-18.23111,13.07563],[-18.32638,13.80372],[-18.3536,14.18671],[-18.3536,14.66125],[-18.32638,15.31863],[-18.19027,15.82996],[-17.93167,16.73143],[-17.80917,17.26509],[-17.7139,17.79721],[-17.67307,18.23728],[-17.65946,18.58596],[-17.72751,18.97255],[-17.82278,19.37108],[-17.94528,19.73021],[-18.06778,20.02461],[-18.14944,20.34398],[-18.20389,20.49704],[-18.28555,20.95532],[-18.28555,21.39952],[-18.29916,21.91816],[-18.27194,22.28387],[-18.14944,22.61094],[-17.95889,23.01242],[-17.36002,23.89891],[-17.01975,24.37091],[-16.81559,24.631],[-16.28477,25.22345],[-16.16227,25.44488],[-16.02616,25.71497],[-15.95292,25.89712],[-15.87644,26.05783],[-15.72673,26.25331],[-15.37284,26.60676],[-14.63786,27.37085],[-14.27525,27.66849],[-14.12483,27.78191],[-13.97442,27.87551],[-13.72594,28.02161],[-13.41289,28.20169],[-12.81402,28.62069],[-12.41931,28.94278],[-12.06543,29.252],[-11.91324,29.41545],[-11.7796,29.58396],[-11.61627,29.84402],[-11.48016,30.10341],[-11.41211,30.30338],[-11.38401,30.43415],[-11.38489,31.11084],[-11.34406,31.56422],[-11.26913,31.8817],[-11.20208,32.10043],[-11.00995,32.57416],[-10.84598,32.88186],[-10.69074,33.13937],[-10.52234,33.3246],[-10.34735,33.47961],[-10.15229,33.62018],[-9.60188,33.93351],[-9.248,34.114],[-8.90773,34.32783],[-8.55385,34.58595],[-8.03664,34.99952],[-7.80525,35.24444],[-7.51943,35.6215],[-7.34249,35.98577],[-7.27443,36.1508],[-7.13833,36.34837],[-6.96139,36.47981],[-6.74361,36.56731],[-6.60751,36.61103],[-6.15835,36.6438]],[[-8.90773,34.32783],[-8.54024,33.92221],[-7.98863,33.40179]],[[-13.72594,28.02161],[-13.5954,27.85295],[-13.47677,27.71605],[-13.31687,27.57898],[-13.17244,27.4875]],[[-18.20389,20.49704],[-17.84887,20.48392],[-17.58636,20.48392],[-17.31412,20.52945],[-17.11966,20.60228],[-16.91548,20.73873],[-16.7113,20.9114]],[[-18.3536,14.18671],[-18.02695,14.18671],[-17.34641,14.2131],[-16.87659,14.30828]],[[-18.23111,13.07563],[-17.79556,13.16842],[-17.02243,13.28854],[-16.66269,13.31693]],[[-17.00614,11.45307],[-16.54337,11.55977],[-16.27116,11.67976],[-15.99894,11.74639],[-15.6995,11.83966]],[[-15.41368,9.96864],[-14.97813,10.19645],[-14.46092,10.4241]],[[-14.10704,7.426],[-13.52178,7.81723],[-13.19512,8.00596],[-12.87079,8.17005]],[[-10.92212,4.76007],[-10.71796,5.13975],[-10.54102,5.39727],[-10.11923,5.97024]],[[-5.66836,3.93221],[-5.76364,4.25804],[-5.8453,4.86858],[-5.85891,5.18042]]]}},{"type":"Feature","properties":{"project":"Oben-Ajaokuta Steel Gas Pipeline","parent":"Nigerian National Petroleum Corporation [100.00%]","status":"operating","capacity":1.87,"capacity_units":"Bcm/y","url":"https://www.gem.wiki/Oben-Ajaokuta_Steel_gas_pipeline","_label":"Oben-Ajaokuta Steel Gas Pipeline","_status_group":"operating","_states":["Kogi","Benue","Nasarawa"]},"geometry":{"type":"LineString","coordinates":[[6.64999,7.54339],[8.80771,8.09405]]}},{"type":"Feature","properties":{"project":"Oben-Geregu Gas Pipeline","parent":"Nigerian National Petroleum Corporation [100.00%]","status":"operating","start_year":2011.0,"capacity_units":"Bcm/y","url":"https://www.gem.wiki/Oben-Geregu_Gas_Pipeline","_label":"Oben-Geregu Gas Pipeline","_status_group":"operating","_year":2011,"_year_label":"Start year","_states":["Kogi","Edo"]},"geometry":{"type":"LineString","coordinates":[[5.867,6.012],[6.689,7.511],[6.692,7.563]]}},{"type":"Feature","properties":{"project":"Obiafu-Obrikom-Oben Gas Pipeline","parent":"Nigerian National Petroleum Corporation [100.00%]","status":"construction","start_year":2022.0,"capacity":20.69,"capacity_units":"Bcm/y","url":"https://www.gem.wiki/Obiafu-Obrikom-Oben_Gas_Pipeline","_label":"Obiafu-Obrikom-Oben Gas Pipeline","_status_group":"development","_year":2022,"_year_label":"Start year","_states":["Delta","Rivers","Edo"]},"geometry":{"type":"LineString","coordinates":[[6.65653,5.39138],[5.8995,5.99369]]}},{"type":"Feature","properties":{"project":"Obiafu-Rumuji Gas Pipeline","parent":"Eni S.p.A. [100.00%]","status":"operating","capacity":5.17,"capacity_units":"Bcm/y","url":"https://www.gem.wiki/Obiafu-Rumuji_gas_pipeline","_label":"Obiafu-Rumuji Gas Pipeline","_status_group":"operating","_states":["Rivers"]},"geometry":{"type":"LineString","coordinates":[[6.65678,5.39123],[6.77938,4.9414]]}},{"type":"Feature","properties":{"project":"Obiafu-Ubeta Gas Pipeline","parent":"Nigerian National Petroleum Corporation [49.00%]; Shell [25.60%]; TotalEnergies Gaz & Electricité​ Holdings [15.00%]; Eni International NA NV SARL [unknown %]","status":"operating","capacity":4.55,"capacity_units":"Bcm/y","url":"https://www.gem.wiki/Obiafu-Ubeta_gas_pipeline","_label":"Obiafu-Ubeta Gas Pipeline","_status_group":"operating","_states":["Rivers"]},"geometry":{"type":"LineString","coordinates":[[6.65677,5.39123],[6.65796,5.08321]]}},{"type":"Feature","properties":{"project":"Qua Iboe Terminal to Obiafu-Obrikom Gas Pipeline","parent":"Nigerian National Petroleum Corporation [100.00%]","status":"cancelled","capacity_units":"Bcm/y","url":"https://www.gem.wiki/Qua_Iboe_Terminal_to_Obiafu-Obrikom_Gas_Pipeline","_label":"Qua Iboe Terminal to Obiafu-Obrikom Gas Pipeline","_status_group":"inactive","_states":["Akwa Ibom","Rivers","Imo","Abia"]},"geometry":{"type":"LineString","coordinates":[[8.012,4.547],[6.65653,5.39138]]}},{"type":"Feature","properties":{"project":"Rumuji Node-Bonny Gas Pipeline","parent":"Nigerian National Petroleum Corporation [49.00%]; Shell [25.60%]; TotalEnergies Gaz & Electricité​ Holdings [15.00%]; Eni International NA NV SARL [unknown %]","status":"operating","capacity":12.91,"capacity_units":"Bcm/y","url":"https://www.gem.wiki/Rumuji_Node-Bonny_gas_pipeline","_label":"Rumuji Node-Bonny Gas Pipeline","_status_group":"operating","_states":["Rivers"]},"geometry":{"type":"LineString","coordinates":[[6.77899,4.93982],[7.19055,4.4135]]}},{"type":"Feature","properties":{"project":"Rumuji-Bonny Gas Pipeline","parent":"Eni S.p.A. [100.00%]","status":"operating","capacity":7.23,"capacity_units":"Bcm/y","url":"https://www.gem.wiki/Rumuji-Bonny_gas_pipeline","_label":"Rumuji-Bonny Gas Pipeline","_status_group":"operating","_states":["Rivers"]},"geometry":{"type":"LineString","coordinates":[[6.77899,4.93982],[7.19055,4.4135]]}},{"type":"Feature","properties":{"project":"Soku-Bonny Gas Pipeline","parent":"Shell [100.00%]","status":"operating","capacity":14.47,"capacity_units":"Bcm/y","url":"https://www.gem.wiki/Soku-Bonny_gas_pipeline","_label":"Soku-Bonny Gas Pipeline","_status_group":"operating","_states":["Rivers"]},"geometry":{"type":"LineString","coordinates":[[6.59766,4.65404],[6.62164,4.61101],[6.67919,4.57755],[7.04368,4.4389],[7.17317,4.40782]]}},{"type":"Feature","properties":{"project":"Soku-Rumuji Gas Pipeline","parent":"Nigerian National Petroleum Corporation [49.00%]; Shell [25.60%]; TotalEnergies Gaz & Electricité​ Holdings [15.00%]; Eni International NA NV SARL [unknown %]","status":"operating","capacity":6.2,"capacity_units":"Bcm/y","url":"https://www.gem.wiki/Soku-Rumuji_gas_pipeline","_label":"Soku-Rumuji Gas Pipeline","_status_group":"operating","_states":["Rivers"]},"geometry":{"type":"LineString","coordinates":[[6.68243,4.6784],[6.77959,4.94256]]}},{"type":"Feature","properties":{"project":"Trans Nigeria Gas Pipeline","parent":"Nigerian National Petroleum Corporation [100.00%]","status":"construction","start_year":2023.0,"capacity":36.2,"capacity_units":"Bcm/y","url":"https://www.gem.wiki/Trans_Nigeria_Gas_Pipeline","_label":"Trans Nigeria Gas Pipeline","_status_group":"development","_year":2023,"_year_label":"Start year","_states":["Abuja Federal Capital Territory","Kano","Kaduna"]},"geometry":{"type":"LineString","coordinates":[[7.40192,9.08547],[7.42174,10.50702],[8.53471,11.98909]]}},{"type":"Feature","properties":{"project":"Trans Nigeria Gas Pipeline","parent":"Nigerian National Petroleum Corporation [100.00%]","status":"proposed","capacity":3.5,"capacity_units":"Bcm/y","url":"https://www.gem.wiki/Trans_Nigeria_Gas_Pipeline","_label":"Trans Nigeria Gas Pipeline","_status_group":"proposed","_states":["Abuja Federal Capital Territory","Akwa Ibom","Rivers","Kogi","Nasarawa","Abia","Enugu","Ebonyi"]},"geometry":{"type":"MultiLineString","coordinates":[[[8.00929,4.54884],[7.12511,4.8865]],[[7.12511,4.8865],[7.4919,5.52455],[7.54568,6.45628],[6.64106,7.53794],[7.40192,9.08547]]]}},{"type":"Feature","properties":{"project":"Trans-Sahara Gas Pipeline","parent":"Niger Ministry of Petroleum, Energy and Renewable Energies [unknown %]; Nigerian National Petroleum Corporation [unknown %]; Sonatrach [unknown %]","status":"proposed","capacity":30.0,"capacity_units":"Bcm/y","url":"https://www.gem.wiki/Trans-Sahara_Gas_Pipeline","_label":"Trans-Sahara Gas Pipeline","_status_group":"proposed","_states":["Zamfara","Ondo","Delta","Kogi","Edo","Niger","Kaduna"]},"geometry":{"type":"LineString","coordinates":[[5.26512,5.75284],[5.14219,6.54886],[5.85731,7.09973],[6.74335,8.86988],[6.71844,11.64516],[7.4883,18.4978],[5.036,22.79641],[4.64664,26.64245]]}},{"type":"Feature","properties":{"project":"Ukanafun-Calabar Gas Pipeline","parent":"Nigerian National Petroleum Corporation [100.00%]","status":"operating","start_year":2017.0,"capacity":1.24,"capacity_units":"Bcm/y","url":"https://www.gem.wiki/Ukanafun-Calabar_Gas_Pipeline","_label":"Ukanafun-Calabar Gas Pipeline","_status_group":"operating","_year":2017,"_year_label":"Start year","_states":["Cross River","Akwa Ibom"]},"geometry":{"type":"LineString","coordinates":[[7.608,4.927],[8.318,5.018]]}},{"type":"Feature","properties":{"project":"Uquo to Oron Pipeline","parent":"Savannah Energy [100.00%]","status":"operating","capacity_units":"Bcm/y","url":"https://www.gem.wiki/Uquo_to_Oron_Gas_Pipeline","_label":"Uquo to Oron Pipeline","_status_group":"operating","_states":["Akwa Ibom"]},"geometry":{"type":"LineString","coordinates":[[8.06166,4.66163],[8.23653,4.80739]]}},{"type":"Feature","properties":{"project":"West African Gas Pipeline","parent":"Chevron [36.70%]; Nigerian National Petroleum Corporation [25.00%]; Shell [18.00%]; Takoradi Power [16.30%]; Societe BenGaz [2.00%]; Société Togolaise de Gaz [2.00%]","status":"operating","start_year":2006.0,"capacity":2.07,"capacity_units":"Bcm/y","url":"https://www.gem.wiki/West_African_Gas_Pipeline","_label":"West African Gas Pipeline","_status_group":"operating","_year":2006,"_year_label":"Start year","_states":["Ogun","Lagos"]},"geometry":{"type":"MultiLineString","coordinates":[[[3.28185,6.71734],[3.38408,6.45503],[3.75029,5.39727],[3.75029,5.2753],[3.65502,5.19398],[3.42363,5.09908],[3.09698,4.99062],[2.56616,4.90926],[2.03533,4.81433],[1.63332,4.75862],[0.64704,4.54302],[-0.40099,4.36661],[-1.44902,4.13587],[-1.50905,4.13253],[-1.56779,4.15531],[-1.61347,4.19111],[-1.64611,4.24969],[-1.66569,4.31477],[-1.76667,4.91667]],[[2.89281,4.9635],[2.43333,6.36667]],[[1.63332,4.75862],[1.22278,6.13194]],[[0.24991,4.47641],[0.0,5.66667]]]}}]}
