{"type":"FeatureCollection","name":"hydro_plants","atlas_release":{"version":"0.11.1","date":"2026-07-30","title":"Interface and Release Hardening"},"metadata":{"description":"Nigerian hydroelectric power stations, operating and planned, with capacity and status.","source":"Global Energy Monitor / GreenInfo Network Global Hydropower Tracker mirror","source_date":"2026-07-26","license":"CC BY 4.0 inferred; verify before redistribution","quality":"B","quality_note":"7 Nigerian hydro plants, all at GEM-reported 'exact' coordinate accuracy: 4 operating (Kainji, Jebba, Shiroro, Zungeru; ~2,638 MW combined), 1 pre-construction (Gurara II), 2 shelved (Makurdi, and the long-delayed Mambilla mega-project). This closes a real gap -- the power_plants layer above (GOGPT) covers only oil- and gas-fired generation by design and never included hydro.","path":"data/processed/02_infrastructure/ght_hydropower_nigeria.csv","key":"hydro_plants","label":"Hydroelectric Power Plants","category":"infrastructure","category_label":"Infrastructure","record_count":7,"download_url":"https://raw.githubusercontent.com/Diamonds10/nigeria-infrastructure-atlas/main/data/processed/02_infrastructure/ght_hydropower_nigeria.csv","refresh":{"cadence":"annual_or_source_release","last_checked":"2026-07-26","next_review_due":"2027-07-27","review_status":"current"}},"features":[{"type":"Feature","properties":{"project":"Gurara II hydroelectric plant","capacity":390,"units":"MW","type":"unknown","status":"pre-construction","url":"https://gem.wiki/Gurara_II_hydroelectric_plant","_label":"Gurara II hydroelectric plant","_status_group":"development","_states":["Kaduna"]},"geometry":{"type":"Point","coordinates":[7.7332,9.6463]}},{"type":"Feature","properties":{"project":"Jebba hydroelectric plant","capacity":578,"units":"MW","type":"conventional storage","status":"operating","start_year":1985.0,"operator":"Mainstream Energy Solutions LTD","url":"https://gem.wiki/Jebba_hydroelectric_plant","_label":"Jebba hydroelectric plant","_status_group":"operating","_year":1985,"_year_label":"Start year","_states":["Niger"]},"geometry":{"type":"Point","coordinates":[4.7896,9.1409]}},{"type":"Feature","properties":{"project":"Kainji hydroelectric plant","capacity":760,"units":"MW","type":"conventional storage","status":"operating","start_year":1968.0,"operator":"Mainstream Energy Solutions LTD","url":"https://gem.wiki/Kainji_hydroelectric_plant","_label":"Kainji hydroelectric plant","_status_group":"operating","_year":1968,"_year_label":"Start year","_states":["Niger"]},"geometry":{"type":"Point","coordinates":[4.6121,9.8637]}},{"type":"Feature","properties":{"project":"Makurdi hydroelectric plant","capacity":1000,"units":"MW","type":"unknown","status":"shelved","url":"https://gem.wiki/Makurdi_hydroelectric_plant","_label":"Makurdi hydroelectric plant","_status_group":"inactive","_states":["Benue"]},"geometry":{"type":"Point","coordinates":[8.5732,7.7403]}},{"type":"Feature","properties":{"project":"Mambilla hydroelectric plant","capacity":3050,"units":"MW","type":"conventional storage","status":"shelved","url":"https://gem.wiki/Mambilla_hydroelectric_plant","_label":"Mambilla hydroelectric plant","_status_group":"inactive","_states":["Taraba"]},"geometry":{"type":"Point","coordinates":[11.7199,7.3279]}},{"type":"Feature","properties":{"project":"Shiroro hydroelectric plant","capacity":600,"units":"MW","type":"conventional storage","status":"operating","start_year":1990.0,"url":"https://gem.wiki/Shiroro_hydroelectric_plant","_label":"Shiroro hydroelectric plant","_status_group":"operating","_year":1990,"_year_label":"Start year","_states":["Niger"]},"geometry":{"type":"Point","coordinates":[6.8344,9.9751]}},{"type":"Feature","properties":{"project":"Zungeru hydroelectric plant","capacity":700,"units":"MW","type":"conventional storage","status":"operating","start_year":2022.0,"url":"https://gem.wiki/Zungeru_hydroelectric_plant","_label":"Zungeru hydroelectric plant","_status_group":"operating","_year":2022,"_year_label":"Start year","_states":["Niger"]},"geometry":{"type":"Point","coordinates":[6.295,9.9006]}}]}
