{"type":"FeatureCollection","name":"interconnected_minigrids","product":{"name":"Infraxis Atlas — Nigeria","master_brand":"Infraxis Atlas","country":"Nigeria","former_name":"Nigeria Infrastructure Atlas","tagline":"Mapping infrastructure. Measuring disruption."},"atlas_release":{"version":"0.12.0","date":"2026-08-05","title":"Infraxis Atlas Rebrand and Pan-African Foundation"},"metadata":{"description":"Mini-grids designed to operate with, or interconnect to, an existing distribution network.","source":"REA/NEP; NEMSA; official programme sources","source_date":"2026-07-25","license":"Mixed public-source terms; review each record and source","quality":"B","quality_note":"2 official-source interconnected mini-grid records. This is a conservative named-site inventory, not a complete national registry.","path":"data/processed/07_renewables/renewable_offgrid_minigrid_nigeria.csv","coverage_audit_path":"data/processed/07_renewables/minigrid_state_coverage_audit.csv","supplement_path":"data/curated/07_renewables/verified_public_offgrid_supplement.csv","key":"interconnected_minigrids","label":"Interconnected Mini-grids","category":"renewables","category_label":"Distributed Energy","record_count":2,"download_url":"https://raw.githubusercontent.com/Diamonds10/nigeria-infrastructure-atlas/main/data/processed/07_renewables/renewable_offgrid_minigrid_nigeria.csv","refresh":{"cadence":"quarterly","last_checked":"2026-07-25","next_review_due":"2026-10-25","review_status":"current"},"coverage_audit_url":"https://raw.githubusercontent.com/Diamonds10/nigeria-infrastructure-atlas/main/data/processed/07_renewables/minigrid_state_coverage_audit.csv","supplement_url":"https://raw.githubusercontent.com/Diamonds10/nigeria-infrastructure-atlas/main/data/curated/07_renewables/verified_public_offgrid_supplement.csv"},"features":[{"type":"Feature","properties":{"asset_id":"rea-epe-2026","asset_name":"Eredo-Epe interconnected solar mini-grid","asset_type":"interconnected_mini_grid","distributed_energy_class":"interconnected_mini_grid","classification_basis":"deterministic_asset_type_mapping","classification_confidence":"high","program_name":"REF Interconnected Mini-Grid Acceleration Scheme","state":"Lagos","lga":"Epe","community":"Odogbawojo; Odoshiwola; Odoayan; Ora; Ibowon","technology":"solar_hybrid","status":"commissioned","capacity_kw":505.0,"developer":"A4&T Power Solutions Limited","owner_operator":"A4&T Power Solutions Limited / electricity distribution partner","financing_source":"European Union; German Government; GIZ/NESP","geocode_precision":"community","coordinate_source":"OpenStreetMap Eredo community centroid","source_name":"REA commissions 505 kWp interconnected solar mini-grid in Epe","source_url":"https://rea.gov.ng/news/REA-505kWp-MINI-GRID-COMMISIONING.html","source_date_accessed":"2026-07-24","evidence_level":"official_commissioned","record_origin":"official_supplement","notes":"Commissioned 24 June 2026 to serve five communities. Coordinate represents Eredo community, not a verified plant parcel.","_label":"Eredo-Epe interconnected solar mini-grid","_status_group":"operating","_states":["Lagos"]},"geometry":{"type":"Point","coordinates":[3.98984,6.64236]}},{"type":"Feature","properties":{"asset_id":"rea-nep-ibaragun","asset_name":"Ibaragun Ijoko interconnected solar-hybrid mini-grid","asset_type":"interconnected_mini_grid","distributed_energy_class":"interconnected_mini_grid","classification_basis":"deterministic_asset_type_mapping","classification_confidence":"high","program_name":"Nigeria Electrification Programme","state":"Ogun","lga":"Ifo","community":"Ibaragun Ijoko","technology":"solar_hybrid","status":"operational","capacity_kw":1076.4,"customers_served":7000.0,"developer":"Darway Coast Nigeria Limited","owner_operator":"Darway Coast Nigeria Limited","financing_source":"REA-NEP / private and development partners","geocode_precision":"exact_site","coordinate_source":"NEMSA inspection application GPS coordinate","source_name":"REA-NEP Ibaragun impact assessment","source_url":"https://nep.rea.gov.ng/posts/feature-article-beyond-power-supply.html","source_date_accessed":"2026-07-24","evidence_level":"official_operational","record_origin":"official_supplement","notes":"REA reports stable electricity and more than 7,000 connections. Capacity and coordinate come from the NEMSA inspection record: https://nemsa.gov.ng/admin-request-for-inspection-rea-solar-mini-grid/entry/1511981/.","_label":"Ibaragun Ijoko interconnected solar-hybrid mini-grid","_status_group":"operating","_states":["Ogun"]},"geometry":{"type":"Point","coordinates":[3.31705,6.75997]}}]}
