{"type":"FeatureCollection","name":"lng_terminals","atlas_release":{"version":"0.11.0","date":"2026-07-28","title":"Hydroelectric Coverage and State-scoped Filtering"},"metadata":{"description":"Nigerian LNG terminal train records with capacity and status context.","source":"Global Energy Monitor / GreenInfo Network GGIT mirror","source_date":"2026-07-21","license":"CC BY 4.0 inferred; verify before redistribution","quality":"B","quality_note":"Site points with train-level records; multiple records may share a facility.","path":"data/processed/02_infrastructure/ggit_lng_terminals_nigeria.csv","key":"lng_terminals","label":"LNG Terminals","category":"infrastructure","category_label":"Infrastructure","record_count":24,"download_url":"https://raw.githubusercontent.com/Diamonds10/nigeria-infrastructure-atlas/main/data/processed/02_infrastructure/ggit_lng_terminals_nigeria.csv","refresh":{"cadence":"annual_or_source_release","last_checked":"2026-07-21","next_review_due":"2027-07-22","review_status":"current"}},"features":[{"type":"Feature","properties":{"project":"Brass LNG Terminal","unit":"T1","parent":"Nigerian National Petroleum Corporation [49.00%]; ConocoPhillips [17.00%]; Eni [17.00%]; TotalEnergies [17.00%]","status":"proposed","capacity":5.0,"capacity_units":"MTPA","url":"https://www.gem.wiki/Brass_LNG_Terminal","_label":"Brass LNG Terminal","_status_group":"proposed","_states":[]},"geometry":{"type":"Point","coordinates":[6.246,4.31]}},{"type":"Feature","properties":{"project":"Brass LNG Terminal","unit":"T2","parent":"Nigerian National Petroleum Corporation [49.00%]; ConocoPhillips [17.00%]; Eni [17.00%]; TotalEnergies [17.00%]","status":"proposed","capacity":5.0,"capacity_units":"MTPA","url":"https://www.gem.wiki/Brass_LNG_Terminal","_label":"Brass LNG Terminal","_status_group":"proposed","_states":[]},"geometry":{"type":"Point","coordinates":[6.246,4.31]}},{"type":"Feature","properties":{"project":"Golar Nigeria FLNG Terminal","parent":"Golar LNG [100.00%]","status":"proposed","capacity_units":"MTPA","url":"https://www.gem.wiki/Golar_Nigeria_FLNG_Terminal","_label":"Golar Nigeria FLNG Terminal","_status_group":"proposed","_states":[]},"geometry":{"type":"Point","coordinates":[5.4027,4.6367]}},{"type":"Feature","properties":{"project":"Greenville LNG Terminal","unit":"Phase 1 (T1-3)","parent":"Greenville LNG Company Ltd [100.00%]","status":"operating","start_year":2019.0,"capacity":0.82,"capacity_units":"MTPA","url":"https://www.gem.wiki/Greenville_LNG","_label":"Greenville LNG Terminal","_status_group":"operating","_year":2019,"_year_label":"Start year","_states":["Rivers"]},"geometry":{"type":"Point","coordinates":[6.7672,4.956]}},{"type":"Feature","properties":{"project":"Greenville LNG Terminal","unit":"Phase 2 (T4-5)","parent":"Greenville LNG Company Ltd [100.00%]","status":"proposed","capacity":1.1,"capacity_units":"MTPA","url":"https://www.gem.wiki/Greenville_LNG","_label":"Greenville LNG Terminal","_status_group":"proposed","_states":["Rivers"]},"geometry":{"type":"Point","coordinates":[6.7672,4.956]}},{"type":"Feature","properties":{"project":"Nigeria LNG Terminal","unit":"T7","parent":"Nigerian National Petroleum Corporation [49.00%]; Shell [25.60%]; TotalEnergies [15.00%]; Eni [10.40%]","status":"construction","start_year":2024.0,"capacity":8.0,"capacity_units":"MTPA","url":"https://www.gem.wiki/Nigeria_LNG_Terminal","_label":"Nigeria LNG Terminal","_status_group":"development","_year":2024,"_year_label":"Start year","_states":["Rivers"]},"geometry":{"type":"Point","coordinates":[7.1616,4.4184]}},{"type":"Feature","properties":{"project":"Nigeria LNG Terminal","unit":"Trains 1–6 Debottlenecking Project","parent":"Nigerian National Petroleum Corporation [49.00%]; Shell [25.60%]; TotalEnergies [15.00%]; Eni [10.40%]","status":"proposed","start_year":2026.0,"capacity":3.4,"capacity_units":"MTPA","url":"https://www.gem.wiki/Nigeria_LNG_Terminal","_label":"Nigeria LNG Terminal","_status_group":"proposed","_year":2026,"_year_label":"Start year","_states":["Rivers"]},"geometry":{"type":"Point","coordinates":[7.1616,4.4184]}},{"type":"Feature","properties":{"project":"Nigeria LNG Terminal","unit":"T1","parent":"Nigerian National Petroleum Corporation [49.00%]; Shell [25.60%]; TotalEnergies [15.00%]; Eni [10.40%]","status":"operating","start_year":1999.0,"capacity":3.3,"capacity_units":"MTPA","url":"https://www.gem.wiki/Nigeria_LNG_Terminal","_label":"Nigeria LNG Terminal","_status_group":"operating","_year":1999,"_year_label":"Start year","_states":["Rivers"]},"geometry":{"type":"Point","coordinates":[7.1616,4.4184]}},{"type":"Feature","properties":{"project":"Nigeria LNG Terminal","unit":"T2","parent":"Nigerian National Petroleum Corporation [49.00%]; Shell [25.60%]; TotalEnergies [15.00%]; Eni [10.40%]","status":"operating","start_year":2000.0,"capacity":3.3,"capacity_units":"MTPA","url":"https://www.gem.wiki/Nigeria_LNG_Terminal","_label":"Nigeria LNG Terminal","_status_group":"operating","_year":2000,"_year_label":"Start year","_states":["Rivers"]},"geometry":{"type":"Point","coordinates":[7.1616,4.4184]}},{"type":"Feature","properties":{"project":"Nigeria LNG Terminal","unit":"T3","parent":"Nigerian National Petroleum Corporation [49.00%]; Shell [25.60%]; TotalEnergies [15.00%]; Eni [10.40%]","status":"operating","start_year":2002.0,"capacity":3.3,"capacity_units":"MTPA","url":"https://www.gem.wiki/Nigeria_LNG_Terminal","_label":"Nigeria LNG Terminal","_status_group":"operating","_year":2002,"_year_label":"Start year","_states":["Rivers"]},"geometry":{"type":"Point","coordinates":[7.1616,4.4184]}},{"type":"Feature","properties":{"project":"Nigeria LNG Terminal","unit":"T4","parent":"Nigerian National Petroleum Corporation [49.00%]; Shell [25.60%]; TotalEnergies [15.00%]; Eni [10.40%]","status":"operating","start_year":2006.0,"capacity":4.1,"capacity_units":"MTPA","url":"https://www.gem.wiki/Nigeria_LNG_Terminal","_label":"Nigeria LNG Terminal","_status_group":"operating","_year":2006,"_year_label":"Start year","_states":["Rivers"]},"geometry":{"type":"Point","coordinates":[7.1616,4.4184]}},{"type":"Feature","properties":{"project":"Nigeria LNG Terminal","unit":"T5","parent":"Nigerian National Petroleum Corporation [49.00%]; Shell [25.60%]; TotalEnergies [15.00%]; Eni [10.40%]","status":"operating","start_year":2006.0,"capacity":4.1,"capacity_units":"MTPA","url":"https://www.gem.wiki/Nigeria_LNG_Terminal","_label":"Nigeria LNG Terminal","_status_group":"operating","_year":2006,"_year_label":"Start year","_states":["Rivers"]},"geometry":{"type":"Point","coordinates":[7.1616,4.4184]}},{"type":"Feature","properties":{"project":"Nigeria LNG Terminal","unit":"T6","parent":"Nigerian National Petroleum Corporation [49.00%]; Shell [25.60%]; TotalEnergies [15.00%]; Eni [10.40%]","status":"operating","start_year":2008.0,"capacity":4.1,"capacity_units":"MTPA","url":"https://www.gem.wiki/Nigeria_LNG_Terminal","_label":"Nigeria LNG Terminal","_status_group":"operating","_year":2008,"_year_label":"Start year","_states":["Rivers"]},"geometry":{"type":"Point","coordinates":[7.1616,4.4184]}},{"type":"Feature","properties":{"project":"Nigeria LNG Terminal","unit":"T8","parent":"Nigerian National Petroleum Corporation [49.00%]; Shell [25.60%]; TotalEnergies [15.00%]; Eni [10.40%]","status":"proposed","capacity_units":"MTPA","url":"https://www.gem.wiki/Nigeria_LNG_Terminal","_label":"Nigeria LNG Terminal","_status_group":"proposed","_states":["Rivers"]},"geometry":{"type":"Point","coordinates":[7.1616,4.4184]}},{"type":"Feature","properties":{"project":"Nigeria LNG Terminal","unit":"T9","parent":"Nigerian National Petroleum Corporation [49.00%]; Shell [25.60%]; TotalEnergies [15.00%]; Eni [10.40%]","status":"proposed","capacity_units":"MTPA","url":"https://www.gem.wiki/Nigeria_LNG_Terminal","_label":"Nigeria LNG Terminal","_status_group":"proposed","_states":["Rivers"]},"geometry":{"type":"Point","coordinates":[7.1616,4.4184]}},{"type":"Feature","properties":{"project":"Nigeria LNG Terminal","unit":"T10","parent":"Nigerian National Petroleum Corporation [49.00%]; Shell [25.60%]; TotalEnergies [15.00%]; Eni [10.40%]","status":"proposed","capacity_units":"MTPA","url":"https://www.gem.wiki/Nigeria_LNG_Terminal","_label":"Nigeria LNG Terminal","_status_group":"proposed","_states":["Rivers"]},"geometry":{"type":"Point","coordinates":[7.1616,4.4184]}},{"type":"Feature","properties":{"project":"Nigeria LNG Terminal","unit":"T11","parent":"Nigerian National Petroleum Corporation [49.00%]; Shell [25.60%]; TotalEnergies [15.00%]; Eni [10.40%]","status":"proposed","capacity_units":"MTPA","url":"https://www.gem.wiki/Nigeria_LNG_Terminal","_label":"Nigeria LNG Terminal","_status_group":"proposed","_states":["Rivers"]},"geometry":{"type":"Point","coordinates":[7.1616,4.4184]}},{"type":"Feature","properties":{"project":"Nigeria LNG Terminal","unit":"T12","parent":"Nigerian National Petroleum Corporation [49.00%]; Shell [25.60%]; TotalEnergies [15.00%]; Eni [10.40%]","status":"proposed","capacity_units":"MTPA","url":"https://www.gem.wiki/Nigeria_LNG_Terminal","_label":"Nigeria LNG Terminal","_status_group":"proposed","_states":["Rivers"]},"geometry":{"type":"Point","coordinates":[7.1616,4.4184]}},{"type":"Feature","properties":{"project":"Olokola LNG Terminal","unit":"T1","parent":"Nigerian National Petroleum Corporation [100.00%]","status":"cancelled","capacity":5.5,"capacity_units":"MTPA","url":"https://www.gem.wiki/Olokola_LNG_Terminal","_label":"Olokola LNG Terminal","_status_group":"inactive","_states":["Cross River"]},"geometry":{"type":"Point","coordinates":[8.3203,5.0217]}},{"type":"Feature","properties":{"project":"Olokola LNG Terminal","unit":"T2","parent":"Nigerian National Petroleum Corporation [100.00%]","status":"cancelled","capacity":5.5,"capacity_units":"MTPA","url":"https://www.gem.wiki/Olokola_LNG_Terminal","_label":"Olokola LNG Terminal","_status_group":"inactive","_states":["Cross River"]},"geometry":{"type":"Point","coordinates":[8.3203,5.0217]}},{"type":"Feature","properties":{"project":"Olokola LNG Terminal","unit":"T3","parent":"Nigerian National Petroleum Corporation [100.00%]","status":"cancelled","capacity":5.5,"capacity_units":"MTPA","url":"https://www.gem.wiki/Olokola_LNG_Terminal","_label":"Olokola LNG Terminal","_status_group":"inactive","_states":["Cross River"]},"geometry":{"type":"Point","coordinates":[8.3203,5.0217]}},{"type":"Feature","properties":{"project":"Olokola LNG Terminal","unit":"T4","parent":"Nigerian National Petroleum Corporation [100.00%]","status":"cancelled","capacity":5.5,"capacity_units":"MTPA","url":"https://www.gem.wiki/Olokola_LNG_Terminal","_label":"Olokola LNG Terminal","_status_group":"inactive","_states":["Cross River"]},"geometry":{"type":"Point","coordinates":[8.3203,5.0217]}},{"type":"Feature","properties":{"project":"UTM Offshore FLNG Terminal","parent":"UTM Offshore [100.00%]","status":"proposed","start_year":2026.0,"capacity":1.35,"capacity_units":"MTPA","url":"https://www.gem.wiki/UTM_Offshore_FLNG_Terminal","_label":"UTM Offshore FLNG Terminal","_status_group":"proposed","_year":2026,"_year_label":"Start year","_states":[]},"geometry":{"type":"Point","coordinates":[7.5526,4.1485]}},{"type":"Feature","properties":{"project":"Golar Lagos FSRU","parent":"Golar LNG [100.00%]","status":"cancelled","capacity":5.7,"capacity_units":"MTPA","url":"https://www.gem.wiki/Golar_Lagos_FSRU","_label":"Golar Lagos FSRU","_status_group":"inactive","_states":["Lagos"]},"geometry":{"type":"Point","coordinates":[3.3733,6.4507]}}]}
