{"type":"FeatureCollection","name":"oil_pipelines","atlas_release":{"version":"0.9.0","date":"2026-07-25","title":"Distributed Energy Coverage Expansion"},"metadata":{"description":"Oil and NGL transmission pipeline routes that include Nigeria.","source":"Global Energy Monitor / GreenInfo Network GOIT mirror","source_date":"2026-07-21","license":"CC BY 4.0 inferred; verify before redistribution","quality":"B","quality_note":"Public route geometry; storage terminals are not included.","path":"data/processed/02_infrastructure/goit_oil_ngl_pipelines_nigeria.csv","key":"oil_pipelines","label":"Oil & NGL Pipelines","category":"infrastructure","category_label":"Infrastructure","record_count":15,"download_url":"https://raw.githubusercontent.com/Diamonds10/nigeria-infrastructure-atlas/main/data/processed/02_infrastructure/goit_oil_ngl_pipelines_nigeria.csv","refresh":{"cadence":"annual_or_source_release","last_checked":"2026-07-21","next_review_due":"2027-07-22","review_status":"current"}},"features":[{"type":"Feature","properties":{"project":"Azuzuama-Tebidaba Oil Pipeline","parent":"Eni S.p.A. [59.18%]; Nigerian National Petroleum Corporation [unknown %]","status":"operating","url":"https://www.gem.wiki/Azuzuama-Tebidaba_Oil_Pipeline","_label":"Azuzuama-Tebidaba Oil Pipeline","_status_group":"operating","_states":["Bayelsa"]},"geometry":{"type":"LineString","coordinates":[[5.96,4.69],[5.919,4.556]]}},{"type":"Feature","properties":{"project":"Bonny-Port Harcourt Refinery Pipeline","parent":"Nigerian National Petroleum Corporation [100.00%]","status":"operating","start_year":1965.0,"capacity":60000.0,"url":"https://www.gem.wiki/Bonny-Port_Harcourt_Refinery_Pipeline","_label":"Bonny-Port Harcourt Refinery Pipeline","_status_group":"operating","_year":1965,"_year_label":"Start year","_states":["Rivers"]},"geometry":{"type":"LineString","coordinates":[[7.158,4.424],[7.1,4.76]]}},{"type":"Feature","properties":{"project":"Brass Creek-Forcados Oil Pipeline","parent":"Shell [100.00%]","status":"operating","capacity":250000.0,"url":"https://www.gem.wiki/Brass_Creek-Forcados_Oil_Pipeline","_label":"Brass Creek-Forcados Oil Pipeline","_status_group":"operating","_states":["Bayelsa","Delta"]},"geometry":{"type":"LineString","coordinates":[[6.245,4.302],[5.35,5.341]]}},{"type":"Feature","properties":{"project":"Clough Creek-Tebidaba Oil Pipeline","parent":"Eni S.p.A. [unknown %]; Nigerian National Petroleum Corporation [unknown %]","status":"operating","url":"https://www.gem.wiki/Clough_Creek-Tebidaba_Oil_Pipeline","_label":"Clough Creek-Tebidaba Oil Pipeline","_status_group":"operating","_states":["Bayelsa"]},"geometry":{"type":"LineString","coordinates":[[5.69144,4.85185],[5.919,4.556]]}},{"type":"Feature","properties":{"project":"Edop-Qua Iboe Terminal Oil Pipeline","parent":"ExxonMobil [100.00%]","status":"operating","capacity":320000.0,"url":"https://www.gem.wiki/Edop-Qua_Iboe_Terminal_Oil_Pipeline","_label":"Edop-Qua Iboe Terminal Oil Pipeline","_status_group":"operating","_states":["Akwa Ibom"]},"geometry":{"type":"LineString","coordinates":[[8.02,4.1],[8.012,4.547]]}},{"type":"Feature","properties":{"project":"Eni Kwale-Brass Oil Pipeline Network","parent":"Eni S.p.A. [100.00%]","status":"operating","url":"https://www.gem.wiki/Eni_Kwale-Brass_Oil_Pipeline_Network","_label":"Eni Kwale-Brass Oil Pipeline Network","_status_group":"operating","_states":["Bayelsa","Delta"]},"geometry":{"type":"LineString","coordinates":[[6.421,5.714],[6.245,4.302]]}},{"type":"Feature","properties":{"project":"Escravos-Warri-Kaduna Oil Pipeline","parent":"Nigerian National Petroleum Corporation [100.00%]","status":"operating","url":"https://www.gem.wiki/Escravos-Warri-Kaduna_Oil_Pipeline","_label":"Escravos-Warri-Kaduna Oil Pipeline","_status_group":"operating","_states":["Abuja Federal Capital Territory","Delta","Kogi","Edo","Niger","Kaduna"]},"geometry":{"type":"LineString","coordinates":[[5.204,5.61],[5.713,5.566],[7.488,10.411]]}},{"type":"Feature","properties":{"project":"Idoho-Qua Iboe Terminal Oil Pipeline","parent":"ExxonMobil [100.00%]","status":"operating","url":"https://www.gem.wiki/Idoho-Qua_Iboe_Terminal_Oil_Pipeline","_label":"Idoho-Qua Iboe Terminal Oil Pipeline","_status_group":"operating","_states":["Akwa Ibom"]},"geometry":{"type":"LineString","coordinates":[[7.97,4.42],[8.012,4.547]]}},{"type":"Feature","properties":{"project":"Kwale-Ogoda Oil Pipeline","parent":"Eni S.p.A. [100.00%]; Nigerian National Petroleum Corporation [unknown %]","status":"operating","url":"https://www.gem.wiki/Kwale-Ogoda_Oil_Pipeline","_label":"Kwale-Ogoda Oil Pipeline","_status_group":"operating","_states":["Delta"]},"geometry":{"type":"LineString","coordinates":[[6.421,5.714],[5.915,5.266]]}},{"type":"Feature","properties":{"project":"Nembe Creek Trunk Line","parent":"Aiteo Group [45.00%]; Nigerian National Petroleum Corporation [35.00%]; TotalEnergies SE [10.00%]; Eni S.p.A. [5.00%]","status":"operating","start_year":2010.0,"capacity":150000.0,"url":"https://www.gem.wiki/Nembe_Creek_Trunk_Line","_label":"Nembe Creek Trunk Line","_status_group":"operating","_year":2010,"_year_label":"Start year","_states":["Bayelsa","Rivers"]},"geometry":{"type":"LineString","coordinates":[[6.27095,4.51312],[6.99604,4.3899]]}},{"type":"Feature","properties":{"project":"Nkpoku-Bomu Oil Pipeline","parent":"Shell [100.00%]","status":"operating","url":"https://www.gem.wiki/Nkpoku-Bomu_Oil_Pipeline","_label":"Nkpoku-Bomu Oil Pipeline","_status_group":"operating","_states":["Rivers"]},"geometry":{"type":"LineString","coordinates":[[7.019,4.798],[7.354,4.633]]}},{"type":"Feature","properties":{"project":"Ogoda-Brass Oil Pipeline","parent":"Eni S.p.A. [100.00%]","status":"operating","url":"https://www.gem.wiki/Ogoda-Brass_Oil_Pipeline","_label":"Ogoda-Brass Oil Pipeline","_status_group":"operating","_states":["Bayelsa","Delta"]},"geometry":{"type":"LineString","coordinates":[[5.915,5.266],[6.245,4.302]]}},{"type":"Feature","properties":{"project":"Oso-Qua Iboe Terminal Oil Pipeline","parent":"ExxonMobil [100.00%]","status":"operating","url":"https://www.gem.wiki/Oso-Qua_Iboe_Terminal_Oil_Pipeline","_label":"Oso-Qua Iboe Terminal Oil Pipeline","_status_group":"operating","_states":["Akwa Ibom"]},"geometry":{"type":"LineString","coordinates":[[7.67,4.24],[8.012,4.547]]}},{"type":"Feature","properties":{"project":"Pennington Oilfield-Pennington Export Terminal Oil Pipeline","parent":"Chevron [100.00%]","status":"operating","capacity":20000.0,"url":"https://www.gem.wiki/Pennington_Oilfield-Pennington_Export_Terminal_Oil_Pipeline","_label":"Pennington Oilfield-Pennington Export Terminal Oil Pipeline","_status_group":"operating","_states":[]},"geometry":{"type":"LineString","coordinates":[[5.71,4.41],[5.81,4.29]]}},{"type":"Feature","properties":{"project":"Rapele-Forcados Oil Pipeline","parent":"Shell [100.00%]","status":"operating","url":"https://www.gem.wiki/Rapele-Forcados_Oil_Pipeline","_label":"Rapele-Forcados Oil Pipeline","_status_group":"operating","_states":["Delta"]},"geometry":{"type":"LineString","coordinates":[[5.667,5.577],[5.35,5.341]]}}]}
