{"type":"FeatureCollection","name":"ports","atlas_release":{"version":"0.11.1","date":"2026-07-30","title":"Interface and Release Hardening"},"metadata":{"description":"Nigerian seaports and offshore oil and gas terminals.","source":"NGA World Port Index via HDX","source_date":"2026-07-23","license":"US government public data","quality":"B","quality_note":"Locations are stable, but facility attributes come from a 2017 source file.","path":"data/processed/05_connectivity/world_port_index_nigeria.csv","key":"ports","label":"Ports & Terminals","category":"connectivity","category_label":"Connectivity","record_count":25,"download_url":"https://raw.githubusercontent.com/Diamonds10/nigeria-infrastructure-atlas/main/data/processed/05_connectivity/world_port_index_nigeria.csv","refresh":{"cadence":"annual_or_source_release","last_checked":"2026-07-23","next_review_due":"2027-07-24","review_status":"current"}},"features":[{"type":"Feature","properties":{"PORT_NAME":"ANTAN OIL TERMINAL","HARBORSIZE":"S","HARBORTYPE":"OR","MAX_VESSEL":"L","_label":"ANTAN OIL TERMINAL","_status_group":"unknown","_states":[]},"geometry":{"type":"Point","coordinates":[8.33333,4.21667]}},{"type":"Feature","properties":{"PORT_NAME":"BONNY","HARBORSIZE":"M","HARBORTYPE":"RN","CARGOWHARF":"Y","MAX_VESSEL":"L","_label":"BONNY","_status_group":"unknown","_states":["Rivers"]},"geometry":{"type":"Point","coordinates":[7.16667,4.45]}},{"type":"Feature","properties":{"PORT_NAME":"BONNY OFFSHORE TERMINAL","HARBORSIZE":"V","HARBORTYPE":"OR","MAX_VESSEL":"L","_label":"BONNY OFFSHORE TERMINAL","_status_group":"unknown","_states":[]},"geometry":{"type":"Point","coordinates":[7.23333,4.18333]}},{"type":"Feature","properties":{"PORT_NAME":"BRASS OIL TERMINAL","HARBORSIZE":"V","HARBORTYPE":"OR","CRANEFIXED":"Y","MAX_VESSEL":"L","_label":"BRASS OIL TERMINAL","_status_group":"unknown","_states":[]},"geometry":{"type":"Point","coordinates":[6.28333,4.06667]}},{"type":"Feature","properties":{"PORT_NAME":"BURUTU","HARBORSIZE":"V","HARBORTYPE":"RN","CARGOWHARF":"Y","CRANEFIXED":"Y","MAX_VESSEL":"M","_label":"BURUTU","_status_group":"unknown","_states":["Delta"]},"geometry":{"type":"Point","coordinates":[5.5,5.35]}},{"type":"Feature","properties":{"PORT_NAME":"CALABAR","HARBORSIZE":"V","HARBORTYPE":"RN","CARGOWHARF":"Y","CRANEFIXED":"Y","MAX_VESSEL":"L","_label":"CALABAR","_status_group":"unknown","_states":["Cross River"]},"geometry":{"type":"Point","coordinates":[8.31667,4.96667]}},{"type":"Feature","properties":{"PORT_NAME":"ESCRAVOS OIL TERMINAL","HARBORSIZE":"V","HARBORTYPE":"OR","CRANEFIXED":"N","MAX_VESSEL":"L","_label":"ESCRAVOS OIL TERMINAL","_status_group":"unknown","_states":[]},"geometry":{"type":"Point","coordinates":[5.0,5.5]}},{"type":"Feature","properties":{"PORT_NAME":"FORCADOS","HARBORSIZE":"V","HARBORTYPE":"RN","CARGOWHARF":"Y","MAX_VESSEL":"L","_label":"FORCADOS","_status_group":"unknown","_states":["Delta"]},"geometry":{"type":"Point","coordinates":[5.43333,5.36667]}},{"type":"Feature","properties":{"PORT_NAME":"FORCADOS OIL TERMINAL","HARBORSIZE":"V","HARBORTYPE":"OR","MAX_VESSEL":"L","_label":"FORCADOS OIL TERMINAL","_status_group":"unknown","_states":[]},"geometry":{"type":"Point","coordinates":[5.18333,5.16667]}},{"type":"Feature","properties":{"PORT_NAME":"KOKO","HARBORSIZE":"V","HARBORTYPE":"RN","CARGOWHARF":"Y","CRANEFIXED":"Y","MAX_VESSEL":"M","_label":"KOKO","_status_group":"unknown","_states":["Delta"]},"geometry":{"type":"Point","coordinates":[5.46667,6.0]}},{"type":"Feature","properties":{"PORT_NAME":"LAGOS","HARBORSIZE":"L","HARBORTYPE":"RN","CARGOWHARF":"Y","RAILWAY":"M","MAX_VESSEL":"L","_label":"LAGOS","_status_group":"unknown","_states":[]},"geometry":{"type":"Point","coordinates":[3.4,6.4]}},{"type":"Feature","properties":{"PORT_NAME":"ODUDU TERMINAL","HARBORSIZE":"V","HARBORTYPE":"OR","MAX_VESSEL":"L","_label":"ODUDU TERMINAL","_status_group":"unknown","_states":[]},"geometry":{"type":"Point","coordinates":[7.76667,4.0]}},{"type":"Feature","properties":{"PORT_NAME":"OKONO TERMINAL","HARBORSIZE":"V","HARBORTYPE":"OR","CRANEFIXED":"Y","MAX_VESSEL":"L","_label":"OKONO TERMINAL","_status_group":"unknown","_states":[]},"geometry":{"type":"Point","coordinates":[7.3,3.98333]}},{"type":"Feature","properties":{"PORT_NAME":"OKRIKA","HARBORSIZE":"V","HARBORTYPE":"RN","CARGOWHARF":"Y","MAX_VESSEL":"L","_label":"OKRIKA","_status_group":"unknown","_states":["Rivers"]},"geometry":{"type":"Point","coordinates":[7.08333,4.71667]}},{"type":"Feature","properties":{"PORT_NAME":"OKWORI TERMINAL","HARBORSIZE":"V","HARBORTYPE":"OR","MAX_VESSEL":"L","_label":"OKWORI TERMINAL","_status_group":"unknown","_states":[]},"geometry":{"type":"Point","coordinates":[6.98333,3.85]}},{"type":"Feature","properties":{"PORT_NAME":"ONNE","HARBORSIZE":"V","HARBORTYPE":"RN","MAX_VESSEL":"L","_label":"ONNE","_status_group":"unknown","_states":["Rivers"]},"geometry":{"type":"Point","coordinates":[7.15,4.68333]}},{"type":"Feature","properties":{"PORT_NAME":"PENNINGTON OIL TERMINAL","HARBORSIZE":"L","HARBORTYPE":"OR","CRANEFIXED":"N","MAX_VESSEL":"L","_label":"PENNINGTON OIL TERMINAL","_status_group":"unknown","_states":[]},"geometry":{"type":"Point","coordinates":[5.61667,4.25]}},{"type":"Feature","properties":{"PORT_NAME":"PORT HARCOURT","HARBORSIZE":"V","HARBORTYPE":"RN","CARGOWHARF":"Y","CRANEFIXED":"Y","RAILWAY":"M","MAX_VESSEL":"L","_label":"PORT HARCOURT","_status_group":"unknown","_states":["Rivers"]},"geometry":{"type":"Point","coordinates":[7.0,4.76667]}},{"type":"Feature","properties":{"PORT_NAME":"QUA IBOE OIL TERMINAL","HARBORSIZE":"V","HARBORTYPE":"OR","MAX_VESSEL":"L","_label":"QUA IBOE OIL TERMINAL","_status_group":"unknown","_states":[]},"geometry":{"type":"Point","coordinates":[8.03333,4.23333]}},{"type":"Feature","properties":{"PORT_NAME":"SAPELE","HARBORSIZE":"V","HARBORTYPE":"RN","CARGOWHARF":"Y","MAX_VESSEL":"L","_label":"SAPELE","_status_group":"unknown","_states":["Delta"]},"geometry":{"type":"Point","coordinates":[5.68333,5.9]}},{"type":"Feature","properties":{"PORT_NAME":"SEA EAGLE TERMINAL","HARBORSIZE":"V","HARBORTYPE":"OR","MAX_VESSEL":"L","_label":"SEA EAGLE TERMINAL","_status_group":"unknown","_states":[]},"geometry":{"type":"Point","coordinates":[5.31667,4.8]}},{"type":"Feature","properties":{"PORT_NAME":"TIN CAN ISLAND","HARBORSIZE":"V","HARBORTYPE":"RN","CARGOWHARF":"Y","CRANEFIXED":"Y","MAX_VESSEL":"L","_label":"TIN CAN ISLAND","_status_group":"unknown","_states":[]},"geometry":{"type":"Point","coordinates":[3.35,6.35]}},{"type":"Feature","properties":{"PORT_NAME":"UKPOKITI MARINE TERMINAL","HARBORSIZE":"V","HARBORTYPE":"OR","MAX_VESSEL":"L","_label":"UKPOKITI MARINE TERMINAL","_status_group":"unknown","_states":[]},"geometry":{"type":"Point","coordinates":[4.83333,5.71667]}},{"type":"Feature","properties":{"PORT_NAME":"WARRI","HARBORSIZE":"V","HARBORTYPE":"RN","CARGOWHARF":"Y","CRANEFIXED":"Y","RAILWAY":"S","MAX_VESSEL":"L","_label":"WARRI","_status_group":"unknown","_states":["Delta"]},"geometry":{"type":"Point","coordinates":[5.73333,5.51667]}},{"type":"Feature","properties":{"PORT_NAME":"YOHO TERMINAL","HARBORSIZE":"V","HARBORTYPE":"OR","_label":"YOHO TERMINAL","_status_group":"unknown","_states":[]},"geometry":{"type":"Point","coordinates":[7.46667,4.01667]}}]}
