{"type":"FeatureCollection","name":"power_plants","atlas_release":{"version":"0.8.0","date":"2026-07-25","title":"State Analytics and Downloadable Reports"},"metadata":{"description":"Oil- and gas-fired generating units across Nigerian power stations.","source":"Global Energy Monitor / GreenInfo Network GOGPT mirror","source_date":"2026-07-21","license":"CC BY 4.0 inferred; verify before redistribution","quality":"B","quality_note":"Unit-level records; counts are not unique power-station counts.","path":"data/processed/02_infrastructure/gogpt_oil_gas_plants_nigeria.csv","key":"power_plants","label":"Gas & Oil Power Plants","category":"infrastructure","category_label":"Infrastructure","record_count":193,"download_url":"https://raw.githubusercontent.com/Diamonds10/nigeria-infrastructure-atlas/main/data/processed/02_infrastructure/gogpt_oil_gas_plants_nigeria.csv","refresh":{"cadence":"annual_or_source_release","last_checked":"2026-07-21","next_review_due":"2027-07-22","review_status":"current"}},"features":[{"type":"Feature","properties":{"project":"ALSCON Smelter power plant","unit":"1","province":"Akwa Ibom","status":"mothballed","fuel_type":"natural gas","capacity":90.0,"technology":"GT","start_year":1997.0,"owner":"Aluminium Smelter Company of Nigeria","url":"https://www.gem.wiki/ALSCON_Smelter_power_plant","_label":"ALSCON Smelter power plant","_status_group":"inactive","_year":1997,"_year_label":"Start year","_states":["Akwa Ibom"]},"geometry":{"type":"Point","coordinates":[7.57349,4.56873]}},{"type":"Feature","properties":{"project":"ALSCON Smelter power plant","unit":"2","province":"Akwa Ibom","status":"mothballed","fuel_type":"natural gas","capacity":90.0,"technology":"GT","start_year":1997.0,"owner":"Aluminium Smelter Company of Nigeria","url":"https://www.gem.wiki/ALSCON_Smelter_power_plant","_label":"ALSCON Smelter power plant","_status_group":"inactive","_year":1997,"_year_label":"Start year","_states":["Akwa Ibom"]},"geometry":{"type":"Point","coordinates":[7.57349,4.56873]}},{"type":"Feature","properties":{"project":"ALSCON Smelter power plant","unit":"2-1","province":"Akwa Ibom","status":"announced","fuel_type":"natural gas","capacity":100.0,"technology":"GT","start_year":2024.0,"owner":"Aluminium Smelter Company of Nigeria","url":"https://www.gem.wiki/ALSCON_Smelter_power_plant","_label":"ALSCON Smelter power plant","_status_group":"proposed","_year":2024,"_year_label":"Start year","_states":["Akwa Ibom"]},"geometry":{"type":"Point","coordinates":[7.57349,4.56873]}},{"type":"Feature","properties":{"project":"ALSCON Smelter power plant","unit":"3","province":"Akwa Ibom","status":"mothballed","fuel_type":"natural gas","capacity":90.0,"technology":"GT","start_year":1997.0,"owner":"Aluminium Smelter Company of Nigeria","url":"https://www.gem.wiki/ALSCON_Smelter_power_plant","_label":"ALSCON Smelter power plant","_status_group":"inactive","_year":1997,"_year_label":"Start year","_states":["Akwa Ibom"]},"geometry":{"type":"Point","coordinates":[7.57349,4.56873]}},{"type":"Feature","properties":{"project":"ALSCON Smelter power plant","unit":"3-1","province":"Akwa Ibom","status":"announced","fuel_type":"natural gas","capacity":130.0,"technology":"GT","start_year":2026.0,"owner":"Aluminium Smelter Company of Nigeria","url":"https://www.gem.wiki/ALSCON_Smelter_power_plant","_label":"ALSCON Smelter power plant","_status_group":"proposed","_year":2026,"_year_label":"Start year","_states":["Akwa Ibom"]},"geometry":{"type":"Point","coordinates":[7.57349,4.56873]}},{"type":"Feature","properties":{"project":"ALSCON Smelter power plant","unit":"3-2","province":"Akwa Ibom","status":"announced","fuel_type":"natural gas","capacity":130.0,"technology":"GT","start_year":2026.0,"owner":"Aluminium Smelter Company of Nigeria","url":"https://www.gem.wiki/ALSCON_Smelter_power_plant","_label":"ALSCON Smelter power plant","_status_group":"proposed","_year":2026,"_year_label":"Start year","_states":["Akwa Ibom"]},"geometry":{"type":"Point","coordinates":[7.57349,4.56873]}},{"type":"Feature","properties":{"project":"ALSCON Smelter power plant","unit":"4","province":"Akwa Ibom","status":"mothballed","fuel_type":"natural gas","capacity":90.0,"technology":"GT","start_year":1997.0,"owner":"Aluminium Smelter Company of Nigeria","url":"https://www.gem.wiki/ALSCON_Smelter_power_plant","_label":"ALSCON Smelter power plant","_status_group":"inactive","_year":1997,"_year_label":"Start year","_states":["Akwa Ibom"]},"geometry":{"type":"Point","coordinates":[7.57349,4.56873]}},{"type":"Feature","properties":{"project":"ALSCON Smelter power plant","unit":"5","province":"Akwa Ibom","status":"operating","fuel_type":"natural gas","capacity":90.0,"technology":"GT","start_year":1997.0,"owner":"Aluminium Smelter Company of Nigeria","url":"https://www.gem.wiki/ALSCON_Smelter_power_plant","_label":"ALSCON Smelter power plant","_status_group":"operating","_year":1997,"_year_label":"Start year","_states":["Akwa Ibom"]},"geometry":{"type":"Point","coordinates":[7.57349,4.56873]}},{"type":"Feature","properties":{"project":"ALSCON Smelter power plant","unit":"6","province":"Akwa Ibom","status":"operating","fuel_type":"natural gas","capacity":90.0,"technology":"GT","start_year":1997.0,"owner":"Aluminium Smelter Company of Nigeria","url":"https://www.gem.wiki/ALSCON_Smelter_power_plant","_label":"ALSCON Smelter power plant","_status_group":"operating","_year":1997,"_year_label":"Start year","_states":["Akwa Ibom"]},"geometry":{"type":"Point","coordinates":[7.57349,4.56873]}},{"type":"Feature","properties":{"project":"Abuja power station","unit":"1","province":"Federal Capital Territory","status":"construction","fuel_type":"natural gas","capacity":450.0,"technology":"CC","start_year":2037.0,"owner":"NNPC Ltd ; General Electric Co; Siemens Energy AG","url":"https://www.gem.wiki/Abuja_power_station","_label":"Abuja power station","_status_group":"development","_states":["Abuja Federal Capital Territory"]},"geometry":{"type":"Point","coordinates":[7.07683,8.9397]}},{"type":"Feature","properties":{"project":"Abuja power station","unit":"2","province":"Federal Capital Territory","status":"pre-construction","fuel_type":"natural gas","capacity":450.0,"technology":"CC","start_year":2037.0,"owner":"NNPC Ltd ; General Electric Co; Siemens Energy AG","url":"https://www.gem.wiki/Abuja_power_station","_label":"Abuja power station","_status_group":"development","_states":["Abuja Federal Capital Territory"]},"geometry":{"type":"Point","coordinates":[7.07683,8.9397]}},{"type":"Feature","properties":{"project":"Abuja power station","unit":"3","province":"Federal Capital Territory","status":"pre-construction","fuel_type":"natural gas","capacity":450.0,"technology":"CC","start_year":2037.0,"owner":"NNPC Ltd ; General Electric Co; Siemens Energy AG","url":"https://www.gem.wiki/Abuja_power_station","_label":"Abuja power station","_status_group":"development","_states":["Abuja Federal Capital Territory"]},"geometry":{"type":"Point","coordinates":[7.07683,8.9397]}},{"type":"Feature","properties":{"project":"Afam (FIPL) power station","unit":"1","province":"Rivers","status":"operating","fuel_type":"natural gas","capacity":180.0,"technology":"GT","start_year":2011.0,"owner":"First Independent Power Limited (FIPL)","url":"https://www.gem.wiki/Afam_(FIPL)_power_station","_label":"Afam (FIPL) power station","_status_group":"operating","_year":2011,"_year_label":"Start year","_states":["Rivers"]},"geometry":{"type":"Point","coordinates":[7.22653,4.83499]}},{"type":"Feature","properties":{"project":"Afam (FIPL) power station","unit":"2","province":"Rivers","status":"operating","fuel_type":"natural gas","capacity":180.0,"technology":"GT","start_year":2021.0,"owner":"First Independent Power Limited (FIPL)","url":"https://www.gem.wiki/Afam_(FIPL)_power_station","_label":"Afam (FIPL) power station","_status_group":"operating","_year":2021,"_year_label":"Start year","_states":["Rivers"]},"geometry":{"type":"Point","coordinates":[7.22653,4.83499]}},{"type":"Feature","properties":{"project":"Afam IV power station","unit":"1","province":"Rivers","status":"operating","fuel_type":"natural gas","capacity":75.0,"technology":"GT","start_year":1982.0,"owner":"Transcorp Power Ltd","url":"https://www.gem.wiki/Afam_IV_power_station","_label":"Afam IV power station","_status_group":"operating","_year":1982,"_year_label":"Start year","_states":["Rivers"]},"geometry":{"type":"Point","coordinates":[7.2535,4.85176]}},{"type":"Feature","properties":{"project":"Afam IV power station","unit":"2","province":"Rivers","status":"operating","fuel_type":"natural gas","capacity":75.0,"technology":"GT","start_year":1982.0,"owner":"Transcorp Power Ltd","url":"https://www.gem.wiki/Afam_IV_power_station","_label":"Afam IV power station","_status_group":"operating","_year":1982,"_year_label":"Start year","_states":["Rivers"]},"geometry":{"type":"Point","coordinates":[7.2535,4.85176]}},{"type":"Feature","properties":{"project":"Afam IV power station","unit":"3","province":"Rivers","status":"operating","fuel_type":"natural gas","capacity":75.0,"technology":"GT","start_year":1982.0,"owner":"Transcorp Power Ltd","url":"https://www.gem.wiki/Afam_IV_power_station","_label":"Afam IV power station","_status_group":"operating","_year":1982,"_year_label":"Start year","_states":["Rivers"]},"geometry":{"type":"Point","coordinates":[7.2535,4.85176]}},{"type":"Feature","properties":{"project":"Afam IV power station","unit":"4","province":"Rivers","status":"operating","fuel_type":"natural gas","capacity":75.0,"technology":"GT","start_year":1982.0,"owner":"Transcorp Power Ltd","url":"https://www.gem.wiki/Afam_IV_power_station","_label":"Afam IV power station","_status_group":"operating","_year":1982,"_year_label":"Start year","_states":["Rivers"]},"geometry":{"type":"Point","coordinates":[7.2535,4.85176]}},{"type":"Feature","properties":{"project":"Afam IV power station","unit":"5","province":"Rivers","status":"operating","fuel_type":"natural gas","capacity":75.0,"technology":"GT","start_year":1982.0,"owner":"Transcorp Power Ltd","url":"https://www.gem.wiki/Afam_IV_power_station","_label":"Afam IV power station","_status_group":"operating","_year":1982,"_year_label":"Start year","_states":["Rivers"]},"geometry":{"type":"Point","coordinates":[7.2535,4.85176]}},{"type":"Feature","properties":{"project":"Afam IV power station","unit":"6","province":"Rivers","status":"operating","fuel_type":"natural gas","capacity":75.0,"technology":"GT","start_year":1982.0,"owner":"Transcorp Power Ltd","url":"https://www.gem.wiki/Afam_IV_power_station","_label":"Afam IV power station","_status_group":"operating","_year":1982,"_year_label":"Start year","_states":["Rivers"]},"geometry":{"type":"Point","coordinates":[7.2535,4.85176]}},{"type":"Feature","properties":{"project":"Afam V power station","unit":"1","province":"Rivers","status":"operating","fuel_type":"natural gas","capacity":138.0,"technology":"GT","start_year":2002.0,"owner":"Transcorp Power Ltd","url":"https://www.gem.wiki/Afam_V_power_station","_label":"Afam V power station","_status_group":"operating","_year":2002,"_year_label":"Start year","_states":["Rivers"]},"geometry":{"type":"Point","coordinates":[7.2535,4.85176]}},{"type":"Feature","properties":{"project":"Afam V power station","unit":"2","province":"Rivers","status":"operating","fuel_type":"natural gas","capacity":138.0,"technology":"GT","start_year":2002.0,"owner":"Transcorp Power Ltd","url":"https://www.gem.wiki/Afam_V_power_station","_label":"Afam V power station","_status_group":"operating","_year":2002,"_year_label":"Start year","_states":["Rivers"]},"geometry":{"type":"Point","coordinates":[7.2535,4.85176]}},{"type":"Feature","properties":{"project":"Afam VI power station","unit":"CC1","province":"Rivers","status":"operating","fuel_type":"natural gas","capacity":650.0,"technology":"CC","start_year":2008.0,"owner":"The Shell Petroleum Development Company of Nigeria Ltd","url":"https://www.gem.wiki/Afam_VI_power_station","_label":"Afam VI power station","_status_group":"operating","_year":2008,"_year_label":"Start year","_states":["Rivers"]},"geometry":{"type":"Point","coordinates":[7.25693,4.84953]}},{"type":"Feature","properties":{"project":"Agura power station","unit":"1-1","province":"Delta","status":"announced","fuel_type":"natural gas","capacity":165.0,"technology":"GT","start_year":2030.0,"owner":"Agura Independent Power Project JV JV","url":"https://www.gem.wiki/Agura_power_station","_label":"Agura power station","_status_group":"proposed","_states":["Delta"]},"geometry":{"type":"Point","coordinates":[5.20696,5.50861]}},{"type":"Feature","properties":{"project":"Agura power station","unit":"1-2","province":"Delta","status":"announced","fuel_type":"natural gas","capacity":165.0,"technology":"GT","start_year":2030.0,"owner":"Agura Independent Power Project JV JV","url":"https://www.gem.wiki/Agura_power_station","_label":"Agura power station","_status_group":"proposed","_states":["Delta"]},"geometry":{"type":"Point","coordinates":[5.20696,5.50861]}},{"type":"Feature","properties":{"project":"Agura power station","unit":"2","province":"Delta","status":"announced","fuel_type":"natural gas","capacity":165.0,"technology":"GT","start_year":2030.0,"owner":"Agura Independent Power Project JV JV","url":"https://www.gem.wiki/Agura_power_station","_label":"Agura power station","_status_group":"proposed","_states":["Delta"]},"geometry":{"type":"Point","coordinates":[5.20696,5.50861]}},{"type":"Feature","properties":{"project":"Agura power station","unit":"3-1","province":"Delta","status":"announced","fuel_type":"waste heat from natural gas","capacity":75.0,"technology":"ST","start_year":2030.0,"owner":"Agura Independent Power Project JV JV","url":"https://www.gem.wiki/Agura_power_station","_label":"Agura power station","_status_group":"proposed","_states":["Delta"]},"geometry":{"type":"Point","coordinates":[5.20696,5.50861]}},{"type":"Feature","properties":{"project":"Agura power station","unit":"3-2","province":"Delta","status":"announced","fuel_type":"waste heat from natural gas","capacity":75.0,"technology":"ST","start_year":2030.0,"owner":"Agura Independent Power Project JV JV","url":"https://www.gem.wiki/Agura_power_station","_label":"Agura power station","_status_group":"proposed","_states":["Delta"]},"geometry":{"type":"Point","coordinates":[5.20696,5.50861]}},{"type":"Feature","properties":{"project":"Agura power station","unit":"3-3","province":"Delta","status":"announced","fuel_type":"waste heat from natural gas","capacity":75.0,"technology":"ST","start_year":2030.0,"owner":"Agura Independent Power Project JV JV","url":"https://www.gem.wiki/Agura_power_station","_label":"Agura power station","_status_group":"proposed","_states":["Delta"]},"geometry":{"type":"Point","coordinates":[5.20696,5.50861]}},{"type":"Feature","properties":{"project":"Alaoji power station","unit":"1","province":"Aba","status":"operating","fuel_type":"natural gas","capacity":124.0,"technology":"GT","start_year":2015.0,"owner":"Alaoji Generation Co Ltd","url":"https://www.gem.wiki/Alaoji_power_station","_label":"Alaoji power station","_status_group":"operating","_year":2015,"_year_label":"Start year","_states":["Abia"]},"geometry":{"type":"Point","coordinates":[7.32181,5.06677]}},{"type":"Feature","properties":{"project":"Alaoji power station","unit":"2","province":"Aba","status":"operating","fuel_type":"natural gas","capacity":124.0,"technology":"GT","start_year":2015.0,"owner":"Alaoji Generation Co Ltd","url":"https://www.gem.wiki/Alaoji_power_station","_label":"Alaoji power station","_status_group":"operating","_year":2015,"_year_label":"Start year","_states":["Abia"]},"geometry":{"type":"Point","coordinates":[7.32181,5.06677]}},{"type":"Feature","properties":{"project":"Alaoji power station","unit":"3","province":"Aba","status":"operating","fuel_type":"natural gas","capacity":124.0,"technology":"GT","start_year":2015.0,"owner":"Alaoji Generation Co Ltd","url":"https://www.gem.wiki/Alaoji_power_station","_label":"Alaoji power station","_status_group":"operating","_year":2015,"_year_label":"Start year","_states":["Abia"]},"geometry":{"type":"Point","coordinates":[7.32181,5.06677]}},{"type":"Feature","properties":{"project":"Alaoji power station","unit":"4","province":"Aba","status":"operating","fuel_type":"natural gas","capacity":124.0,"technology":"GT","start_year":2015.0,"owner":"Alaoji Generation Co Ltd","url":"https://www.gem.wiki/Alaoji_power_station","_label":"Alaoji power station","_status_group":"operating","_year":2015,"_year_label":"Start year","_states":["Abia"]},"geometry":{"type":"Point","coordinates":[7.32181,5.06677]}},{"type":"Feature","properties":{"project":"Alaoji power station","unit":"5","province":"Aba","status":"construction","fuel_type":"waste heat from natural gas","capacity":286.0,"technology":"ST","start_year":2025.0,"owner":"Alaoji Generation Co Ltd","url":"https://www.gem.wiki/Alaoji_power_station","_label":"Alaoji power station","_status_group":"development","_year":2025,"_year_label":"Start year","_states":["Abia"]},"geometry":{"type":"Point","coordinates":[7.32181,5.06677]}},{"type":"Feature","properties":{"project":"Alaoji power station","unit":"6","province":"Aba","status":"construction","fuel_type":"waste heat from natural gas","capacity":286.0,"technology":"ST","start_year":2025.0,"owner":"Alaoji Generation Co Ltd","url":"https://www.gem.wiki/Alaoji_power_station","_label":"Alaoji power station","_status_group":"development","_year":2025,"_year_label":"Start year","_states":["Abia"]},"geometry":{"type":"Point","coordinates":[7.32181,5.06677]}},{"type":"Feature","properties":{"project":"Anambra power station","unit":"1","province":"Anambra","status":"shelved","fuel_type":"natural gas","capacity":124.0,"technology":"GT","owner":"Anambra Gas Fired IPP Co Ltd","url":"https://www.gem.wiki/Anambra_power_station","_label":"Anambra power station","_status_group":"inactive","_states":["Anambra"]},"geometry":{"type":"Point","coordinates":[6.80116,6.12984]}},{"type":"Feature","properties":{"project":"Asco power station","unit":"1","status":"operating","fuel_type":"natural gas","capacity":55.0,"technology":"ST","start_year":2021.0,"url":"https://www.gem.wiki/Asco_power_station","_label":"Asco power station","_status_group":"operating","_year":2021,"_year_label":"Start year","_states":["Kogi"]},"geometry":{"type":"Point","coordinates":[6.56099,7.52256]}},{"type":"Feature","properties":{"project":"Asco power station","unit":"2","status":"operating","fuel_type":"natural gas","capacity":55.0,"technology":"ST","start_year":2021.0,"url":"https://www.gem.wiki/Asco_power_station","_label":"Asco power station","_status_group":"operating","_year":2021,"_year_label":"Start year","_states":["Kogi"]},"geometry":{"type":"Point","coordinates":[6.56099,7.52256]}},{"type":"Feature","properties":{"project":"Azikel power station","unit":"2-1","province":"Bayelsa","status":"announced","fuel_type":"natural gas, fuel oil","capacity":125.0,"technology":"GT","start_year":2030.0,"owner":"Azikel Power Ltd","url":"https://www.gem.wiki/Azikel_power_station","_label":"Azikel power station","_status_group":"proposed","_states":["Bayelsa"]},"geometry":{"type":"Point","coordinates":[6.29866,5.01899]}},{"type":"Feature","properties":{"project":"Azikel power station","unit":"2-2","province":"Bayelsa","status":"announced","fuel_type":"natural gas, fuel oil","capacity":125.0,"technology":"GT","start_year":2030.0,"owner":"Azikel Power Ltd","url":"https://www.gem.wiki/Azikel_power_station","_label":"Azikel power station","_status_group":"proposed","_states":["Bayelsa"]},"geometry":{"type":"Point","coordinates":[6.29866,5.01899]}},{"type":"Feature","properties":{"project":"Azikel power station","unit":"3-1","province":"Bayelsa","status":"announced","fuel_type":"waste heat from natural gas","capacity":38.0,"technology":"ST","start_year":2030.0,"owner":"Azikel Power Ltd","url":"https://www.gem.wiki/Azikel_power_station","_label":"Azikel power station","_status_group":"proposed","_states":["Bayelsa"]},"geometry":{"type":"Point","coordinates":[6.29866,5.01899]}},{"type":"Feature","properties":{"project":"Azikel power station","unit":"3-2","province":"Bayelsa","status":"announced","fuel_type":"waste heat from natural gas","capacity":125.0,"technology":"ST","start_year":2030.0,"owner":"Azikel Power Ltd","url":"https://www.gem.wiki/Azikel_power_station","_label":"Azikel power station","_status_group":"proposed","_states":["Bayelsa"]},"geometry":{"type":"Point","coordinates":[6.29866,5.01899]}},{"type":"Feature","properties":{"project":"Azura-Edo IPP power station","unit":"1","province":"Edo","status":"operating","fuel_type":"natural gas","capacity":154.0,"technology":"GT","start_year":2018.0,"owner":"Azura Power West Africa Ltd","url":"https://www.gem.wiki/Azura-Edo_IPP_power_station","_label":"Azura-Edo IPP power station","_status_group":"operating","_year":2018,"_year_label":"Start year","_states":["Edo"]},"geometry":{"type":"Point","coordinates":[5.68062,6.40988]}},{"type":"Feature","properties":{"project":"Azura-Edo IPP power station","unit":"2","province":"Edo","status":"operating","fuel_type":"natural gas","capacity":154.0,"technology":"GT","start_year":2018.0,"owner":"Azura Power West Africa Ltd","url":"https://www.gem.wiki/Azura-Edo_IPP_power_station","_label":"Azura-Edo IPP power station","_status_group":"operating","_year":2018,"_year_label":"Start year","_states":["Edo"]},"geometry":{"type":"Point","coordinates":[5.68062,6.40988]}},{"type":"Feature","properties":{"project":"Azura-Edo IPP power station","unit":"3","province":"Edo","status":"operating","fuel_type":"natural gas","capacity":154.0,"technology":"GT","start_year":2018.0,"owner":"Azura Power West Africa Ltd","url":"https://www.gem.wiki/Azura-Edo_IPP_power_station","_label":"Azura-Edo IPP power station","_status_group":"operating","_year":2018,"_year_label":"Start year","_states":["Edo"]},"geometry":{"type":"Point","coordinates":[5.68062,6.40988]}},{"type":"Feature","properties":{"project":"Bonny Island LNG power plant","unit":"5","province":"Rivers State","status":"operating","fuel_type":"liquefied natural gas","capacity":90.0,"technology":"GT","owner":"Nigeria LNG Ltd","url":"https://www.gem.wiki/Bonny_Island_LNG_power_plant","_label":"Bonny Island LNG power plant","_status_group":"operating","_states":["Rivers"]},"geometry":{"type":"Point","coordinates":[7.16157,4.41836]}},{"type":"Feature","properties":{"project":"Bonny Island LNG power plant","unit":"6","province":"Rivers State","status":"operating","fuel_type":"liquefied natural gas","capacity":90.0,"technology":"GT","owner":"Nigeria LNG Ltd","url":"https://www.gem.wiki/Bonny_Island_LNG_power_plant","_label":"Bonny Island LNG power plant","_status_group":"operating","_states":["Rivers"]},"geometry":{"type":"Point","coordinates":[7.16157,4.41836]}},{"type":"Feature","properties":{"project":"Bresson power station","unit":"1","province":"Lagos","status":"announced","fuel_type":"natural gas","capacity":150.0,"technology":"GT","start_year":2030.0,"owner":"Bresson A.S Nigeria Ltd","url":"https://www.gem.wiki/Bresson_power_station","_label":"Bresson power station","_status_group":"proposed","_states":["Lagos"]},"geometry":{"type":"Point","coordinates":[3.31893,6.53843]}},{"type":"Feature","properties":{"project":"Bresson power station","unit":"2","province":"Lagos","status":"announced","fuel_type":"natural gas","capacity":150.0,"technology":"GT","start_year":2030.0,"owner":"Bresson A.S Nigeria Ltd","url":"https://www.gem.wiki/Bresson_power_station","_label":"Bresson power station","_status_group":"proposed","_states":["Lagos"]},"geometry":{"type":"Point","coordinates":[3.31893,6.53843]}},{"type":"Feature","properties":{"project":"Bresson power station","unit":"3","province":"Lagos","status":"announced","fuel_type":"natural gas","capacity":150.0,"technology":"GT","start_year":2030.0,"owner":"Bresson A.S Nigeria Ltd","url":"https://www.gem.wiki/Bresson_power_station","_label":"Bresson power station","_status_group":"proposed","_states":["Lagos"]},"geometry":{"type":"Point","coordinates":[3.31893,6.53843]}},{"type":"Feature","properties":{"project":"Calabar power station","unit":"1","province":"Cross River","status":"operating","fuel_type":"natural gas","capacity":113.0,"technology":"GT","start_year":2015.0,"owner":"Calabar Generation Co Ltd","url":"https://www.gem.wiki/Calabar_power_station","_label":"Calabar power station","_status_group":"operating","_year":2015,"_year_label":"Start year","_states":["Cross River"]},"geometry":{"type":"Point","coordinates":[8.27257,5.1897]}},{"type":"Feature","properties":{"project":"Calabar power station","unit":"2","province":"Cross River","status":"operating","fuel_type":"natural gas","capacity":113.0,"technology":"GT","start_year":2015.0,"owner":"Calabar Generation Co Ltd","url":"https://www.gem.wiki/Calabar_power_station","_label":"Calabar power station","_status_group":"operating","_year":2015,"_year_label":"Start year","_states":["Cross River"]},"geometry":{"type":"Point","coordinates":[8.27257,5.1897]}},{"type":"Feature","properties":{"project":"Calabar power station","unit":"2-1","province":"Cross River","status":"announced","fuel_type":"waste heat from natural gas","capacity":127.0,"technology":"ST","start_year":2029.0,"owner":"Calabar Generation Co Ltd","url":"https://www.gem.wiki/Calabar_power_station","_label":"Calabar power station","_status_group":"proposed","_states":["Cross River"]},"geometry":{"type":"Point","coordinates":[8.27257,5.1897]}},{"type":"Feature","properties":{"project":"Calabar power station","unit":"2-2","province":"Cross River","status":"announced","fuel_type":"waste heat from natural gas","capacity":127.0,"technology":"ST","start_year":2029.0,"owner":"Calabar Generation Co Ltd","url":"https://www.gem.wiki/Calabar_power_station","_label":"Calabar power station","_status_group":"proposed","_states":["Cross River"]},"geometry":{"type":"Point","coordinates":[8.27257,5.1897]}},{"type":"Feature","properties":{"project":"Calabar power station","unit":"3","province":"Cross River","status":"operating","fuel_type":"natural gas","capacity":113.0,"technology":"GT","start_year":2015.0,"owner":"Calabar Generation Co Ltd","url":"https://www.gem.wiki/Calabar_power_station","_label":"Calabar power station","_status_group":"operating","_year":2015,"_year_label":"Start year","_states":["Cross River"]},"geometry":{"type":"Point","coordinates":[8.27257,5.1897]}},{"type":"Feature","properties":{"project":"Calabar power station","unit":"3-1","province":"Cross River","status":"announced","fuel_type":"natural gas","capacity":141.0,"technology":"GT","start_year":2030.0,"owner":"Calabar Generation Co Ltd","url":"https://www.gem.wiki/Calabar_power_station","_label":"Calabar power station","_status_group":"proposed","_states":["Cross River"]},"geometry":{"type":"Point","coordinates":[8.27257,5.1897]}},{"type":"Feature","properties":{"project":"Calabar power station","unit":"3-2","province":"Cross River","status":"announced","fuel_type":"natural gas","capacity":141.0,"technology":"GT","start_year":2030.0,"owner":"Calabar Generation Co Ltd","url":"https://www.gem.wiki/Calabar_power_station","_label":"Calabar power station","_status_group":"proposed","_states":["Cross River"]},"geometry":{"type":"Point","coordinates":[8.27257,5.1897]}},{"type":"Feature","properties":{"project":"Calabar power station","unit":"3-3","province":"Cross River","status":"announced","fuel_type":"natural gas","capacity":141.0,"technology":"GT","start_year":2030.0,"owner":"Calabar Generation Co Ltd","url":"https://www.gem.wiki/Calabar_power_station","_label":"Calabar power station","_status_group":"proposed","_states":["Cross River"]},"geometry":{"type":"Point","coordinates":[8.27257,5.1897]}},{"type":"Feature","properties":{"project":"Calabar power station","unit":"3-4","province":"Cross River","status":"announced","fuel_type":"natural gas","capacity":141.0,"technology":"GT","start_year":2030.0,"owner":"Calabar Generation Co Ltd","url":"https://www.gem.wiki/Calabar_power_station","_label":"Calabar power station","_status_group":"proposed","_states":["Cross River"]},"geometry":{"type":"Point","coordinates":[8.27257,5.1897]}},{"type":"Feature","properties":{"project":"Calabar power station","unit":"4","province":"Cross River","status":"operating","fuel_type":"natural gas","capacity":113.0,"technology":"GT","start_year":2015.0,"owner":"Calabar Generation Co Ltd","url":"https://www.gem.wiki/Calabar_power_station","_label":"Calabar power station","_status_group":"operating","_year":2015,"_year_label":"Start year","_states":["Cross River"]},"geometry":{"type":"Point","coordinates":[8.27257,5.1897]}},{"type":"Feature","properties":{"project":"Calabar power station","unit":"5","province":"Cross River","status":"operating","fuel_type":"natural gas","capacity":113.0,"technology":"GT","start_year":2015.0,"owner":"Calabar Generation Co Ltd","url":"https://www.gem.wiki/Calabar_power_station","_label":"Calabar power station","_status_group":"operating","_year":2015,"_year_label":"Start year","_states":["Cross River"]},"geometry":{"type":"Point","coordinates":[8.27257,5.1897]}},{"type":"Feature","properties":{"project":"Delta III 2+ power station","unit":"1","province":"Delta","status":"announced","fuel_type":"natural gas","capacity":143.0,"technology":"GT","start_year":2023.0,"owner":"Transcorp Power Ltd","url":"https://www.gem.wiki/Delta_III_2+_power_station","_label":"Delta III 2+ power station","_status_group":"proposed","_year":2023,"_year_label":"Start year","_states":["Delta"]},"geometry":{"type":"Point","coordinates":[5.91591,5.54131]}},{"type":"Feature","properties":{"project":"Delta IV 2+ power station","unit":"1","province":"Delta","status":"announced","fuel_type":"natural gas","capacity":148.5,"technology":"GT","start_year":2023.0,"owner":"Transcorp Power Ltd","url":"https://www.gem.wiki/Delta_IV_2+_power_station","_label":"Delta IV 2+ power station","_status_group":"proposed","_year":2023,"_year_label":"Start year","_states":["Delta"]},"geometry":{"type":"Point","coordinates":[5.91591,5.54131]}},{"type":"Feature","properties":{"project":"Delta IV 2+ power station","unit":"2","province":"Delta","status":"announced","fuel_type":"natural gas","capacity":148.5,"technology":"GT","start_year":2023.0,"owner":"Transcorp Power Ltd","url":"https://www.gem.wiki/Delta_IV_2+_power_station","_label":"Delta IV 2+ power station","_status_group":"proposed","_year":2023,"_year_label":"Start year","_states":["Delta"]},"geometry":{"type":"Point","coordinates":[5.91591,5.54131]}},{"type":"Feature","properties":{"project":"Delta IV 2+ power station","unit":"3","province":"Delta","status":"announced","fuel_type":"natural gas","capacity":148.5,"technology":"GT","start_year":2023.0,"owner":"Transcorp Power Ltd","url":"https://www.gem.wiki/Delta_IV_2+_power_station","_label":"Delta IV 2+ power station","_status_group":"proposed","_year":2023,"_year_label":"Start year","_states":["Delta"]},"geometry":{"type":"Point","coordinates":[5.91591,5.54131]}},{"type":"Feature","properties":{"project":"Delta IV 2+ power station","unit":"4","province":"Delta","status":"announced","fuel_type":"natural gas","capacity":148.5,"technology":"GT","start_year":2023.0,"owner":"Transcorp Power Ltd","url":"https://www.gem.wiki/Delta_IV_2+_power_station","_label":"Delta IV 2+ power station","_status_group":"proposed","_year":2023,"_year_label":"Start year","_states":["Delta"]},"geometry":{"type":"Point","coordinates":[5.91591,5.54131]}},{"type":"Feature","properties":{"project":"Egbema power station","unit":"1","province":"Imo","status":"construction","fuel_type":"natural gas","capacity":113.0,"technology":"GT","start_year":2024.0,"owner":"Egbema Generation Co Ltd","url":"https://www.gem.wiki/Egbema_power_station","_label":"Egbema power station","_status_group":"development","_year":2024,"_year_label":"Start year","_states":["Imo"]},"geometry":{"type":"Point","coordinates":[6.73831,5.56558]}},{"type":"Feature","properties":{"project":"Egbema power station","unit":"2","province":"Imo","status":"construction","fuel_type":"natural gas","capacity":113.0,"technology":"GT","start_year":2024.0,"owner":"Egbema Generation Co Ltd","url":"https://www.gem.wiki/Egbema_power_station","_label":"Egbema power station","_status_group":"development","_year":2024,"_year_label":"Start year","_states":["Imo"]},"geometry":{"type":"Point","coordinates":[6.73831,5.56558]}},{"type":"Feature","properties":{"project":"Egbema power station","unit":"2-1","province":"Imo","status":"announced","fuel_type":"waste heat from natural gas","capacity":127.0,"technology":"ST","start_year":2030.0,"owner":"Egbema Generation Co Ltd","url":"https://www.gem.wiki/Egbema_power_station","_label":"Egbema power station","_status_group":"proposed","_states":["Imo"]},"geometry":{"type":"Point","coordinates":[6.73831,5.56558]}},{"type":"Feature","properties":{"project":"Egbema power station","unit":"3","province":"Imo","status":"construction","fuel_type":"natural gas","capacity":113.0,"technology":"GT","start_year":2024.0,"owner":"Egbema Generation Co Ltd","url":"https://www.gem.wiki/Egbema_power_station","_label":"Egbema power station","_status_group":"development","_year":2024,"_year_label":"Start year","_states":["Imo"]},"geometry":{"type":"Point","coordinates":[6.73831,5.56558]}},{"type":"Feature","properties":{"project":"Egbin power station","unit":"1","province":"Lagos","status":"operating","fuel_type":"natural gas","capacity":220.0,"technology":"ST","start_year":1985.0,"owner":"Egbin Power PLC","url":"https://www.gem.wiki/Egbin_power_station","_label":"Egbin power station","_status_group":"operating","_year":1985,"_year_label":"Start year","_states":["Lagos"]},"geometry":{"type":"Point","coordinates":[3.61508,6.56371]}},{"type":"Feature","properties":{"project":"Egbin power station","unit":"2","province":"Lagos","status":"operating","fuel_type":"natural gas","capacity":220.0,"technology":"ST","start_year":1985.0,"owner":"Egbin Power PLC","url":"https://www.gem.wiki/Egbin_power_station","_label":"Egbin power station","_status_group":"operating","_year":1985,"_year_label":"Start year","_states":["Lagos"]},"geometry":{"type":"Point","coordinates":[3.61508,6.56371]}},{"type":"Feature","properties":{"project":"Egbin power station","unit":"3","province":"Lagos","status":"operating","fuel_type":"natural gas","capacity":220.0,"technology":"ST","start_year":1985.0,"owner":"Egbin Power PLC","url":"https://www.gem.wiki/Egbin_power_station","_label":"Egbin power station","_status_group":"operating","_year":1985,"_year_label":"Start year","_states":["Lagos"]},"geometry":{"type":"Point","coordinates":[3.61508,6.56371]}},{"type":"Feature","properties":{"project":"Egbin power station","unit":"4","province":"Lagos","status":"operating","fuel_type":"natural gas","capacity":220.0,"technology":"ST","start_year":1985.0,"owner":"Egbin Power PLC","url":"https://www.gem.wiki/Egbin_power_station","_label":"Egbin power station","_status_group":"operating","_year":1985,"_year_label":"Start year","_states":["Lagos"]},"geometry":{"type":"Point","coordinates":[3.61508,6.56371]}},{"type":"Feature","properties":{"project":"Egbin power station","unit":"5","province":"Lagos","status":"operating","fuel_type":"natural gas","capacity":220.0,"technology":"ST","start_year":1985.0,"owner":"Egbin Power PLC","url":"https://www.gem.wiki/Egbin_power_station","_label":"Egbin power station","_status_group":"operating","_year":1985,"_year_label":"Start year","_states":["Lagos"]},"geometry":{"type":"Point","coordinates":[3.61508,6.56371]}},{"type":"Feature","properties":{"project":"Egbin power station","unit":"6","province":"Lagos","status":"operating","fuel_type":"natural gas","capacity":220.0,"technology":"ST","start_year":1985.0,"owner":"Egbin Power PLC","url":"https://www.gem.wiki/Egbin_power_station","_label":"Egbin power station","_status_group":"operating","_year":1985,"_year_label":"Start year","_states":["Lagos"]},"geometry":{"type":"Point","coordinates":[3.61508,6.56371]}},{"type":"Feature","properties":{"project":"Egbin power station","unit":"B","province":"Lagos","status":"announced","fuel_type":"liquefied natural gas","capacity":1800.0,"technology":"GT","start_year":2025.0,"owner":"Egbin Power PLC","url":"https://www.gem.wiki/Egbin_power_station","_label":"Egbin power station","_status_group":"proposed","_year":2025,"_year_label":"Start year","_states":["Lagos"]},"geometry":{"type":"Point","coordinates":[3.61508,6.56371]}},{"type":"Feature","properties":{"project":"Ekrokpe-Erkrejegbe power station","unit":"1","province":"Delta","status":"cancelled","fuel_type":"natural gas","capacity":200.0,"technology":"CC","owner":"Onose TBEA Energy","url":"https://www.gem.wiki/Ekrokpe-Erkrejegbe_power_station","_label":"Ekrokpe-Erkrejegbe power station","_status_group":"inactive","_states":["Delta"]},"geometry":{"type":"Point","coordinates":[5.90385,5.51769]}},{"type":"Feature","properties":{"project":"Ekrokpe-Erkrejegbe power station","unit":"2","province":"Delta","status":"cancelled","fuel_type":"natural gas","capacity":200.0,"technology":"CC","owner":"Onose TBEA Energy","url":"https://www.gem.wiki/Ekrokpe-Erkrejegbe_power_station","_label":"Ekrokpe-Erkrejegbe power station","_status_group":"inactive","_states":["Delta"]},"geometry":{"type":"Point","coordinates":[5.90385,5.51769]}},{"type":"Feature","properties":{"project":"Ethiope power station","unit":"1","province":"Edo","status":"announced","fuel_type":"natural gas","capacity":500.0,"technology":"CC","start_year":2023.0,"owner":"Ethiope Energy Ltd","url":"https://www.gem.wiki/Ethiope_power_station","_label":"Ethiope power station","_status_group":"proposed","_year":2023,"_year_label":"Start year","_states":["Edo"]},"geometry":{"type":"Point","coordinates":[5.64693,6.37344]}},{"type":"Feature","properties":{"project":"Ethiope power station","unit":"2","province":"Edo","status":"announced","fuel_type":"natural gas","capacity":500.0,"technology":"CC","start_year":2024.0,"owner":"Ethiope Energy Ltd","url":"https://www.gem.wiki/Ethiope_power_station","_label":"Ethiope power station","_status_group":"proposed","_year":2024,"_year_label":"Start year","_states":["Edo"]},"geometry":{"type":"Point","coordinates":[5.64693,6.37344]}},{"type":"Feature","properties":{"project":"Gbarain Gas Plant power station","unit":"1","province":"Bayelsa","status":"operating","fuel_type":"natural gas","capacity":126.0,"technology":"GT","start_year":2016.0,"owner":"Gbarain Generation Co Ltd","url":"https://www.gem.wiki/Gbarain_Gas_Plant_power_station","_label":"Gbarain Gas Plant power station","_status_group":"operating","_year":2016,"_year_label":"Start year","_states":["Bayelsa"]},"geometry":{"type":"Point","coordinates":[6.30157,5.03107]}},{"type":"Feature","properties":{"project":"Gbarain Gas Plant power station","unit":"1-1","province":"Bayelsa","status":"announced","fuel_type":"waste heat from natural gas","capacity":115.0,"technology":"ST","start_year":2029.0,"owner":"Gbarain Generation Co Ltd","url":"https://www.gem.wiki/Gbarain_Gas_Plant_power_station","_label":"Gbarain Gas Plant power station","_status_group":"proposed","_states":["Bayelsa"]},"geometry":{"type":"Point","coordinates":[6.30157,5.03107]}},{"type":"Feature","properties":{"project":"Gbarain Gas Plant power station","unit":"2","province":"Bayelsa","status":"operating","fuel_type":"natural gas","capacity":126.0,"technology":"GT","start_year":2020.0,"owner":"Gbarain Generation Co Ltd","url":"https://www.gem.wiki/Gbarain_Gas_Plant_power_station","_label":"Gbarain Gas Plant power station","_status_group":"operating","_year":2020,"_year_label":"Start year","_states":["Bayelsa"]},"geometry":{"type":"Point","coordinates":[6.30157,5.03107]}},{"type":"Feature","properties":{"project":"Geregu I power station","unit":"1","province":"Koji","status":"operating","fuel_type":"natural gas","capacity":145.0,"technology":"GT","start_year":2007.0,"owner":"Amperion Power Distribution Co Ltd","url":"https://www.gem.wiki/Geregu_I_power_station","_label":"Geregu I power station","_status_group":"operating","_year":2007,"_year_label":"Start year","_states":["Kogi"]},"geometry":{"type":"Point","coordinates":[6.65913,7.46967]}},{"type":"Feature","properties":{"project":"Geregu I power station","unit":"2","province":"Koji","status":"operating","fuel_type":"natural gas","capacity":145.0,"technology":"GT","start_year":2007.0,"owner":"Amperion Power Distribution Co Ltd","url":"https://www.gem.wiki/Geregu_I_power_station","_label":"Geregu I power station","_status_group":"operating","_year":2007,"_year_label":"Start year","_states":["Kogi"]},"geometry":{"type":"Point","coordinates":[6.65913,7.46967]}},{"type":"Feature","properties":{"project":"Geregu I power station","unit":"2-1","province":"Koji","status":"announced","fuel_type":"natural gas","capacity":138.0,"technology":"GT","start_year":2029.0,"owner":"Amperion Power Distribution Co Ltd","url":"https://www.gem.wiki/Geregu_I_power_station","_label":"Geregu I power station","_status_group":"proposed","_states":["Kogi"]},"geometry":{"type":"Point","coordinates":[6.65913,7.46967]}},{"type":"Feature","properties":{"project":"Geregu I power station","unit":"2-2","province":"Koji","status":"announced","fuel_type":"natural gas","capacity":138.0,"technology":"GT","start_year":2029.0,"owner":"Amperion Power Distribution Co Ltd","url":"https://www.gem.wiki/Geregu_I_power_station","_label":"Geregu I power station","_status_group":"proposed","_states":["Kogi"]},"geometry":{"type":"Point","coordinates":[6.65913,7.46967]}},{"type":"Feature","properties":{"project":"Geregu I power station","unit":"2-3","province":"Koji","status":"announced","fuel_type":"natural gas","capacity":138.0,"technology":"GT","start_year":2029.0,"owner":"Amperion Power Distribution Co Ltd","url":"https://www.gem.wiki/Geregu_I_power_station","_label":"Geregu I power station","_status_group":"proposed","_states":["Kogi"]},"geometry":{"type":"Point","coordinates":[6.65913,7.46967]}},{"type":"Feature","properties":{"project":"Geregu I power station","unit":"3","province":"Koji","status":"operating","fuel_type":"natural gas","capacity":145.0,"technology":"GT","start_year":2007.0,"owner":"Amperion Power Distribution Co Ltd","url":"https://www.gem.wiki/Geregu_I_power_station","_label":"Geregu I power station","_status_group":"operating","_year":2007,"_year_label":"Start year","_states":["Kogi"]},"geometry":{"type":"Point","coordinates":[6.65913,7.46967]}},{"type":"Feature","properties":{"project":"Geregu II power station","unit":"1","province":"Koji","status":"operating","fuel_type":"natural gas","capacity":169.0,"technology":"GT","start_year":2013.0,"owner":"Geregu Generation Co Ltd","url":"https://www.gem.wiki/Geregu_II_power_station","_label":"Geregu II power station","_status_group":"operating","_year":2013,"_year_label":"Start year","_states":["Kogi"]},"geometry":{"type":"Point","coordinates":[6.66025,7.47158]}},{"type":"Feature","properties":{"project":"Geregu II power station","unit":"1-1","province":"Koji","status":"announced","fuel_type":"natural gas","capacity":285.0,"technology":"CC","start_year":2027.0,"owner":"Geregu Generation Co Ltd","url":"https://www.gem.wiki/Geregu_II_power_station","_label":"Geregu II power station","_status_group":"proposed","_states":["Kogi"]},"geometry":{"type":"Point","coordinates":[6.66025,7.47158]}},{"type":"Feature","properties":{"project":"Geregu II power station","unit":"1-2","province":"Koji","status":"announced","fuel_type":"natural gas","capacity":444.0,"technology":"GT","start_year":2030.0,"owner":"Geregu Generation Co Ltd","url":"https://www.gem.wiki/Geregu_II_power_station","_label":"Geregu II power station","_status_group":"proposed","_states":["Kogi"]},"geometry":{"type":"Point","coordinates":[6.66025,7.47158]}},{"type":"Feature","properties":{"project":"Geregu II power station","unit":"2","province":"Koji","status":"operating","fuel_type":"natural gas","capacity":169.0,"technology":"GT","start_year":2013.0,"owner":"Geregu Generation Co Ltd","url":"https://www.gem.wiki/Geregu_II_power_station","_label":"Geregu II power station","_status_group":"operating","_year":2013,"_year_label":"Start year","_states":["Kogi"]},"geometry":{"type":"Point","coordinates":[6.66025,7.47158]}},{"type":"Feature","properties":{"project":"Geregu II power station","unit":"3","province":"Koji","status":"operating","fuel_type":"natural gas","capacity":169.0,"technology":"GT","start_year":2013.0,"owner":"Geregu Generation Co Ltd","url":"https://www.gem.wiki/Geregu_II_power_station","_label":"Geregu II power station","_status_group":"operating","_year":2013,"_year_label":"Start year","_states":["Kogi"]},"geometry":{"type":"Point","coordinates":[6.66025,7.47158]}},{"type":"Feature","properties":{"project":"Hudson power station","unit":"1","province":"Lagos","status":"announced","fuel_type":"natural gas","capacity":150.0,"technology":"GT","start_year":2030.0,"owner":"Hudson Power Station Ltd","url":"https://www.gem.wiki/Hudson_power_station","_label":"Hudson power station","_status_group":"proposed","_states":["Kano"]},"geometry":{"type":"Point","coordinates":[8.73224,11.88708]}},{"type":"Feature","properties":{"project":"Ibom power station","unit":"1-1","province":"Akwa Ibom","status":"operating","fuel_type":"natural gas","capacity":63.0,"technology":"GT","start_year":2009.0,"owner":"Ibom Power Co Ltd","url":"https://www.gem.wiki/Ibom_power_station","_label":"Ibom power station","_status_group":"operating","_year":2009,"_year_label":"Start year","_states":["Akwa Ibom"]},"geometry":{"type":"Point","coordinates":[7.56741,4.56464]}},{"type":"Feature","properties":{"project":"Ibom power station","unit":"1-2","province":"Akwa Ibom","status":"operating","fuel_type":"natural gas","capacity":63.0,"technology":"GT","start_year":2009.0,"owner":"Ibom Power Co Ltd","url":"https://www.gem.wiki/Ibom_power_station","_label":"Ibom power station","_status_group":"operating","_year":2009,"_year_label":"Start year","_states":["Akwa Ibom"]},"geometry":{"type":"Point","coordinates":[7.56741,4.56464]}},{"type":"Feature","properties":{"project":"Ibom power station","unit":"1-3","province":"Akwa Ibom","status":"operating","fuel_type":"natural gas","capacity":63.0,"technology":"GT","start_year":2009.0,"owner":"Ibom Power Co Ltd","url":"https://www.gem.wiki/Ibom_power_station","_label":"Ibom power station","_status_group":"operating","_year":2009,"_year_label":"Start year","_states":["Akwa Ibom"]},"geometry":{"type":"Point","coordinates":[7.56741,4.56464]}},{"type":"Feature","properties":{"project":"Ibom power station","unit":"2-1","province":"Akwa Ibom","status":"announced","fuel_type":"natural gas","capacity":500.0,"technology":"GT","owner":"Ibom Power Co Ltd","url":"https://www.gem.wiki/Ibom_power_station","_label":"Ibom power station","_status_group":"proposed","_states":["Akwa Ibom"]},"geometry":{"type":"Point","coordinates":[7.56741,4.56464]}},{"type":"Feature","properties":{"project":"Ihovbor power station","unit":"1","province":"Edo","status":"operating","fuel_type":"natural gas","capacity":113.0,"technology":"GT","start_year":2013.0,"owner":"Benin Generation Co Ltd","url":"https://www.gem.wiki/Ihovbor_power_station","_label":"Ihovbor power station","_status_group":"operating","_year":2013,"_year_label":"Start year","_states":["Edo"]},"geometry":{"type":"Point","coordinates":[5.68286,6.40678]}},{"type":"Feature","properties":{"project":"Ihovbor power station","unit":"2","province":"Edo","status":"operating","fuel_type":"natural gas","capacity":113.0,"technology":"GT","start_year":2013.0,"owner":"Benin Generation Co Ltd","url":"https://www.gem.wiki/Ihovbor_power_station","_label":"Ihovbor power station","_status_group":"operating","_year":2013,"_year_label":"Start year","_states":["Edo"]},"geometry":{"type":"Point","coordinates":[5.68286,6.40678]}},{"type":"Feature","properties":{"project":"Ihovbor power station","unit":"2-1","province":"Edo","status":"announced","fuel_type":"waste heat from natural gas","capacity":127.0,"technology":"ST","start_year":2030.0,"owner":"Benin Generation Co Ltd","url":"https://www.gem.wiki/Ihovbor_power_station","_label":"Ihovbor power station","_status_group":"proposed","_states":["Edo"]},"geometry":{"type":"Point","coordinates":[5.68286,6.40678]}},{"type":"Feature","properties":{"project":"Ihovbor power station","unit":"2-2","province":"Edo","status":"announced","fuel_type":"waste heat from natural gas","capacity":127.0,"technology":"ST","start_year":2030.0,"owner":"Benin Generation Co Ltd","url":"https://www.gem.wiki/Ihovbor_power_station","_label":"Ihovbor power station","_status_group":"proposed","_states":["Edo"]},"geometry":{"type":"Point","coordinates":[5.68286,6.40678]}},{"type":"Feature","properties":{"project":"Ihovbor power station","unit":"3","province":"Edo","status":"operating","fuel_type":"natural gas","capacity":113.0,"technology":"GT","start_year":2013.0,"owner":"Benin Generation Co Ltd","url":"https://www.gem.wiki/Ihovbor_power_station","_label":"Ihovbor power station","_status_group":"operating","_year":2013,"_year_label":"Start year","_states":["Edo"]},"geometry":{"type":"Point","coordinates":[5.68286,6.40678]}},{"type":"Feature","properties":{"project":"Ihovbor power station","unit":"4","province":"Edo","status":"operating","fuel_type":"natural gas","capacity":113.0,"technology":"GT","start_year":2013.0,"owner":"Benin Generation Co Ltd","url":"https://www.gem.wiki/Ihovbor_power_station","_label":"Ihovbor power station","_status_group":"operating","_year":2013,"_year_label":"Start year","_states":["Edo"]},"geometry":{"type":"Point","coordinates":[5.68286,6.40678]}},{"type":"Feature","properties":{"project":"Ikot Abasi power station","unit":"1","province":"Akwa Ibom","status":"announced","fuel_type":"natural gas","capacity":125.0,"technology":"GT","start_year":2025.0,"owner":"Ikot Abasi Power Project Ltd","url":"https://www.gem.wiki/Ikot_Abasi_power_station","_label":"Ikot Abasi power station","_status_group":"proposed","_year":2025,"_year_label":"Start year","_states":["Akwa Ibom"]},"geometry":{"type":"Point","coordinates":[7.5957,4.56668]}},{"type":"Feature","properties":{"project":"Ikot Abasi power station","unit":"2","province":"Akwa Ibom","status":"announced","fuel_type":"natural gas","capacity":125.0,"technology":"GT","start_year":2025.0,"owner":"Ikot Abasi Power Project Ltd","url":"https://www.gem.wiki/Ikot_Abasi_power_station","_label":"Ikot Abasi power station","_status_group":"proposed","_year":2025,"_year_label":"Start year","_states":["Akwa Ibom"]},"geometry":{"type":"Point","coordinates":[7.5957,4.56668]}},{"type":"Feature","properties":{"project":"Kaduna power station","unit":"1","province":"Kaduna","status":"announced","fuel_type":"natural gas","capacity":900.0,"technology":"CC","start_year":2034.0,"owner":"NNPC Ltd","url":"https://www.gem.wiki/Kaduna_power_station","_label":"Kaduna power station","_status_group":"proposed","_states":["Kaduna"]},"geometry":{"type":"Point","coordinates":[7.41187,10.59059]}},{"type":"Feature","properties":{"project":"Kano power station","unit":"1","province":"Kano","status":"announced","fuel_type":"natural gas","capacity":450.0,"technology":"CC","start_year":2024.0,"owner":"NNPC Ltd","url":"https://www.gem.wiki/Kano_power_station","_label":"Kano power station","_status_group":"proposed","_year":2024,"_year_label":"Start year","_states":["Kano"]},"geometry":{"type":"Point","coordinates":[8.4084,11.47446]}},{"type":"Feature","properties":{"project":"Kano power station","unit":"2","province":"Kano","status":"announced","fuel_type":"natural gas","capacity":450.0,"technology":"CC","start_year":2024.0,"owner":"NNPC Ltd","url":"https://www.gem.wiki/Kano_power_station","_label":"Kano power station","_status_group":"proposed","_year":2024,"_year_label":"Start year","_states":["Kano"]},"geometry":{"type":"Point","coordinates":[8.4084,11.47446]}},{"type":"Feature","properties":{"project":"Kano power station","unit":"3","province":"Kano","status":"announced","fuel_type":"natural gas","capacity":450.0,"technology":"CC","start_year":2024.0,"owner":"NNPC Ltd","url":"https://www.gem.wiki/Kano_power_station","_label":"Kano power station","_status_group":"proposed","_year":2024,"_year_label":"Start year","_states":["Kano"]},"geometry":{"type":"Point","coordinates":[8.4084,11.47446]}},{"type":"Feature","properties":{"project":"Kingline Ondo power station","unit":"1","province":"Ondo","status":"shelved","fuel_type":"natural gas","capacity":550.0,"technology":"GT","owner":"Kingline Development Nigeria Ltd; Themis","url":"https://www.gem.wiki/Kingline_Ondo_power_station","_label":"Kingline Ondo power station","_status_group":"inactive","_states":["Ondo"]},"geometry":{"type":"Point","coordinates":[4.6476,6.7247]}},{"type":"Feature","properties":{"project":"Kingline Ondo power station","unit":"2","province":"Ondo","status":"shelved","fuel_type":"natural gas","capacity":550.0,"technology":"GT","owner":"Kingline Development Nigeria Ltd; Themis","url":"https://www.gem.wiki/Kingline_Ondo_power_station","_label":"Kingline Ondo power station","_status_group":"inactive","_states":["Ondo"]},"geometry":{"type":"Point","coordinates":[4.6476,6.7247]}},{"type":"Feature","properties":{"project":"Knox power station","unit":"1","province":"Kogi","status":"announced","fuel_type":"natural gas","capacity":167.0,"technology":"GT","start_year":2031.0,"url":"https://www.gem.wiki/Knox_power_station","_label":"Knox power station","_status_group":"proposed","_states":["Kogi"]},"geometry":{"type":"Point","coordinates":[6.655,7.55611]}},{"type":"Feature","properties":{"project":"Knox power station","unit":"2","province":"Kogi","status":"announced","fuel_type":"natural gas","capacity":167.0,"technology":"GT","start_year":2031.0,"url":"https://www.gem.wiki/Knox_power_station","_label":"Knox power station","_status_group":"proposed","_states":["Kogi"]},"geometry":{"type":"Point","coordinates":[6.655,7.55611]}},{"type":"Feature","properties":{"project":"Knox power station","unit":"3","province":"Kogi","status":"announced","fuel_type":"natural gas","capacity":167.0,"technology":"GT","start_year":2031.0,"url":"https://www.gem.wiki/Knox_power_station","_label":"Knox power station","_status_group":"proposed","_states":["Kogi"]},"geometry":{"type":"Point","coordinates":[6.655,7.55611]}},{"type":"Feature","properties":{"project":"Lafarge power station","unit":"1","province":"Lagos","status":"cancelled","fuel_type":"natural gas","capacity":50.0,"technology":"GT","owner":"Lafarge Cement WAPCO","url":"https://www.gem.wiki/Lafarge_power_station","_label":"Lafarge power station","_status_group":"inactive","_states":["Lagos"]},"geometry":{"type":"Point","coordinates":[3.44356,6.45522]}},{"type":"Feature","properties":{"project":"Lafarge power station","unit":"2-1","province":"Lagos","status":"announced","fuel_type":"natural gas","capacity":110.0,"technology":"GT","start_year":2025.0,"owner":"Lafarge Cement WAPCO","url":"https://www.gem.wiki/Lafarge_power_station","_label":"Lafarge power station","_status_group":"proposed","_year":2025,"_year_label":"Start year","_states":["Lagos"]},"geometry":{"type":"Point","coordinates":[3.44356,6.45522]}},{"type":"Feature","properties":{"project":"Lafarge power station","unit":"2-2","province":"Lagos","status":"announced","fuel_type":"natural gas","capacity":110.0,"technology":"GT","start_year":2025.0,"owner":"Lafarge Cement WAPCO","url":"https://www.gem.wiki/Lafarge_power_station","_label":"Lafarge power station","_status_group":"proposed","_year":2025,"_year_label":"Start year","_states":["Lagos"]},"geometry":{"type":"Point","coordinates":[3.44356,6.45522]}},{"type":"Feature","properties":{"project":"Lekki Project power station","unit":"CC 1","province":"Lagos","status":"announced","fuel_type":"natural gas, fuel oil","capacity":500.0,"technology":"CC","start_year":2026.0,"owner":"Caleb-Inland Energy Nigeria Ltd","url":"https://www.gem.wiki/Lekki_Project_power_station","_label":"Lekki Project power station","_status_group":"proposed","_year":2026,"_year_label":"Start year","_states":["Lagos"]},"geometry":{"type":"Point","coordinates":[3.5852,6.4698]}},{"type":"Feature","properties":{"project":"Lekki Project power station","unit":"CC 2","province":"Lagos","status":"announced","fuel_type":"natural gas, fuel oil","capacity":500.0,"technology":"CC","start_year":2026.0,"owner":"Caleb-Inland Energy Nigeria Ltd","url":"https://www.gem.wiki/Lekki_Project_power_station","_label":"Lekki Project power station","_status_group":"proposed","_year":2026,"_year_label":"Start year","_states":["Lagos"]},"geometry":{"type":"Point","coordinates":[3.5852,6.4698]}},{"type":"Feature","properties":{"project":"Lekki Project power station","unit":"CC 4","province":"Lagos","status":"announced","fuel_type":"natural gas, fuel oil","capacity":500.0,"technology":"CC","start_year":2026.0,"owner":"Caleb-Inland Energy Nigeria Ltd","url":"https://www.gem.wiki/Lekki_Project_power_station","_label":"Lekki Project power station","_status_group":"proposed","_year":2026,"_year_label":"Start year","_states":["Lagos"]},"geometry":{"type":"Point","coordinates":[3.5852,6.4698]}},{"type":"Feature","properties":{"project":"Lekki Refinery power station","unit":"1","province":"Lagos","status":"announced","fuel_type":"natural gas","capacity":570.0,"technology":"CC","start_year":2025.0,"owner":"Dangote Oil Refinery Co","url":"https://www.gem.wiki/Lekki_Refinery_power_station","_label":"Lekki Refinery power station","_status_group":"proposed","_year":2025,"_year_label":"Start year","_states":["Lagos"]},"geometry":{"type":"Point","coordinates":[3.5852,6.4698]}},{"type":"Feature","properties":{"project":"MBH power station","unit":"1","province":"Lagos","status":"announced","fuel_type":"natural gas","capacity":150.0,"technology":"GT","start_year":2030.0,"owner":"MBH Power Ltd","url":"https://www.gem.wiki/MBH_power_station","_label":"MBH power station","_status_group":"proposed","_states":["Lagos"]},"geometry":{"type":"Point","coordinates":[3.32374,6.52444]}},{"type":"Feature","properties":{"project":"MBH power station","unit":"2","province":"Lagos","status":"announced","fuel_type":"natural gas","capacity":150.0,"technology":"GT","start_year":2030.0,"owner":"MBH Power Ltd","url":"https://www.gem.wiki/MBH_power_station","_label":"MBH power station","_status_group":"proposed","_states":["Lagos"]},"geometry":{"type":"Point","coordinates":[3.32374,6.52444]}},{"type":"Feature","properties":{"project":"Maiduguri power plant","unit":"1","province":"Borno","status":"construction","fuel_type":"natural gas","capacity":50.0,"technology":"GT","start_year":2022.0,"owner":"NNPC Ltd","url":"https://www.gem.wiki/Maiduguri_power_plant","_label":"Maiduguri power plant","_status_group":"development","_year":2022,"_year_label":"Start year","_states":["Borno"]},"geometry":{"type":"Point","coordinates":[13.15,11.833]}},{"type":"Feature","properties":{"project":"Oando Kwale power station","unit":"1","province":"Delta","status":"operating","fuel_type":"natural gas","capacity":480.0,"technology":"CC","start_year":2005.0,"owner":"Nigerian Agip Oil Co Ltd","url":"https://www.gem.wiki/Oando_Kwale_power_station","_label":"Oando Kwale power station","_status_group":"operating","_year":2005,"_year_label":"Start year","_states":["Delta"]},"geometry":{"type":"Point","coordinates":[6.57592,5.70969]}},{"type":"Feature","properties":{"project":"Oando Kwale power station","unit":"2","province":"Delta","status":"construction","fuel_type":"natural gas","capacity":450.0,"technology":"CC","start_year":2022.0,"owner":"Nigerian Agip Oil Co Ltd","url":"https://www.gem.wiki/Oando_Kwale_power_station","_label":"Oando Kwale power station","_status_group":"development","_year":2022,"_year_label":"Start year","_states":["Delta"]},"geometry":{"type":"Point","coordinates":[6.57592,5.70969]}},{"type":"Feature","properties":{"project":"Oats power station","unit":"1","status":"announced","fuel_type":"natural gas","capacity":100.0,"technology":"GT","start_year":2028.0,"url":"https://www.gem.wiki/Oats_power_station","_label":"Oats power station","_status_group":"proposed","_states":["Lagos"]},"geometry":{"type":"Point","coordinates":[3.43676,6.49402]}},{"type":"Feature","properties":{"project":"Oats power station","unit":"2","status":"announced","fuel_type":"natural gas","capacity":100.0,"technology":"GT","start_year":2028.0,"url":"https://www.gem.wiki/Oats_power_station","_label":"Oats power station","_status_group":"proposed","_states":["Lagos"]},"geometry":{"type":"Point","coordinates":[3.43676,6.49402]}},{"type":"Feature","properties":{"project":"Oats power station","unit":"3","status":"announced","fuel_type":"natural gas","capacity":100.0,"technology":"GT","start_year":2028.0,"url":"https://www.gem.wiki/Oats_power_station","_label":"Oats power station","_status_group":"proposed","_states":["Lagos"]},"geometry":{"type":"Point","coordinates":[3.43676,6.49402]}},{"type":"Feature","properties":{"project":"Oats power station","unit":"4","status":"announced","fuel_type":"natural gas","capacity":100.0,"technology":"GT","start_year":2029.0,"url":"https://www.gem.wiki/Oats_power_station","_label":"Oats power station","_status_group":"proposed","_states":["Lagos"]},"geometry":{"type":"Point","coordinates":[3.43676,6.49402]}},{"type":"Feature","properties":{"project":"Oats power station","unit":"5","status":"announced","fuel_type":"natural gas","capacity":100.0,"technology":"GT","start_year":2029.0,"url":"https://www.gem.wiki/Oats_power_station","_label":"Oats power station","_status_group":"proposed","_states":["Lagos"]},"geometry":{"type":"Point","coordinates":[3.43676,6.49402]}},{"type":"Feature","properties":{"project":"Oats power station","unit":"6","status":"announced","fuel_type":"natural gas","capacity":100.0,"technology":"GT","start_year":2030.0,"url":"https://www.gem.wiki/Oats_power_station","_label":"Oats power station","_status_group":"proposed","_states":["Lagos"]},"geometry":{"type":"Point","coordinates":[3.43676,6.49402]}},{"type":"Feature","properties":{"project":"Oats power station","unit":"7","status":"announced","fuel_type":"natural gas","capacity":100.0,"technology":"GT","start_year":2030.0,"url":"https://www.gem.wiki/Oats_power_station","_label":"Oats power station","_status_group":"proposed","_states":["Lagos"]},"geometry":{"type":"Point","coordinates":[3.43676,6.49402]}},{"type":"Feature","properties":{"project":"Oghareki power station","unit":"1","province":"Delta","status":"announced","fuel_type":"natural gas, diesel","capacity":100.0,"technology":"GT","start_year":2032.0,"owner":"Delta State Ministry of Power","url":"https://www.gem.wiki/Oghareki_power_station","_label":"Oghareki power station","_status_group":"proposed","_states":["Delta"]},"geometry":{"type":"Point","coordinates":[5.72064,5.94858]}},{"type":"Feature","properties":{"project":"Oghareki power station","unit":"2","province":"Delta","status":"announced","fuel_type":"natural gas, diesel","capacity":100.0,"technology":"GT","start_year":2032.0,"owner":"Delta State Ministry of Power","url":"https://www.gem.wiki/Oghareki_power_station","_label":"Oghareki power station","_status_group":"proposed","_states":["Delta"]},"geometry":{"type":"Point","coordinates":[5.72064,5.94858]}},{"type":"Feature","properties":{"project":"Oghareki power station","unit":"3","province":"Delta","status":"announced","fuel_type":"natural gas, diesel","capacity":100.0,"technology":"GT","start_year":2032.0,"owner":"Delta State Ministry of Power","url":"https://www.gem.wiki/Oghareki_power_station","_label":"Oghareki power station","_status_group":"proposed","_states":["Delta"]},"geometry":{"type":"Point","coordinates":[5.72064,5.94858]}},{"type":"Feature","properties":{"project":"Oghareki power station","unit":"4","province":"Delta","status":"announced","fuel_type":"natural gas, diesel","capacity":100.0,"technology":"GT","start_year":2032.0,"owner":"Delta State Ministry of Power","url":"https://www.gem.wiki/Oghareki_power_station","_label":"Oghareki power station","_status_group":"proposed","_states":["Delta"]},"geometry":{"type":"Point","coordinates":[5.72064,5.94858]}},{"type":"Feature","properties":{"project":"Oghareki power station","unit":"5","province":"Delta","status":"announced","fuel_type":"natural gas, diesel","capacity":100.0,"technology":"GT","start_year":2032.0,"owner":"Delta State Ministry of Power","url":"https://www.gem.wiki/Oghareki_power_station","_label":"Oghareki power station","_status_group":"proposed","_states":["Delta"]},"geometry":{"type":"Point","coordinates":[5.72064,5.94858]}},{"type":"Feature","properties":{"project":"Okija power station","unit":"1-1a","province":"Anambra","status":"announced","fuel_type":"natural gas","capacity":495.0,"technology":"GT","start_year":2022.0,"owner":"Century Power Generation Ltd","url":"https://www.gem.wiki/Okija_power_station","_label":"Okija power station","_status_group":"proposed","_year":2022,"_year_label":"Start year","_states":["Anambra"]},"geometry":{"type":"Point","coordinates":[6.8405,5.9147]}},{"type":"Feature","properties":{"project":"Okija power station","unit":"1-1b","province":"Anambra","status":"shelved","fuel_type":"waste heat from natural gas","capacity":255.0,"technology":"ST","owner":"Century Power Generation Ltd","url":"https://www.gem.wiki/Okija_power_station","_label":"Okija power station","_status_group":"inactive","_states":["Anambra"]},"geometry":{"type":"Point","coordinates":[6.8405,5.9147]}},{"type":"Feature","properties":{"project":"Okija power station","unit":"2-1","province":"Anambra","status":"shelved","fuel_type":"natural gas","capacity":750.0,"technology":"CC","owner":"Century Power Generation Ltd","url":"https://www.gem.wiki/Okija_power_station","_label":"Okija power station","_status_group":"inactive","_states":["Anambra"]},"geometry":{"type":"Point","coordinates":[6.8405,5.9147]}},{"type":"Feature","properties":{"project":"Olorunsogo II power station","unit":"1","province":"Oyo","status":"operating","fuel_type":"natural gas","capacity":377.0,"technology":"CC","start_year":2015.0,"owner":"Olorunsogo Generation Co Ltd","url":"https://www.gem.wiki/Olorunsogo_II_power_station","_label":"Olorunsogo II power station","_status_group":"operating","_year":2015,"_year_label":"Start year","_states":["Ogun"]},"geometry":{"type":"Point","coordinates":[3.31627,6.88532]}},{"type":"Feature","properties":{"project":"Olorunsogo II power station","unit":"2","province":"Oyo","status":"operating","fuel_type":"natural gas","capacity":377.0,"technology":"CC","start_year":2015.0,"owner":"Olorunsogo Generation Co Ltd","url":"https://www.gem.wiki/Olorunsogo_II_power_station","_label":"Olorunsogo II power station","_status_group":"operating","_year":2015,"_year_label":"Start year","_states":["Ogun"]},"geometry":{"type":"Point","coordinates":[3.31627,6.88532]}},{"type":"Feature","properties":{"project":"Omoku-II power station","unit":"1","province":"Rivers","status":"operating","fuel_type":"natural gas","capacity":113.0,"technology":"GT","start_year":2018.0,"owner":"Omoku Generation Co Ltd","url":"https://www.gem.wiki/Omoku-II_power_station","_label":"Omoku-II power station","_status_group":"operating","_year":2018,"_year_label":"Start year","_states":["Rivers"]},"geometry":{"type":"Point","coordinates":[6.66497,5.38502]}},{"type":"Feature","properties":{"project":"Omoku-II power station","unit":"2","province":"Rivers","status":"operating","fuel_type":"natural gas","capacity":113.0,"technology":"GT","start_year":2019.0,"owner":"Omoku Generation Co Ltd","url":"https://www.gem.wiki/Omoku-II_power_station","_label":"Omoku-II power station","_status_group":"operating","_year":2019,"_year_label":"Start year","_states":["Rivers"]},"geometry":{"type":"Point","coordinates":[6.66497,5.38502]}},{"type":"Feature","properties":{"project":"Omotosho II power station","unit":"1","province":"Ondo","status":"operating","fuel_type":"natural gas","capacity":128.0,"technology":"GT","start_year":2012.0,"owner":"Omotosho Generation Co Ltd","url":"https://www.gem.wiki/Omotosho_II_power_station","_label":"Omotosho II power station","_status_group":"operating","_year":2012,"_year_label":"Start year","_states":["Ondo"]},"geometry":{"type":"Point","coordinates":[4.71092,6.73245]}},{"type":"Feature","properties":{"project":"Omotosho II power station","unit":"2","province":"Ondo","status":"operating","fuel_type":"natural gas","capacity":128.0,"technology":"GT","start_year":2012.0,"owner":"Omotosho Generation Co Ltd","url":"https://www.gem.wiki/Omotosho_II_power_station","_label":"Omotosho II power station","_status_group":"operating","_year":2012,"_year_label":"Start year","_states":["Ondo"]},"geometry":{"type":"Point","coordinates":[4.71092,6.73245]}},{"type":"Feature","properties":{"project":"Omotosho II power station","unit":"2-1","province":"Ondo","status":"announced","fuel_type":"waste heat from natural gas","capacity":127.0,"technology":"ST","start_year":2027.0,"owner":"Omotosho Generation Co Ltd","url":"https://www.gem.wiki/Omotosho_II_power_station","_label":"Omotosho II power station","_status_group":"proposed","_states":["Ondo"]},"geometry":{"type":"Point","coordinates":[4.71092,6.73245]}},{"type":"Feature","properties":{"project":"Omotosho II power station","unit":"2-2","province":"Ondo","status":"announced","fuel_type":"waste heat from natural gas","capacity":127.0,"technology":"ST","start_year":2027.0,"owner":"Omotosho Generation Co Ltd","url":"https://www.gem.wiki/Omotosho_II_power_station","_label":"Omotosho II power station","_status_group":"proposed","_states":["Ondo"]},"geometry":{"type":"Point","coordinates":[4.71092,6.73245]}},{"type":"Feature","properties":{"project":"Omotosho II power station","unit":"3","province":"Ondo","status":"operating","fuel_type":"natural gas","capacity":128.0,"technology":"GT","start_year":2012.0,"owner":"Omotosho Generation Co Ltd","url":"https://www.gem.wiki/Omotosho_II_power_station","_label":"Omotosho II power station","_status_group":"operating","_year":2012,"_year_label":"Start year","_states":["Ondo"]},"geometry":{"type":"Point","coordinates":[4.71092,6.73245]}},{"type":"Feature","properties":{"project":"Omotosho II power station","unit":"4","province":"Ondo","status":"operating","fuel_type":"natural gas","capacity":128.0,"technology":"GT","start_year":2012.0,"owner":"Omotosho Generation Co Ltd","url":"https://www.gem.wiki/Omotosho_II_power_station","_label":"Omotosho II power station","_status_group":"operating","_year":2012,"_year_label":"Start year","_states":["Ondo"]},"geometry":{"type":"Point","coordinates":[4.71092,6.73245]}},{"type":"Feature","properties":{"project":"Proton Delta Sunrise power station","unit":"1-1","province":"Delta","status":"cancelled","fuel_type":"natural gas","capacity":50.0,"technology":"GT","owner":"Proton Energy Ltd","url":"https://www.gem.wiki/Proton_Delta_Sunrise_power_station","_label":"Proton Delta Sunrise power station","_status_group":"inactive","_states":["Delta"]},"geometry":{"type":"Point","coordinates":[5.64009,5.92561]}},{"type":"Feature","properties":{"project":"Proton Delta Sunrise power station","unit":"1-2","province":"Delta","status":"cancelled","fuel_type":"natural gas","capacity":50.0,"technology":"GT","owner":"Proton Energy Ltd","url":"https://www.gem.wiki/Proton_Delta_Sunrise_power_station","_label":"Proton Delta Sunrise power station","_status_group":"inactive","_states":["Delta"]},"geometry":{"type":"Point","coordinates":[5.64009,5.92561]}},{"type":"Feature","properties":{"project":"Proton Delta Sunrise power station","unit":"1-3","province":"Delta","status":"cancelled","fuel_type":"natural gas","capacity":50.0,"technology":"GT","owner":"Proton Energy Ltd","url":"https://www.gem.wiki/Proton_Delta_Sunrise_power_station","_label":"Proton Delta Sunrise power station","_status_group":"inactive","_states":["Delta"]},"geometry":{"type":"Point","coordinates":[5.64009,5.92561]}},{"type":"Feature","properties":{"project":"Proton Delta Sunrise power station","unit":"2-1","province":"Delta","status":"cancelled","fuel_type":"natural gas","capacity":350.0,"technology":"CC","owner":"Proton Energy Ltd","url":"https://www.gem.wiki/Proton_Delta_Sunrise_power_station","_label":"Proton Delta Sunrise power station","_status_group":"inactive","_states":["Delta"]},"geometry":{"type":"Point","coordinates":[5.64009,5.92561]}},{"type":"Feature","properties":{"project":"Qua Iboe power plant","unit":"1","province":"Akwa Ibom","status":"announced","fuel_type":"natural gas","capacity":540.0,"technology":"CC","start_year":2025.0,"owner":"Qua Iboe Power Plant Ltd. (QIPPL)","url":"https://www.gem.wiki/Qua_Iboe_Power_Plant","_label":"Qua Iboe power plant","_status_group":"proposed","_year":2025,"_year_label":"Start year","_states":["Akwa Ibom"]},"geometry":{"type":"Point","coordinates":[8.00953,4.54865]}},{"type":"Feature","properties":{"project":"Sagamu power station","unit":"1-1a","province":"Ogun","status":"cancelled","fuel_type":"natural gas","capacity":250.0,"technology":"GT","owner":"Sagamu Independent Power Plant Ltd","url":"https://www.gem.wiki/Sagamu_power_station","_label":"Sagamu power station","_status_group":"inactive","_states":["Ogun"]},"geometry":{"type":"Point","coordinates":[3.6319,6.8322]}},{"type":"Feature","properties":{"project":"Sagamu power station","unit":"1-1b","province":"Ogun","status":"cancelled","fuel_type":"waste heat from natural gas","capacity":150.0,"technology":"ST","owner":"Sagamu Independent Power Plant Ltd","url":"https://www.gem.wiki/Sagamu_power_station","_label":"Sagamu power station","_status_group":"inactive","_states":["Ogun"]},"geometry":{"type":"Point","coordinates":[3.6319,6.8322]}},{"type":"Feature","properties":{"project":"Sapele II power station","unit":"2-1","province":"Delta","status":"operating","fuel_type":"natural gas","capacity":113.0,"technology":"GT","start_year":2012.0,"owner":"Ogorode Generation Co Ltd","url":"https://www.gem.wiki/Sapele_II_power_station","_label":"Sapele II power station","_status_group":"operating","_year":2012,"_year_label":"Start year","_states":["Delta"]},"geometry":{"type":"Point","coordinates":[5.64498,5.92614]}},{"type":"Feature","properties":{"project":"Sapele II power station","unit":"2-2","province":"Delta","status":"operating","fuel_type":"natural gas","capacity":113.0,"technology":"GT","start_year":2012.0,"owner":"Ogorode Generation Co Ltd","url":"https://www.gem.wiki/Sapele_II_power_station","_label":"Sapele II power station","_status_group":"operating","_year":2012,"_year_label":"Start year","_states":["Delta"]},"geometry":{"type":"Point","coordinates":[5.64498,5.92614]}},{"type":"Feature","properties":{"project":"Sapele II power station","unit":"2-3","province":"Delta","status":"operating","fuel_type":"natural gas","capacity":113.0,"technology":"GT","start_year":2012.0,"owner":"Ogorode Generation Co Ltd","url":"https://www.gem.wiki/Sapele_II_power_station","_label":"Sapele II power station","_status_group":"operating","_year":2012,"_year_label":"Start year","_states":["Delta"]},"geometry":{"type":"Point","coordinates":[5.64498,5.92614]}},{"type":"Feature","properties":{"project":"Sapele II power station","unit":"2-4","province":"Delta","status":"operating","fuel_type":"natural gas","capacity":113.0,"technology":"GT","start_year":2012.0,"owner":"Ogorode Generation Co Ltd","url":"https://www.gem.wiki/Sapele_II_power_station","_label":"Sapele II power station","_status_group":"operating","_year":2012,"_year_label":"Start year","_states":["Delta"]},"geometry":{"type":"Point","coordinates":[5.64498,5.92614]}},{"type":"Feature","properties":{"project":"Sapele II power station","unit":"3-1","province":"Delta","status":"announced","fuel_type":"natural gas","capacity":151.0,"technology":"GT","start_year":2028.0,"owner":"Ogorode Generation Co Ltd","url":"https://www.gem.wiki/Sapele_II_power_station","_label":"Sapele II power station","_status_group":"proposed","_states":["Delta"]},"geometry":{"type":"Point","coordinates":[5.64498,5.92614]}},{"type":"Feature","properties":{"project":"Sapele II power station","unit":"3-2","province":"Delta","status":"announced","fuel_type":"natural gas","capacity":151.0,"technology":"GT","start_year":2028.0,"owner":"Ogorode Generation Co Ltd","url":"https://www.gem.wiki/Sapele_II_power_station","_label":"Sapele II power station","_status_group":"proposed","_states":["Delta"]},"geometry":{"type":"Point","coordinates":[5.64498,5.92614]}},{"type":"Feature","properties":{"project":"Sapele II power station","unit":"3-3","province":"Delta","status":"announced","fuel_type":"natural gas","capacity":151.0,"technology":"GT","start_year":2028.0,"owner":"Ogorode Generation Co Ltd","url":"https://www.gem.wiki/Sapele_II_power_station","_label":"Sapele II power station","_status_group":"proposed","_states":["Delta"]},"geometry":{"type":"Point","coordinates":[5.64498,5.92614]}},{"type":"Feature","properties":{"project":"Sapele power station","unit":"1-GT11","province":"Delta","status":"mothballed","fuel_type":"natural gas","capacity":75.0,"technology":"GT","start_year":1981.0,"owner":"Sapele Power PLC","url":"https://www.gem.wiki/Sapele_power_station","_label":"Sapele power station","_status_group":"inactive","_year":1981,"_year_label":"Start year","_states":["Delta"]},"geometry":{"type":"Point","coordinates":[5.64498,5.92614]}},{"type":"Feature","properties":{"project":"Sapele power station","unit":"1-GT12","province":"Delta","status":"mothballed","fuel_type":"natural gas","capacity":75.0,"technology":"GT","start_year":1981.0,"owner":"Sapele Power PLC","url":"https://www.gem.wiki/Sapele_power_station","_label":"Sapele power station","_status_group":"inactive","_year":1981,"_year_label":"Start year","_states":["Delta"]},"geometry":{"type":"Point","coordinates":[5.64498,5.92614]}},{"type":"Feature","properties":{"project":"Sapele power station","unit":"1-GT13","province":"Delta","status":"mothballed","fuel_type":"natural gas","capacity":75.0,"technology":"GT","start_year":1981.0,"owner":"Sapele Power PLC","url":"https://www.gem.wiki/Sapele_power_station","_label":"Sapele power station","_status_group":"inactive","_year":1981,"_year_label":"Start year","_states":["Delta"]},"geometry":{"type":"Point","coordinates":[5.64498,5.92614]}},{"type":"Feature","properties":{"project":"Sapele power station","unit":"1-GT14","province":"Delta","status":"mothballed","fuel_type":"natural gas","capacity":75.0,"technology":"GT","start_year":1981.0,"owner":"Sapele Power PLC","url":"https://www.gem.wiki/Sapele_power_station","_label":"Sapele power station","_status_group":"inactive","_year":1981,"_year_label":"Start year","_states":["Delta"]},"geometry":{"type":"Point","coordinates":[5.64498,5.92614]}},{"type":"Feature","properties":{"project":"Sapele power station","unit":"1-ST1","province":"Delta","status":"operating","fuel_type":"natural gas","capacity":120.0,"technology":"ST","start_year":1980.0,"owner":"Sapele Power PLC","url":"https://www.gem.wiki/Sapele_power_station","_label":"Sapele power station","_status_group":"operating","_year":1980,"_year_label":"Start year","_states":["Delta"]},"geometry":{"type":"Point","coordinates":[5.64498,5.92614]}},{"type":"Feature","properties":{"project":"Sapele power station","unit":"1-ST2","province":"Delta","status":"operating","fuel_type":"natural gas","capacity":120.0,"technology":"ST","start_year":1980.0,"owner":"Sapele Power PLC","url":"https://www.gem.wiki/Sapele_power_station","_label":"Sapele power station","_status_group":"operating","_year":1980,"_year_label":"Start year","_states":["Delta"]},"geometry":{"type":"Point","coordinates":[5.64498,5.92614]}},{"type":"Feature","properties":{"project":"Sapele power station","unit":"1-ST3","province":"Delta","status":"operating","fuel_type":"natural gas","capacity":120.0,"technology":"ST","start_year":1980.0,"owner":"Sapele Power PLC","url":"https://www.gem.wiki/Sapele_power_station","_label":"Sapele power station","_status_group":"operating","_year":1980,"_year_label":"Start year","_states":["Delta"]},"geometry":{"type":"Point","coordinates":[5.64498,5.92614]}},{"type":"Feature","properties":{"project":"Sapele power station","unit":"1-ST4","province":"Delta","status":"mothballed","fuel_type":"natural gas","capacity":120.0,"technology":"ST","start_year":1980.0,"owner":"Sapele Power PLC","url":"https://www.gem.wiki/Sapele_power_station","_label":"Sapele power station","_status_group":"inactive","_year":1980,"_year_label":"Start year","_states":["Delta"]},"geometry":{"type":"Point","coordinates":[5.64498,5.92614]}},{"type":"Feature","properties":{"project":"Sapele power station","unit":"1-ST5","province":"Delta","status":"mothballed","fuel_type":"natural gas","capacity":120.0,"technology":"ST","start_year":1980.0,"owner":"Sapele Power PLC","url":"https://www.gem.wiki/Sapele_power_station","_label":"Sapele power station","_status_group":"inactive","_year":1980,"_year_label":"Start year","_states":["Delta"]},"geometry":{"type":"Point","coordinates":[5.64498,5.92614]}},{"type":"Feature","properties":{"project":"Sapele power station","unit":"1-ST6","province":"Delta","status":"operating","fuel_type":"natural gas","capacity":120.0,"technology":"ST","start_year":1980.0,"owner":"Sapele Power PLC","url":"https://www.gem.wiki/Sapele_power_station","_label":"Sapele power station","_status_group":"operating","_year":1980,"_year_label":"Start year","_states":["Delta"]},"geometry":{"type":"Point","coordinates":[5.64498,5.92614]}},{"type":"Feature","properties":{"project":"Supertek power station","unit":"1","province":"Kogi","status":"announced","fuel_type":"natural gas","capacity":100.0,"technology":"GT","start_year":2030.0,"owner":"Supertek Electric Ltd","url":"https://www.gem.wiki/Supertek_power_station","_label":"Supertek power station","_status_group":"proposed","_states":["Kogi"]},"geometry":{"type":"Point","coordinates":[6.656,7.53437]}},{"type":"Feature","properties":{"project":"Supertek power station","unit":"2","province":"Kogi","status":"announced","fuel_type":"natural gas","capacity":100.0,"technology":"GT","start_year":2030.0,"owner":"Supertek Electric Ltd","url":"https://www.gem.wiki/Supertek_power_station","_label":"Supertek power station","_status_group":"proposed","_states":["Kogi"]},"geometry":{"type":"Point","coordinates":[6.656,7.53437]}},{"type":"Feature","properties":{"project":"Supertek power station","unit":"3","province":"Kogi","status":"announced","fuel_type":"natural gas","capacity":100.0,"technology":"GT","start_year":2030.0,"owner":"Supertek Electric Ltd","url":"https://www.gem.wiki/Supertek_power_station","_label":"Supertek power station","_status_group":"proposed","_states":["Kogi"]},"geometry":{"type":"Point","coordinates":[6.656,7.53437]}},{"type":"Feature","properties":{"project":"Supertek power station","unit":"4","province":"Kogi","status":"announced","fuel_type":"natural gas","capacity":100.0,"technology":"GT","start_year":2030.0,"owner":"Supertek Electric Ltd","url":"https://www.gem.wiki/Supertek_power_station","_label":"Supertek power station","_status_group":"proposed","_states":["Kogi"]},"geometry":{"type":"Point","coordinates":[6.656,7.53437]}},{"type":"Feature","properties":{"project":"Supertek power station","unit":"5","province":"Kogi","status":"announced","fuel_type":"natural gas","capacity":100.0,"technology":"GT","start_year":2030.0,"owner":"Supertek Electric Ltd","url":"https://www.gem.wiki/Supertek_power_station","_label":"Supertek power station","_status_group":"proposed","_states":["Kogi"]},"geometry":{"type":"Point","coordinates":[6.656,7.53437]}},{"type":"Feature","properties":{"project":"Ughelli power station","unit":"1","province":"Delta","status":"operating","fuel_type":"natural gas","capacity":100.0,"technology":"GT","start_year":1991.0,"owner":"Transcorp Power Ltd","url":"https://www.gem.wiki/Ughelli_power_station","_label":"Ughelli power station","_status_group":"operating","_year":1991,"_year_label":"Start year","_states":["Delta"]},"geometry":{"type":"Point","coordinates":[5.91591,5.54131]}},{"type":"Feature","properties":{"project":"Ughelli power station","unit":"2","province":"Delta","status":"operating","fuel_type":"natural gas","capacity":100.0,"technology":"GT","start_year":1991.0,"owner":"Transcorp Power Ltd","url":"https://www.gem.wiki/Ughelli_power_station","_label":"Ughelli power station","_status_group":"operating","_year":1991,"_year_label":"Start year","_states":["Delta"]},"geometry":{"type":"Point","coordinates":[5.91591,5.54131]}},{"type":"Feature","properties":{"project":"Ughelli power station","unit":"3","province":"Delta","status":"operating","fuel_type":"natural gas","capacity":100.0,"technology":"GT","start_year":1991.0,"owner":"Transcorp Power Ltd","url":"https://www.gem.wiki/Ughelli_power_station","_label":"Ughelli power station","_status_group":"operating","_year":1991,"_year_label":"Start year","_states":["Delta"]},"geometry":{"type":"Point","coordinates":[5.91591,5.54131]}},{"type":"Feature","properties":{"project":"Ughelli power station","unit":"4","province":"Delta","status":"operating","fuel_type":"natural gas","capacity":100.0,"technology":"GT","start_year":1991.0,"owner":"Transcorp Power Ltd","url":"https://www.gem.wiki/Ughelli_power_station","_label":"Ughelli power station","_status_group":"operating","_year":1991,"_year_label":"Start year","_states":["Delta"]},"geometry":{"type":"Point","coordinates":[5.91591,5.54131]}},{"type":"Feature","properties":{"project":"Ughelli power station","unit":"5","province":"Delta","status":"operating","fuel_type":"natural gas","capacity":100.0,"technology":"GT","start_year":1991.0,"owner":"Transcorp Power Ltd","url":"https://www.gem.wiki/Ughelli_power_station","_label":"Ughelli power station","_status_group":"operating","_year":1991,"_year_label":"Start year","_states":["Delta"]},"geometry":{"type":"Point","coordinates":[5.91591,5.54131]}},{"type":"Feature","properties":{"project":"Ughelli power station","unit":"6","province":"Delta","status":"operating","fuel_type":"natural gas","capacity":100.0,"technology":"GT","start_year":1991.0,"owner":"Transcorp Power Ltd","url":"https://www.gem.wiki/Ughelli_power_station","_label":"Ughelli power station","_status_group":"operating","_year":1991,"_year_label":"Start year","_states":["Delta"]},"geometry":{"type":"Point","coordinates":[5.91591,5.54131]}},{"type":"Feature","properties":{"project":"Westcom power station","unit":"1","province":"Lagos","status":"announced","fuel_type":"natural gas","capacity":250.0,"technology":"GT","start_year":2030.0,"url":"https://www.gem.wiki/Westcom_power_station","_label":"Westcom power station","_status_group":"proposed","_states":["Lagos"]},"geometry":{"type":"Point","coordinates":[3.32374,6.52444]}},{"type":"Feature","properties":{"project":"Westcom power station","unit":"2","province":"Lagos","status":"announced","fuel_type":"natural gas","capacity":250.0,"technology":"GT","start_year":2030.0,"url":"https://www.gem.wiki/Westcom_power_station","_label":"Westcom power station","_status_group":"proposed","_states":["Lagos"]},"geometry":{"type":"Point","coordinates":[3.32374,6.52444]}},{"type":"Feature","properties":{"project":"Yellow Stone power station","unit":"1","province":"Kogi","status":"announced","fuel_type":"natural gas","capacity":180.0,"technology":"GT","start_year":2024.0,"url":"https://www.gem.wiki/Yellow_Stone_power_station","_label":"Yellow Stone power station","_status_group":"proposed","_year":2024,"_year_label":"Start year","_states":["Kogi"]},"geometry":{"type":"Point","coordinates":[6.65153,7.5342]}},{"type":"Feature","properties":{"project":"Yellow Stone power station","unit":"2","province":"Kogi","status":"announced","fuel_type":"natural gas","capacity":180.0,"technology":"GT","start_year":2024.0,"url":"https://www.gem.wiki/Yellow_Stone_power_station","_label":"Yellow Stone power station","_status_group":"proposed","_year":2024,"_year_label":"Start year","_states":["Kogi"]},"geometry":{"type":"Point","coordinates":[6.65153,7.5342]}}]}
