{"type":"FeatureCollection","name":"rail_stations","product":{"name":"Infraxis Atlas — Nigeria","master_brand":"Infraxis Atlas","country":"Nigeria","former_name":"Nigeria Infrastructure Atlas","tagline":"Mapping infrastructure. Measuring disruption."},"atlas_release":{"version":"0.12.0","date":"2026-08-05","title":"Infraxis Atlas Rebrand and Pan-African Foundation"},"metadata":{"description":"Mapped Nigerian railway stations.","source":"OpenStreetMap via Overpass API","source_date":"2026-07-23","license":"ODbL","quality":"B","quality_note":"Locations reflect OSM coverage and may include inactive stations.","path":"data/processed/05_connectivity/osm_railways_nigeria.csv","key":"rail_stations","label":"Railway Stations","category":"connectivity","category_label":"Connectivity","record_count":141,"download_url":"https://raw.githubusercontent.com/Diamonds10/nigeria-infrastructure-atlas/main/data/processed/05_connectivity/osm_railways_nigeria.csv","refresh":{"cadence":"quarterly","last_checked":"2026-07-23","next_review_due":"2026-10-23","review_status":"current"}},"features":[{"type":"Feature","properties":{"name":"Kaderko","_label":"Kaderko","_status_group":"unknown","_states":["Nasarawa"]},"geometry":{"type":"Point","coordinates":[8.53333,8.25]}},{"type":"Feature","properties":{"name":"Jagindi","_label":"Jagindi","_status_group":"unknown","_states":["Kaduna"]},"geometry":{"type":"Point","coordinates":[8.2289,9.34429]}},{"type":"Feature","properties":{"name":"Omoba Station","_label":"Omoba Station","_status_group":"unknown","_states":["Abia"]},"geometry":{"type":"Point","coordinates":[7.40709,5.24543]}},{"type":"Feature","properties":{"name":"Eruwa Railway Station","_label":"Eruwa Railway Station","_status_group":"unknown","_states":["Oyo"]},"geometry":{"type":"Point","coordinates":[3.48456,7.39827]}},{"type":"Feature","properties":{"name":"Guga","_label":"Guga","_status_group":"unknown","_states":["Kaduna"]},"geometry":{"type":"Point","coordinates":[7.55175,11.2526]}},{"type":"Feature","properties":{"name":"Iwo Station","_label":"Iwo Station","_status_group":"unknown","_states":["Osun"]},"geometry":{"type":"Point","coordinates":[4.2048,7.55652]}},{"type":"Feature","properties":{"name":"Eruwa Road Station","_label":"Eruwa Road Station","_status_group":"unknown","_states":["Oyo"]},"geometry":{"type":"Point","coordinates":[3.48247,7.40119]}},{"type":"Feature","properties":{"name":"Tabu Station","_label":"Tabu Station","_status_group":"unknown","_states":["Niger"]},"geometry":{"type":"Point","coordinates":[5.55071,9.49964]}},{"type":"Feature","properties":{"name":"Gidan Mata Station","_label":"Gidan Mata Station","_status_group":"unknown","_states":["Niger"]},"geometry":{"type":"Point","coordinates":[6.2362,9.73771]}},{"type":"Feature","properties":{"name":"Ila Market Railway Station","_label":"Ila Market Railway Station","_status_group":"unknown","_states":["Kwara"]},"geometry":{"type":"Point","coordinates":[4.67091,8.30312]}},{"type":"Feature","properties":{"name":"Otobi","_label":"Otobi","_status_group":"unknown","_states":["Benue"]},"geometry":{"type":"Point","coordinates":[8.07011,7.10303]}},{"type":"Feature","properties":{"name":"Auchan Station","_label":"Auchan Station","_status_group":"unknown","_states":["Kaduna"]},"geometry":{"type":"Point","coordinates":[8.01832,11.41411]}},{"type":"Feature","properties":{"name":"Shakwata Station","_label":"Shakwata Station","_status_group":"unknown","_states":["Niger"]},"geometry":{"type":"Point","coordinates":[6.62331,9.66425]}},{"type":"Feature","properties":{"name":"Gagarwa","_label":"Gagarwa","_status_group":"unknown","_states":["Jigawa"]},"geometry":{"type":"Point","coordinates":[9.58817,12.39644]}},{"type":"Feature","properties":{"name":"Kuru","_label":"Kuru","_status_group":"unknown","_states":["Plateau"]},"geometry":{"type":"Point","coordinates":[8.80897,9.64795]}},{"type":"Feature","properties":{"name":"Gimi Station","_label":"Gimi Station","_status_group":"unknown","_states":["Kaduna"]},"geometry":{"type":"Point","coordinates":[7.91758,11.33594]}},{"type":"Feature","properties":{"name":"Gamo Railway Station","_label":"Gamo Railway Station","_status_group":"unknown","_states":["Kwara"]},"geometry":{"type":"Point","coordinates":[4.59053,8.4166]}},{"type":"Feature","properties":{"name":"Kajuru","_label":"Kajuru","_status_group":"unknown","_states":["Kaduna"]},"geometry":{"type":"Point","coordinates":[7.62184,10.26359]}},{"type":"Feature","properties":{"name":"Okuku Railway Station","_label":"Okuku Railway Station","_status_group":"unknown","_states":["Osun"]},"geometry":{"type":"Point","coordinates":[4.68333,8.03333]}},{"type":"Feature","properties":{"name":"Origo Station","_label":"Origo Station","_status_group":"unknown","_states":["Osun"]},"geometry":{"type":"Point","coordinates":[4.36509,7.69223]}},{"type":"Feature","properties":{"name":"Dabi","_label":"Dabi","_status_group":"unknown","_states":["Jigawa"]},"geometry":{"type":"Point","coordinates":[8.98041,12.12355]}},{"type":"Feature","properties":{"name":"Godani Station","_label":"Godani Station","_status_group":"unknown","_states":["Kaduna"]},"geometry":{"type":"Point","coordinates":[7.16454,10.12305]}},{"type":"Feature","properties":{"name":"Wushishi Station","_label":"Wushishi Station","_status_group":"unknown","_states":["Niger"]},"geometry":{"type":"Point","coordinates":[6.04641,9.74765]}},{"type":"Feature","properties":{"name":"Gerti","_label":"Gerti","_status_group":"unknown","_states":["Kaduna"]},"geometry":{"type":"Point","coordinates":[8.25292,9.46285]}},{"type":"Feature","properties":{"name":"Kamuru","_label":"Kamuru","_status_group":"unknown","_states":["Kaduna"]},"geometry":{"type":"Point","coordinates":[8.18885,9.88921]}},{"type":"Feature","properties":{"name":"Kutura","_label":"Kutura","_status_group":"unknown","_states":["Kaduna"]},"geometry":{"type":"Point","coordinates":[7.69233,10.1976]}},{"type":"Feature","properties":{"name":"Ede Station","_label":"Ede Station","_status_group":"unknown","_states":["Osun"]},"geometry":{"type":"Point","coordinates":[4.43333,7.75]}},{"type":"Feature","properties":{"name":"Zaria","_label":"Zaria","_status_group":"unknown","_states":["Kaduna"]},"geometry":{"type":"Point","coordinates":[7.72371,11.11017]}},{"type":"Feature","properties":{"name":"Kano","_label":"Kano","_status_group":"unknown","_states":["Kano"]},"geometry":{"type":"Point","coordinates":[8.53942,11.9995]}},{"type":"Feature","properties":{"name":"Funtua","_label":"Funtua","_status_group":"unknown","_states":["Katsina"]},"geometry":{"type":"Point","coordinates":[7.3202,11.52881]}},{"type":"Feature","properties":{"_label":null,"_status_group":"unknown","_states":["Borno"]},"geometry":{"type":"Point","coordinates":[13.11423,11.84076]}},{"type":"Feature","properties":{"_label":null,"_status_group":"unknown","_states":["Borno"]},"geometry":{"type":"Point","coordinates":[13.10055,11.83293]}},{"type":"Feature","properties":{"_label":null,"_status_group":"unknown","_states":["Borno"]},"geometry":{"type":"Point","coordinates":[13.08072,11.82138]}},{"type":"Feature","properties":{"name":"Maiduguri","_label":"Maiduguri","_status_group":"unknown","_states":["Borno"]},"geometry":{"type":"Point","coordinates":[13.15679,11.86257]}},{"type":"Feature","properties":{"name":"Port Harcourt Station","_label":"Port Harcourt Station","_status_group":"unknown","_states":["Rivers"]},"geometry":{"type":"Point","coordinates":[7.01647,4.76509]}},{"type":"Feature","properties":{"name":"Nguru","_label":"Nguru","_status_group":"unknown","_states":["Yobe"]},"geometry":{"type":"Point","coordinates":[10.43489,12.85946]}},{"type":"Feature","properties":{"name":"Shemi","_label":"Shemi","_status_group":"unknown","_states":["Katsina"]},"geometry":{"type":"Point","coordinates":[7.16286,11.70819]}},{"type":"Feature","properties":{"name":"Gombe","_label":"Gombe","_status_group":"unknown","_states":["Gombe"]},"geometry":{"type":"Point","coordinates":[11.18678,10.28674]}},{"type":"Feature","properties":{"name":"Osogbo","_label":"Osogbo","_status_group":"unknown","_states":["Osun"]},"geometry":{"type":"Point","coordinates":[4.54777,7.7804]}},{"type":"Feature","properties":{"name":"Kurmin Biri","_label":"Kurmin Biri","_status_group":"unknown","_states":["Kaduna"]},"geometry":{"type":"Point","coordinates":[8.02138,10.04031]}},{"type":"Feature","properties":{"_label":null,"_status_group":"unknown","_states":["Kwara"]},"geometry":{"type":"Point","coordinates":[4.56296,8.48461]}},{"type":"Feature","properties":{"_label":null,"_status_group":"unknown","_states":["Bauchi"]},"geometry":{"type":"Point","coordinates":[10.22504,10.25838]}},{"type":"Feature","properties":{"_label":null,"_status_group":"unknown","_states":["Bauchi"]},"geometry":{"type":"Point","coordinates":[9.90708,10.30135]}},{"type":"Feature","properties":{"_label":null,"_status_group":"unknown","_states":["Niger"]},"geometry":{"type":"Point","coordinates":[7.02089,9.93717]}},{"type":"Feature","properties":{"_label":null,"_status_group":"unknown","_states":["Niger"]},"geometry":{"type":"Point","coordinates":[6.97888,9.88628]}},{"type":"Feature","properties":{"_label":null,"_status_group":"unknown","_states":["Niger"]},"geometry":{"type":"Point","coordinates":[6.78459,9.68606]}},{"type":"Feature","properties":{"name":"Abuja Metro","_label":"Abuja Metro","_status_group":"unknown","_states":["Abuja Federal Capital Territory"]},"geometry":{"type":"Point","coordinates":[7.47179,9.05044]}},{"type":"Feature","properties":{"_label":null,"_status_group":"unknown","_states":["Niger"]},"geometry":{"type":"Point","coordinates":[6.54483,9.60892]}},{"type":"Feature","properties":{"_label":null,"_status_group":"unknown","_states":["Ogun"]},"geometry":{"type":"Point","coordinates":[3.23496,6.82177]}},{"type":"Feature","properties":{"_label":null,"_status_group":"unknown","_states":["Ogun"]},"geometry":{"type":"Point","coordinates":[3.32476,7.1557]}},{"type":"Feature","properties":{"_label":null,"_status_group":"unknown","_states":["Oyo"]},"geometry":{"type":"Point","coordinates":[3.74865,7.39399]}},{"type":"Feature","properties":{"_label":null,"_status_group":"unknown","_states":["Niger"]},"geometry":{"type":"Point","coordinates":[5.90378,9.65724]}},{"type":"Feature","properties":{"_label":null,"_status_group":"unknown","_states":["Niger"]},"geometry":{"type":"Point","coordinates":[5.80629,9.58158]}},{"type":"Feature","properties":{"_label":null,"_status_group":"unknown","_states":["Niger"]},"geometry":{"type":"Point","coordinates":[7.10761,10.02288]}},{"type":"Feature","properties":{"name":"Kafanchan","_label":"Kafanchan","_status_group":"unknown","_states":["Kaduna"]},"geometry":{"type":"Point","coordinates":[8.30301,9.5911]}},{"type":"Feature","properties":{"name":"Kankada","_label":"Kankada","_status_group":"unknown","_states":["Kaduna"]},"geometry":{"type":"Point","coordinates":[8.32114,9.67191]}},{"type":"Feature","properties":{"name":"Gusau","_label":"Gusau","_status_group":"unknown","_states":["Zamfara"]},"geometry":{"type":"Point","coordinates":[6.67121,12.16568]}},{"type":"Feature","properties":{"name":"Bodija Train Station","_label":"Bodija Train Station","_status_group":"unknown","_states":["Oyo"]},"geometry":{"type":"Point","coordinates":[3.91505,7.43177]}},{"type":"Feature","properties":{"name":"Kutcheri","_label":"Kutcheri","_status_group":"unknown","_states":["Zamfara"]},"geometry":{"type":"Point","coordinates":[7.02136,11.83219]}},{"type":"Feature","properties":{"_label":null,"_status_group":"unknown","_states":["Zamfara"]},"geometry":{"type":"Point","coordinates":[6.94715,11.94632]}},{"type":"Feature","properties":{"name":"Makurdi","_label":"Makurdi","_status_group":"unknown","_states":["Benue"]},"geometry":{"type":"Point","coordinates":[8.53298,7.72636]}},{"type":"Feature","properties":{"name":"Zungeru","_label":"Zungeru","_status_group":"unknown","_states":["Niger"]},"geometry":{"type":"Point","coordinates":[6.16938,9.81168]}},{"type":"Feature","properties":{"name":"Kaduna - Rigasa","_label":"Kaduna - Rigasa","_status_group":"unknown","_states":["Kaduna"]},"geometry":{"type":"Point","coordinates":[7.35494,10.54871]}},{"type":"Feature","properties":{"name":"Buni Yadi","_label":"Buni Yadi","_status_group":"unknown","_states":["Yobe"]},"geometry":{"type":"Point","coordinates":[12.00795,11.27449]}},{"type":"Feature","properties":{"name":"Utonkon","_label":"Utonkon","_status_group":"unknown","_states":["Benue"]},"geometry":{"type":"Point","coordinates":[8.03307,6.9501]}},{"type":"Feature","properties":{"name":"Offa Railway","_label":"Offa Railway","_status_group":"unknown","_states":["Kwara"]},"geometry":{"type":"Point","coordinates":[4.72658,8.15489]}},{"type":"Feature","properties":{"name":"Deba Fulani","_label":"Deba Fulani","_status_group":"unknown","_states":["Gombe"]},"geometry":{"type":"Point","coordinates":[11.3705,10.42099]}},{"type":"Feature","properties":{"name":"Bajoga","_label":"Bajoga","_status_group":"unknown","_states":["Gombe"]},"geometry":{"type":"Point","coordinates":[11.43764,10.84643]}},{"type":"Feature","properties":{"name":"Tongo","_label":"Tongo","_status_group":"unknown","_states":["Gombe"]},"geometry":{"type":"Point","coordinates":[11.36713,10.70542]}},{"type":"Feature","properties":{"name":"Bauchi","_label":"Bauchi","_status_group":"unknown","_states":["Bauchi"]},"geometry":{"type":"Point","coordinates":[9.8491,10.29315]}},{"type":"Feature","properties":{"name":"Liman Katagum","_label":"Liman Katagum","_status_group":"unknown","_states":["Bauchi"]},"geometry":{"type":"Point","coordinates":[9.78201,10.00596]}},{"type":"Feature","properties":{"name":"Tafawa-Balewa","_label":"Tafawa-Balewa","_status_group":"unknown","_states":["Bauchi"]},"geometry":{"type":"Point","coordinates":[9.55659,9.77068]}},{"type":"Feature","properties":{"name":"Maijuju","_label":"Maijuju","_status_group":"unknown","_states":["Bauchi"]},"geometry":{"type":"Point","coordinates":[9.15605,9.7479]}},{"type":"Feature","properties":{"name":"Tsofo","_label":"Tsofo","_status_group":"unknown","_states":["Plateau"]},"geometry":{"type":"Point","coordinates":[9.07311,9.67293]}},{"type":"Feature","properties":{"name":"Heipang","_label":"Heipang","_status_group":"unknown","_states":["Plateau"]},"geometry":{"type":"Point","coordinates":[8.87922,9.64317]}},{"type":"Feature","properties":{"name":"Manchok","_label":"Manchok","_status_group":"unknown","_states":["Kaduna"]},"geometry":{"type":"Point","coordinates":[8.52012,9.65458]}},{"type":"Feature","properties":{"name":"Kagoro","_label":"Kagoro","_status_group":"unknown","_states":["Kaduna"]},"geometry":{"type":"Point","coordinates":[8.40012,9.61311]}},{"type":"Feature","properties":{"name":"Malam-Maduri","_label":"Malam-Maduri","_status_group":"unknown","_states":["Jigawa"]},"geometry":{"type":"Point","coordinates":[9.88595,12.5598]}},{"type":"Feature","properties":{"name":"Ringim","_label":"Ringim","_status_group":"unknown","_states":["Jigawa"]},"geometry":{"type":"Point","coordinates":[9.16797,12.15789]}},{"type":"Feature","properties":{"name":"Zakirai","_label":"Zakirai","_status_group":"unknown","_states":["Kano"]},"geometry":{"type":"Point","coordinates":[8.89075,12.09799]}},{"type":"Feature","properties":{"name":"Jogana","_label":"Jogana","_status_group":"unknown","_states":["Kano"]},"geometry":{"type":"Point","coordinates":[8.70498,12.02302]}},{"type":"Feature","properties":{"name":"Kaura-Namoda","_label":"Kaura-Namoda","_status_group":"unknown","_states":["Zamfara"]},"geometry":{"type":"Point","coordinates":[6.57341,12.57431]}},{"type":"Feature","properties":{"name":"Lango","_label":"Lango","_status_group":"unknown","_states":["Zamfara"]},"geometry":{"type":"Point","coordinates":[6.59063,12.36021]}},{"type":"Feature","properties":{"_label":null,"_status_group":"unknown","_states":["Zamfara"]},"geometry":{"type":"Point","coordinates":[6.78545,12.07525]}},{"type":"Feature","properties":{"name":"Tafoki","_label":"Tafoki","_status_group":"unknown","_states":["Katsina"]},"geometry":{"type":"Point","coordinates":[7.27625,11.62218]}},{"type":"Feature","properties":{"name":"Kankomi","_label":"Kankomi","_status_group":"unknown","_states":["Kaduna"]},"geometry":{"type":"Point","coordinates":[7.5259,10.33806]}},{"type":"Feature","properties":{"name":"Zenkuwa","_label":"Zenkuwa","_status_group":"unknown","_states":["Kaduna"]},"geometry":{"type":"Point","coordinates":[8.28364,9.78348]}},{"type":"Feature","properties":{"_label":null,"_status_group":"unknown","_states":["Kaduna"]},"geometry":{"type":"Point","coordinates":[8.29223,9.54579]}},{"type":"Feature","properties":{"name":"Kogum River","_label":"Kogum River","_status_group":"unknown","_states":["Kaduna"]},"geometry":{"type":"Point","coordinates":[8.22768,9.24797]}},{"type":"Feature","properties":{"name":"Kwakwasa","_label":"Kwakwasa","_status_group":"unknown","_states":["Kaduna"]},"geometry":{"type":"Point","coordinates":[8.16663,9.19071]}},{"type":"Feature","properties":{"name":"Zaria","_label":"Zaria","_status_group":"unknown","_states":["Nasarawa"]},"geometry":{"type":"Point","coordinates":[8.19926,9.0252]}},{"type":"Feature","properties":{"_label":null,"_status_group":"unknown","_states":["Benue"]},"geometry":{"type":"Point","coordinates":[8.53433,7.99869]}},{"type":"Feature","properties":{"name":"Tilegu","_label":"Tilegu","_status_group":"unknown","_states":["Benue"]},"geometry":{"type":"Point","coordinates":[8.5695,7.87665]}},{"type":"Feature","properties":{"name":"Baba","_label":"Baba","_status_group":"unknown","_states":["Benue"]},"geometry":{"type":"Point","coordinates":[8.52394,7.76418]}},{"type":"Feature","properties":{"name":"Otukpo","_label":"Otukpo","_status_group":"unknown","_states":["Benue"]},"geometry":{"type":"Point","coordinates":[8.15006,7.20161]}},{"type":"Feature","properties":{"name":"Kubwa","_label":"Kubwa","_status_group":"unknown","_states":["Abuja Federal Capital Territory"]},"geometry":{"type":"Point","coordinates":[7.32527,9.16398]}},{"type":"Feature","properties":{"name":"Kaduna North","_label":"Kaduna North","_status_group":"unknown","_states":["Kaduna"]},"geometry":{"type":"Point","coordinates":[7.42612,10.54057]}},{"type":"Feature","properties":{"name":"Kaduna Junction","_label":"Kaduna Junction","_status_group":"unknown","_states":["Kaduna"]},"geometry":{"type":"Point","coordinates":[7.41639,10.49213]}},{"type":"Feature","properties":{"name":"Itori","_label":"Itori","_status_group":"unknown","_states":["Ogun"]},"geometry":{"type":"Point","coordinates":[3.22356,6.92947]}},{"type":"Feature","properties":{"name":"Ile Igbo Station","_label":"Ile Igbo Station","_status_group":"unknown","_states":["Osun"]},"geometry":{"type":"Point","coordinates":[4.28137,7.59802]}},{"type":"Feature","properties":{"name":"Kukwaba II","_label":"Kukwaba II","_status_group":"unknown","_states":["Abuja Federal Capital Territory"]},"geometry":{"type":"Point","coordinates":[7.42266,9.03076]}},{"type":"Feature","properties":{"name":"Airport","_label":"Airport","_status_group":"unknown","_states":["Abuja Federal Capital Territory"]},"geometry":{"type":"Point","coordinates":[7.2724,9.00671]}},{"type":"Feature","properties":{"name":"Calabar International Convention Centre","_label":"Calabar International Convention Centre","_status_group":"unknown","_states":["Cross River"]},"geometry":{"type":"Point","coordinates":[8.31481,5.04349]}},{"type":"Feature","properties":{"name":"Tinapa Lakeside Hotel","_label":"Tinapa Lakeside Hotel","_status_group":"unknown","_states":["Cross River"]},"geometry":{"type":"Point","coordinates":[8.31559,5.04822]}},{"type":"Feature","properties":{"name":"Tinapa Business and Resort","_label":"Tinapa Business and Resort","_status_group":"unknown","_states":["Cross River"]},"geometry":{"type":"Point","coordinates":[8.316,5.05129]}},{"type":"Feature","properties":{"name":"Eganyi Station","_label":"Eganyi Station","_status_group":"unknown","_states":["Kogi"]},"geometry":{"type":"Point","coordinates":[6.44483,7.57806]}},{"type":"Feature","properties":{"name":"Igueben-Ekhen Station","_label":"Igueben-Ekhen Station","_status_group":"unknown","_states":["Edo"]},"geometry":{"type":"Point","coordinates":[6.26008,6.61992]}},{"type":"Feature","properties":{"name":"Itogbo Station","_label":"Itogbo Station","_status_group":"unknown","_states":["Edo"]},"geometry":{"type":"Point","coordinates":[6.67577,7.17368]}},{"type":"Feature","properties":{"name":"Itakpe Station","_label":"Itakpe Station","_status_group":"unknown","_states":["Kogi"]},"geometry":{"type":"Point","coordinates":[6.32247,7.62043]}},{"type":"Feature","properties":{"name":"Okpara Station","_label":"Okpara Station","_status_group":"unknown","_states":["Delta"]},"geometry":{"type":"Point","coordinates":[5.95114,5.66291]}},{"type":"Feature","properties":{"name":"Ujevwu Station","_label":"Ujevwu Station","_status_group":"unknown","_states":["Delta"]},"geometry":{"type":"Point","coordinates":[5.81157,5.46853]}},{"type":"Feature","properties":{"name":"Abraka Station","_label":"Abraka Station","_status_group":"unknown","_states":["Edo"]},"geometry":{"type":"Point","coordinates":[6.11014,5.84309]}},{"type":"Feature","properties":{"name":"Adogo Station","_label":"Adogo Station","_status_group":"unknown","_states":["Kogi"]},"geometry":{"type":"Point","coordinates":[6.54398,7.50345]}},{"type":"Feature","properties":{"name":"Ajaokuta Station","_label":"Ajaokuta Station","_status_group":"unknown","_states":["Kogi"]},"geometry":{"type":"Point","coordinates":[6.62561,7.44077]}},{"type":"Feature","properties":{"name":"Agenebode Station","_label":"Agenebode Station","_status_group":"unknown","_states":["Edo"]},"geometry":{"type":"Point","coordinates":[6.52189,7.03231]}},{"type":"Feature","properties":{"name":"Jere","_label":"Jere","_status_group":"unknown","_states":["Kaduna"]},"geometry":{"type":"Point","coordinates":[7.45396,9.57072]}},{"type":"Feature","properties":{"name":"Rijana","_label":"Rijana","_status_group":"unknown","_states":["Kaduna"]},"geometry":{"type":"Point","coordinates":[7.37598,10.04882]}},{"type":"Feature","properties":{"name":"Kakau","_label":"Kakau","_status_group":"unknown","_states":["Kaduna"]},"geometry":{"type":"Point","coordinates":[7.34999,10.37434]}},{"type":"Feature","properties":{"_label":null,"_status_group":"unknown","_states":["Kaduna"]},"geometry":{"type":"Point","coordinates":[7.54595,10.82238]}},{"type":"Feature","properties":{"name":"Enugu","_label":"Enugu","_status_group":"unknown","_states":["Enugu"]},"geometry":{"type":"Point","coordinates":[7.49356,6.44246]}},{"type":"Feature","properties":{"name":"Papalanto Station","_label":"Papalanto Station","_status_group":"unknown","_states":["Ogun"]},"geometry":{"type":"Point","coordinates":[3.23336,6.91335]}},{"type":"Feature","properties":{"name":"Agbarho Station","_label":"Agbarho Station","_status_group":"unknown","_states":["Delta"]},"geometry":{"type":"Point","coordinates":[5.88724,5.5856]}},{"type":"Feature","properties":{"name":"Gbazango","_label":"Gbazango","_status_group":"unknown","_states":["Abuja Federal Capital Territory"]},"geometry":{"type":"Point","coordinates":[7.31113,9.15382]}},{"type":"Feature","properties":{"name":"Idu","_label":"Idu","_status_group":"unknown","_states":["Abuja Federal Capital Territory"]},"geometry":{"type":"Point","coordinates":[7.34251,9.04698]}},{"type":"Feature","properties":{"name":"Gogwada","_label":"Gogwada","_status_group":"unknown","_states":["Kaduna"]},"geometry":{"type":"Point","coordinates":[7.22551,10.2562]}},{"type":"Feature","properties":{"name":"Idu","_label":"Idu","_status_group":"unknown","_states":["Abuja Federal Capital Territory"]},"geometry":{"type":"Point","coordinates":[7.34284,9.04638]}},{"type":"Feature","properties":{"name":"Marina","_label":"Marina","_status_group":"unknown","_states":["Lagos"]},"geometry":{"type":"Point","coordinates":[3.39503,6.44616]}},{"type":"Feature","properties":{"name":"Iganmu","_label":"Iganmu","_status_group":"unknown","_states":["Lagos"]},"geometry":{"type":"Point","coordinates":[3.34312,6.47755]}},{"type":"Feature","properties":{"name":"Mile 2","_label":"Mile 2","_status_group":"unknown","_states":["Lagos"]},"geometry":{"type":"Point","coordinates":[3.31173,6.45993]}},{"type":"Feature","properties":{"name":"Alaba","_label":"Alaba","_status_group":"unknown","_states":["Lagos"]},"geometry":{"type":"Point","coordinates":[3.32448,6.46439]}},{"type":"Feature","properties":{"name":"National Theatre","_label":"National Theatre","_status_group":"unknown","_states":["Lagos"]},"geometry":{"type":"Point","coordinates":[3.36877,6.47468]}},{"type":"Feature","properties":{"name":"Agbado","_label":"Agbado","_status_group":"unknown","_states":["Ogun"]},"geometry":{"type":"Point","coordinates":[3.30305,6.68707]}},{"type":"Feature","properties":{"name":"Mobolaji Johnson Station","_label":"Mobolaji Johnson Station","_status_group":"unknown","_states":["Lagos"]},"geometry":{"type":"Point","coordinates":[3.37368,6.50177]}},{"type":"Feature","properties":{"name":"Iju","_label":"Iju","_status_group":"unknown","_states":["Lagos"]},"geometry":{"type":"Point","coordinates":[3.31927,6.66208]}},{"type":"Feature","properties":{"name":"Agege","_label":"Agege","_status_group":"unknown","_states":["Lagos"]},"geometry":{"type":"Point","coordinates":[3.32617,6.61946]}},{"type":"Feature","properties":{"name":"Oyingbo","_label":"Oyingbo","_status_group":"unknown","_states":["Lagos"]},"geometry":{"type":"Point","coordinates":[3.38146,6.48343]}},{"type":"Feature","properties":{"name":"Yaba","_label":"Yaba","_status_group":"unknown","_states":["Lagos"]},"geometry":{"type":"Point","coordinates":[3.37,6.51147]}},{"type":"Feature","properties":{"name":"Mushin","_label":"Mushin","_status_group":"unknown","_states":["Lagos"]},"geometry":{"type":"Point","coordinates":[3.36143,6.53248]}},{"type":"Feature","properties":{"name":"Oshodi","_label":"Oshodi","_status_group":"unknown","_states":["Lagos"]},"geometry":{"type":"Point","coordinates":[3.35141,6.55725]}},{"type":"Feature","properties":{"name":"Ikeja","_label":"Ikeja","_status_group":"unknown","_states":["Lagos"]},"geometry":{"type":"Point","coordinates":[3.33735,6.59191]}},{"type":"Feature","properties":{"name":"FH3J+98J, OFFA GARAGE RAILWAY LINE, Offa Garage, Oko Erin 240101, Kwara, Nigeria","_label":"FH3J+98J, OFFA GARAGE RAILWAY LINE, Offa Garage, Oko Erin 240101, Kwara, Nigeria","_status_group":"unknown","_states":["Kwara"]},"geometry":{"type":"Point","coordinates":[4.581,8.45361]}}]}
