{"type":"FeatureCollection","name":"refineries","atlas_release":{"version":"0.6.0","date":"2026-07-24","title":"Structured Distributed Energy and Open Contributions"},"metadata":{"description":"Major Nigerian refinery sites with nameplate capacity and public status context.","source":"Atlas compilation from public reporting","source_date":"2026-07-21","license":"Derived compilation; review underlying sources","quality":"C","quality_note":"Major refineries only; some coordinates are approximate and modular refineries are incomplete.","path":"data/processed/02_infrastructure/refineries_nigeria.csv","key":"refineries","label":"Refineries","category":"infrastructure","category_label":"Infrastructure","record_count":4,"download_url":"https://raw.githubusercontent.com/Diamonds10/Nigeria-gas-atlas/main/data/processed/02_infrastructure/refineries_nigeria.csv"},"features":[{"type":"Feature","properties":{"project":"Port Harcourt Refining Company (old + new plants)","operator":"NNPC","state":"Rivers","status":"operating","capacity_bpd":210000,"commissioned_year":1965,"_label":"Port Harcourt Refining Company (old + new plants)","_status_group":"operating","_year":1965,"_year_label":"Commissioned year","_states":["Rivers"]},"geometry":{"type":"Point","coordinates":[7.11719,4.7856]}},{"type":"Feature","properties":{"project":"Warri Refining and Petrochemical Company","operator":"NNPC","state":"Delta","status":"operating","capacity_bpd":125000,"commissioned_year":1978,"_label":"Warri Refining and Petrochemical Company","_status_group":"operating","_year":1978,"_year_label":"Commissioned year","_states":["Delta"]},"geometry":{"type":"Point","coordinates":[5.71643,5.56637]}},{"type":"Feature","properties":{"project":"Kaduna Refining and Petrochemical Company","operator":"NNPC","state":"Kaduna","status":"operating","capacity_bpd":110000,"commissioned_year":1980,"_label":"Kaduna Refining and Petrochemical Company","_status_group":"operating","_year":1980,"_year_label":"Commissioned year","_states":["Kaduna"]},"geometry":{"type":"Point","coordinates":[7.49021,10.41026]}},{"type":"Feature","properties":{"project":"Dangote Petroleum Refinery","operator":"Dangote Industries","state":"Lagos","status":"operating","capacity_bpd":650000,"commissioned_year":2024,"_label":"Dangote Petroleum Refinery","_status_group":"operating","_year":2024,"_year_label":"Commissioned year","_states":["Lagos"]},"geometry":{"type":"Point","coordinates":[4.01534,6.45599]}}]}
