{"type":"FeatureCollection","name":"standalone_systems","product":{"name":"Infraxis Atlas — Nigeria","master_brand":"Infraxis Atlas","premium_brand":"Infraxis","country":"Nigeria","former_name":"Nigeria Infrastructure Atlas","tagline":"Mapping infrastructure. Measuring disruption.","role":"open_datasource","relationship":"This open atlas is the public datasource and screening layer; Infraxis is the separate premium analytical layer built on top of it."},"atlas_release":{"version":"0.12.1","date":"2026-08-05","title":"Ports State Join, Deferred Bundle, UI Polish"},"metadata":{"description":"Standalone household, shop, facility, or solar-home systems without a local distribution network.","source":"Public-source distributed-energy evidence","source_date":"2026-07-25","license":"Mixed public-source terms; review each record and source","quality":"C","quality_note":"No household-level point is published. State profiles instead carry official programme aggregates and named strong-coverage evidence without exposing beneficiary locations or inventing point precision.","path":"data/processed/07_renewables/renewable_offgrid_minigrid_nigeria.csv","coverage_audit_path":"data/processed/07_renewables/minigrid_state_coverage_audit.csv","supplement_path":"data/curated/07_renewables/verified_public_offgrid_supplement.csv","programme_evidence_path":"data/processed/07_renewables/standalone_solar_programme_evidence.csv","key":"standalone_systems","label":"Standalone Systems","category":"renewables","category_label":"Distributed Energy","record_count":0,"download_url":"https://raw.githubusercontent.com/Diamonds10/infraxis-atlas-nigeria/main/data/processed/07_renewables/renewable_offgrid_minigrid_nigeria.csv","refresh":{"cadence":"quarterly","last_checked":"2026-07-25","next_review_due":"2026-10-25","review_status":"current"},"coverage_audit_url":"https://raw.githubusercontent.com/Diamonds10/infraxis-atlas-nigeria/main/data/processed/07_renewables/minigrid_state_coverage_audit.csv","supplement_url":"https://raw.githubusercontent.com/Diamonds10/infraxis-atlas-nigeria/main/data/curated/07_renewables/verified_public_offgrid_supplement.csv","programme_evidence_url":"https://raw.githubusercontent.com/Diamonds10/infraxis-atlas-nigeria/main/data/processed/07_renewables/standalone_solar_programme_evidence.csv"},"features":[]}
