{"type":"FeatureCollection","name":"substations","atlas_release":{"version":"0.6.0","date":"2026-07-24","title":"Structured Distributed Energy and Open Contributions"},"metadata":{"description":"Mapped electricity substations represented as display points.","source":"OpenStreetMap via Overpass API","source_date":"2026-07-23","license":"ODbL","quality":"B","quality_note":"Footprints are converted to centroids in the web bundle; electrical specifications are incomplete.","path":"data/processed/05_connectivity/osm_power_grid_nigeria.csv","key":"substations","label":"Substations","category":"connectivity","category_label":"Connectivity","record_count":390,"download_url":"https://raw.githubusercontent.com/Diamonds10/nigeria-infrastructure-atlas/main/data/processed/05_connectivity/osm_power_grid_nigeria.csv"},"features":[{"type":"Feature","properties":{"power":"substation","operator":"Transformer","_label":null,"_status_group":"unknown","_states":["Edo"]},"geometry":{"type":"Point","coordinates":[5.5806,6.35724]}},{"type":"Feature","properties":{"power":"substation","operator":"PHCN Substation","_label":null,"_status_group":"unknown","_states":["Edo"]},"geometry":{"type":"Point","coordinates":[5.62399,6.32237]}},{"type":"Feature","properties":{"power":"substation","_label":null,"_status_group":"unknown","_states":["Edo"]},"geometry":{"type":"Point","coordinates":[5.63186,6.32583]}},{"type":"Feature","properties":{"power":"substation","name":"Transformer","_label":"Transformer","_status_group":"unknown","_states":["Edo"]},"geometry":{"type":"Point","coordinates":[5.60758,6.31436]}},{"type":"Feature","properties":{"power":"substation","name":"Transformer","_label":"Transformer","_status_group":"unknown","_states":["Edo"]},"geometry":{"type":"Point","coordinates":[5.62487,6.32611]}},{"type":"Feature","properties":{"power":"substation","operator":"Transformer","_label":null,"_status_group":"unknown","_states":["Edo"]},"geometry":{"type":"Point","coordinates":[5.60564,6.29269]}},{"type":"Feature","properties":{"power":"substation","operator":"Transformer","_label":null,"_status_group":"unknown","_states":["Edo"]},"geometry":{"type":"Point","coordinates":[5.60795,6.29321]}},{"type":"Feature","properties":{"power":"substation","operator":"Transformer","_label":null,"_status_group":"unknown","_states":["Edo"]},"geometry":{"type":"Point","coordinates":[5.60712,6.2948]}},{"type":"Feature","properties":{"power":"substation","operator":"Transformer","_label":null,"_status_group":"unknown","_states":["Edo"]},"geometry":{"type":"Point","coordinates":[5.61271,6.29842]}},{"type":"Feature","properties":{"power":"substation","_label":null,"_status_group":"unknown","_states":["Edo"]},"geometry":{"type":"Point","coordinates":[5.62869,6.32048]}},{"type":"Feature","properties":{"power":"substation","_label":null,"_status_group":"unknown","_states":["Edo"]},"geometry":{"type":"Point","coordinates":[5.60887,6.33624]}},{"type":"Feature","properties":{"power":"substation","_label":null,"_status_group":"unknown","_states":["Edo"]},"geometry":{"type":"Point","coordinates":[5.60515,6.33677]}},{"type":"Feature","properties":{"power":"substation","_label":null,"_status_group":"unknown","_states":["Edo"]},"geometry":{"type":"Point","coordinates":[5.59599,6.32414]}},{"type":"Feature","properties":{"power":"substation","_label":null,"_status_group":"unknown","_states":["Edo"]},"geometry":{"type":"Point","coordinates":[5.61029,6.34569]}},{"type":"Feature","properties":{"power":"substation","_label":null,"_status_group":"unknown","_states":["Edo"]},"geometry":{"type":"Point","coordinates":[5.61232,6.3491]}},{"type":"Feature","properties":{"power":"substation","_label":null,"_status_group":"unknown","_states":["Edo"]},"geometry":{"type":"Point","coordinates":[5.61271,6.34945]}},{"type":"Feature","properties":{"power":"substation","_label":null,"_status_group":"unknown","_states":["Edo"]},"geometry":{"type":"Point","coordinates":[5.60556,6.3497]}},{"type":"Feature","properties":{"power":"substation","name":"Transformer","_label":"Transformer","_status_group":"unknown","_states":["Edo"]},"geometry":{"type":"Point","coordinates":[5.62826,6.35234]}},{"type":"Feature","properties":{"power":"substation","_label":null,"_status_group":"unknown","_states":["Borno"]},"geometry":{"type":"Point","coordinates":[13.77571,13.08726]}},{"type":"Feature","properties":{"power":"substation","name":"Okuru Injection Substation","operator":"PHED","_label":"Okuru Injection Substation","_status_group":"unknown","_states":["Rivers"]},"geometry":{"type":"Point","coordinates":[7.05415,4.79218]}},{"type":"Feature","properties":{"power":"substation","_label":null,"_status_group":"unknown","_states":["Abuja Federal Capital Territory"]},"geometry":{"type":"Point","coordinates":[7.43137,9.07323]}},{"type":"Feature","properties":{"power":"substation","_label":null,"_status_group":"unknown","_states":["Borno"]},"geometry":{"type":"Point","coordinates":[13.14095,11.8114]}},{"type":"Feature","properties":{"power":"substation","name":"Supply","_label":"Supply","_status_group":"unknown","_states":["Kebbi"]},"geometry":{"type":"Point","coordinates":[4.2583,11.6597]}},{"type":"Feature","properties":{"power":"substation","name":"Supply","_label":"Supply","_status_group":"unknown","_states":["Sokoto"]},"geometry":{"type":"Point","coordinates":[5.3278,13.7695]}},{"type":"Feature","properties":{"power":"substation","name":"SUPPLY","_label":"SUPPLY","_status_group":"unknown","_states":["Kebbi"]},"geometry":{"type":"Point","coordinates":[4.3072,11.7184]}},{"type":"Feature","properties":{"power":"substation","voltage":"330000;132000","_label":null,"_status_group":"unknown","_states":["Kaduna"]},"geometry":{"type":"Point","coordinates":[7.41226,10.59171]}},{"type":"Feature","properties":{"power":"substation","voltage":"330000","_label":null,"_status_group":"unknown","_states":["Niger"]},"geometry":{"type":"Point","coordinates":[4.61319,9.86104]}},{"type":"Feature","properties":{"power":"substation","name":"Ikeja West Substation","operator":"Transmission Company of Nigeria","voltage":"330000;132000","_label":"Ikeja West Substation","_status_group":"unknown","_states":["Lagos"]},"geometry":{"type":"Point","coordinates":[3.24793,6.60303]}},{"type":"Feature","properties":{"power":"substation","voltage":"132000","_label":null,"_status_group":"unknown","_states":["Kogi"]},"geometry":{"type":"Point","coordinates":[6.68049,7.53522]}},{"type":"Feature","properties":{"power":"substation","voltage":"330000;132000","_label":null,"_status_group":"unknown","_states":["Kogi"]},"geometry":{"type":"Point","coordinates":[6.65481,7.47203]}},{"type":"Feature","properties":{"power":"substation","voltage":"330000;132000","_label":null,"_status_group":"unknown","_states":["Plateau"]},"geometry":{"type":"Point","coordinates":[8.84612,9.98754]}},{"type":"Feature","properties":{"power":"substation","voltage":"132000","_label":null,"_status_group":"unknown","_states":["Bauchi"]},"geometry":{"type":"Point","coordinates":[9.84962,10.28528]}},{"type":"Feature","properties":{"power":"substation","operator":"JED","voltage":"330000;132000","_label":null,"_status_group":"unknown","_states":["Gombe"]},"geometry":{"type":"Point","coordinates":[11.13836,10.31943]}},{"type":"Feature","properties":{"power":"substation","voltage":"330000;132000","_label":null,"_status_group":"unknown","_states":["Adamawa"]},"geometry":{"type":"Point","coordinates":[12.39201,9.27096]}},{"type":"Feature","properties":{"power":"substation","name":"PHCN Substation Abeokuta New","voltage":"132000","_label":"PHCN Substation Abeokuta New","_status_group":"unknown","_states":["Ogun"]},"geometry":{"type":"Point","coordinates":[3.39156,7.10401]}},{"type":"Feature","properties":{"power":"substation","voltage":"330000","_label":null,"_status_group":"unknown","_states":["Akwa Ibom"]},"geometry":{"type":"Point","coordinates":[7.68054,5.15312]}},{"type":"Feature","properties":{"power":"substation","voltage":"132000","_label":null,"_status_group":"unknown","_states":["Borno"]},"geometry":{"type":"Point","coordinates":[13.13988,11.85652]}},{"type":"Feature","properties":{"power":"substation","voltage":"132000","_label":null,"_status_group":"unknown","_states":["Borno"]},"geometry":{"type":"Point","coordinates":[12.18588,10.63231]}},{"type":"Feature","properties":{"power":"substation","_label":null,"_status_group":"unknown","_states":["Borno"]},"geometry":{"type":"Point","coordinates":[12.19246,10.61736]}},{"type":"Feature","properties":{"power":"substation","_label":null,"_status_group":"unknown","_states":["Borno"]},"geometry":{"type":"Point","coordinates":[12.19216,10.61495]}},{"type":"Feature","properties":{"power":"substation","name":"Dutse Substation","operator":"Transmission Company of Nigeria","voltage":"132000","_label":"Dutse Substation","_status_group":"unknown","_states":["Jigawa"]},"geometry":{"type":"Point","coordinates":[9.3489,11.68994]}},{"type":"Feature","properties":{"power":"substation","name":"Kumbotso Substation","operator":"Transmission Company of Nigeria","voltage":"330000;132000","_label":"Kumbotso Substation","_status_group":"unknown","_states":["Kano"]},"geometry":{"type":"Point","coordinates":[8.47535,11.92818]}},{"type":"Feature","properties":{"power":"substation","name":"Dan Agundi Substation","operator":"KEDCO","voltage":"132000","_label":"Dan Agundi Substation","_status_group":"unknown","_states":["Kano"]},"geometry":{"type":"Point","coordinates":[8.52261,11.98028]}},{"type":"Feature","properties":{"power":"substation","name":"Gusau Substation","operator":"Transmission Company of Nigeria","voltage":"132000","_label":"Gusau Substation","_status_group":"unknown","_states":["Zamfara"]},"geometry":{"type":"Point","coordinates":[6.69894,12.1533]}},{"type":"Feature","properties":{"power":"substation","voltage":"330000;132000","_label":null,"_status_group":"unknown","_states":["Osun"]},"geometry":{"type":"Point","coordinates":[4.57773,7.80094]}},{"type":"Feature","properties":{"power":"substation","voltage":"330000","_label":null,"_status_group":"unknown","_states":["Niger"]},"geometry":{"type":"Point","coordinates":[4.82127,9.16772]}},{"type":"Feature","properties":{"power":"substation","voltage":"132000","_label":null,"_status_group":"unknown","_states":["Rivers"]},"geometry":{"type":"Point","coordinates":[6.96385,4.89489]}},{"type":"Feature","properties":{"power":"substation","name":"Okearo Substation","operator":"Transmission Company of Nigeria","voltage":"330000;132000","_label":"Okearo Substation","_status_group":"unknown","_states":["Ogun"]},"geometry":{"type":"Point","coordinates":[3.31803,6.69549]}},{"type":"Feature","properties":{"power":"substation","voltage":"330000","_label":null,"_status_group":"unknown","_states":["Niger"]},"geometry":{"type":"Point","coordinates":[4.79133,9.14077]}},{"type":"Feature","properties":{"power":"substation","name":"Ikoyi Substation","voltage":"132000","_label":"Ikoyi Substation","_status_group":"unknown","_states":["Lagos"]},"geometry":{"type":"Point","coordinates":[3.42167,6.46212]}},{"type":"Feature","properties":{"power":"substation","voltage":"330000","_label":null,"_status_group":"unknown","_states":["Delta"]},"geometry":{"type":"Point","coordinates":[5.64339,5.92523]}},{"type":"Feature","properties":{"power":"substation","_label":null,"_status_group":"unknown","_states":["Delta"]},"geometry":{"type":"Point","coordinates":[5.9144,5.54112]}},{"type":"Feature","properties":{"power":"substation","_label":null,"_status_group":"unknown","_states":["Delta"]},"geometry":{"type":"Point","coordinates":[5.91604,5.54293]}},{"type":"Feature","properties":{"power":"substation","voltage":"330000;132000","_label":null,"_status_group":"unknown","_states":["Enugu"]},"geometry":{"type":"Point","coordinates":[7.53777,6.4566]}},{"type":"Feature","properties":{"power":"substation","name":"Ijora Substation","voltage":"132000","_label":"Ijora Substation","_status_group":"unknown","_states":["Lagos"]},"geometry":{"type":"Point","coordinates":[3.37929,6.4685]}},{"type":"Feature","properties":{"power":"substation","_label":null,"_status_group":"unknown","_states":["Rivers"]},"geometry":{"type":"Point","coordinates":[7.11605,4.76292]}},{"type":"Feature","properties":{"power":"substation","_label":null,"_status_group":"unknown","_states":["Abia"]},"geometry":{"type":"Point","coordinates":[7.45404,5.51335]}},{"type":"Feature","properties":{"power":"substation","name":"Dakata Substation","operator":"Transmission Company of Nigeria","voltage":"132000","_label":"Dakata Substation","_status_group":"unknown","_states":["Kano"]},"geometry":{"type":"Point","coordinates":[8.58909,12.02294]}},{"type":"Feature","properties":{"power":"substation","voltage":"132000","_label":null,"_status_group":"unknown","_states":["Imo"]},"geometry":{"type":"Point","coordinates":[7.34412,5.80304]}},{"type":"Feature","properties":{"power":"substation","voltage":"132000","_label":null,"_status_group":"unknown","_states":["Abia"]},"geometry":{"type":"Point","coordinates":[7.4985,5.73611]}},{"type":"Feature","properties":{"power":"substation","_label":null,"_status_group":"unknown","_states":["Enugu"]},"geometry":{"type":"Point","coordinates":[7.40798,6.43089]}},{"type":"Feature","properties":{"power":"substation","_label":null,"_status_group":"unknown","_states":["Anambra"]},"geometry":{"type":"Point","coordinates":[7.10648,6.22565]}},{"type":"Feature","properties":{"power":"substation","voltage":"132000","_label":null,"_status_group":"unknown","_states":["Ebonyi"]},"geometry":{"type":"Point","coordinates":[7.7933,6.54242]}},{"type":"Feature","properties":{"power":"substation","voltage":"132000","_label":null,"_status_group":"unknown","_states":["Taraba"]},"geometry":{"type":"Point","coordinates":[11.37922,8.96825]}},{"type":"Feature","properties":{"power":"substation","name":"Shiroro Substation","operator":"Transmission Company of Nigeria","voltage":"330000","_label":"Shiroro Substation","_status_group":"unknown","_states":["Niger"]},"geometry":{"type":"Point","coordinates":[6.83047,9.97253]}},{"type":"Feature","properties":{"power":"substation","name":"Ajah Substation","voltage":"330000;132000","_label":"Ajah Substation","_status_group":"unknown","_states":["Lagos"]},"geometry":{"type":"Point","coordinates":[3.57113,6.47103]}},{"type":"Feature","properties":{"power":"substation","name":"Lokoja Substation","voltage":"330000","_label":"Lokoja Substation","_status_group":"unknown","_states":["Kogi"]},"geometry":{"type":"Point","coordinates":[6.63036,7.82264]}},{"type":"Feature","properties":{"power":"substation","name":"Tamburawa Substation","operator":"Transmission Company of Nigeria","voltage":"132000","_label":"Tamburawa Substation","_status_group":"unknown","_states":["Kano"]},"geometry":{"type":"Point","coordinates":[8.45687,11.87351]}},{"type":"Feature","properties":{"power":"substation","name":"Itakpe Substation","voltage":"132000","_label":"Itakpe Substation","_status_group":"unknown","_states":["Kogi"]},"geometry":{"type":"Point","coordinates":[6.32101,7.61732]}},{"type":"Feature","properties":{"power":"substation","name":"Zaria Substation","operator":"Transmission Company of Nigeria","voltage":"132000","_label":"Zaria Substation","_status_group":"unknown","_states":["Kaduna"]},"geometry":{"type":"Point","coordinates":[7.71218,11.12671]}},{"type":"Feature","properties":{"power":"substation","name":"Damaturu Transmission Substation","voltage":"330000;132000","_label":"Damaturu Transmission Substation","_status_group":"unknown","_states":["Yobe"]},"geometry":{"type":"Point","coordinates":[12.03307,11.72305]}},{"type":"Feature","properties":{"power":"substation","name":"Irua Substation","voltage":"132000","_label":"Irua Substation","_status_group":"unknown","_states":["Edo"]},"geometry":{"type":"Point","coordinates":[6.19724,6.73439]}},{"type":"Feature","properties":{"power":"substation","_label":null,"_status_group":"unknown","_states":["Niger"]},"geometry":{"type":"Point","coordinates":[6.8237,9.97198]}},{"type":"Feature","properties":{"power":"substation","voltage":"330000;132000","_label":null,"_status_group":"unknown","_states":["Abia"]},"geometry":{"type":"Point","coordinates":[7.32225,5.05632]}},{"type":"Feature","properties":{"power":"substation","name":"Minna Substation","operator":"Transmission Company of Nigeria","voltage":"132000","_label":"Minna Substation","_status_group":"unknown","_states":["Niger"]},"geometry":{"type":"Point","coordinates":[6.54173,9.58692]}},{"type":"Feature","properties":{"power":"substation","name":"Bida Substation","operator":"Transmission Company of Nigeria","voltage":"132000","_label":"Bida Substation","_status_group":"unknown","_states":["Niger"]},"geometry":{"type":"Point","coordinates":[6.01813,9.14773]}},{"type":"Feature","properties":{"power":"substation","name":"Azare Substation","operator":"Transmission Company of Nigeria","voltage":"132000","_label":"Azare Substation","_status_group":"unknown","_states":["Bauchi"]},"geometry":{"type":"Point","coordinates":[10.16677,11.68566]}},{"type":"Feature","properties":{"power":"substation","voltage":"132000","_label":null,"_status_group":"unknown","_states":["Plateau"]},"geometry":{"type":"Point","coordinates":[8.87488,9.85485]}},{"type":"Feature","properties":{"power":"substation","name":"Birnin Kebbi Substation","voltage":"330000;132000","_label":"Birnin Kebbi Substation","_status_group":"unknown","_states":["Kebbi"]},"geometry":{"type":"Point","coordinates":[4.19683,12.43711]}},{"type":"Feature","properties":{"power":"substation","voltage":"330000","_label":null,"_status_group":"unknown","_states":["Cross River"]},"geometry":{"type":"Point","coordinates":[8.27428,5.19074]}},{"type":"Feature","properties":{"power":"substation","_label":null,"_status_group":"unknown","_states":["Cross River"]},"geometry":{"type":"Point","coordinates":[8.34084,5.06997]}},{"type":"Feature","properties":{"power":"substation","voltage":"330000;132000","_label":null,"_status_group":"unknown","_states":["Cross River"]},"geometry":{"type":"Point","coordinates":[8.33907,5.07036]}},{"type":"Feature","properties":{"power":"substation","_label":null,"_status_group":"unknown","_states":["Lagos"]},"geometry":{"type":"Point","coordinates":[3.25048,6.60365]}},{"type":"Feature","properties":{"power":"substation","_label":null,"_status_group":"unknown","_states":["Niger"]},"geometry":{"type":"Point","coordinates":[7.2086,9.19863]}},{"type":"Feature","properties":{"power":"substation","voltage":"330000","_label":null,"_status_group":"unknown","_states":["Oyo"]},"geometry":{"type":"Point","coordinates":[3.85567,7.37167]}},{"type":"Feature","properties":{"power":"substation","_label":null,"_status_group":"unknown","_states":["Oyo"]},"geometry":{"type":"Point","coordinates":[3.85655,7.37267]}},{"type":"Feature","properties":{"power":"substation","voltage":"132000","_label":null,"_status_group":"unknown","_states":["Oyo"]},"geometry":{"type":"Point","coordinates":[3.85744,7.37283]}},{"type":"Feature","properties":{"power":"substation","_label":null,"_status_group":"unknown","_states":["Ogun"]},"geometry":{"type":"Point","coordinates":[3.33584,7.11309]}},{"type":"Feature","properties":{"power":"substation","_label":null,"_status_group":"unknown","_states":["Borno"]},"geometry":{"type":"Point","coordinates":[12.78331,11.17919]}},{"type":"Feature","properties":{"power":"substation","name":"Benin Substation","operator":"Transmission Company of Nigeria","voltage":"330000;132000","_label":"Benin Substation","_status_group":"unknown","_states":["Edo"]},"geometry":{"type":"Point","coordinates":[5.63432,6.29589]}},{"type":"Feature","properties":{"power":"substation","name":"Kurra Falls","_label":"Kurra Falls","_status_group":"unknown","_states":["Plateau"]},"geometry":{"type":"Point","coordinates":[8.72807,9.40502]}},{"type":"Feature","properties":{"power":"substation","_label":null,"_status_group":"unknown","_states":["Plateau"]},"geometry":{"type":"Point","coordinates":[8.87381,9.48102]}},{"type":"Feature","properties":{"power":"substation","_label":null,"_status_group":"unknown","_states":["Plateau"]},"geometry":{"type":"Point","coordinates":[8.89467,9.54468]}},{"type":"Feature","properties":{"power":"substation","_label":null,"_status_group":"unknown","_states":["Plateau"]},"geometry":{"type":"Point","coordinates":[8.8646,9.78389]}},{"type":"Feature","properties":{"power":"substation","_label":null,"_status_group":"unknown","_states":["Rivers"]},"geometry":{"type":"Point","coordinates":[6.66631,5.38416]}},{"type":"Feature","properties":{"power":"substation","voltage":"132000","_label":null,"_status_group":"unknown","_states":["Plateau"]},"geometry":{"type":"Point","coordinates":[9.42461,9.34292]}},{"type":"Feature","properties":{"power":"substation","voltage":"132000","_label":null,"_status_group":"unknown","_states":["Akwa Ibom"]},"geometry":{"type":"Point","coordinates":[7.56888,4.56428]}},{"type":"Feature","properties":{"power":"substation","voltage":"330000","_label":null,"_status_group":"unknown","_states":["Ogun"]},"geometry":{"type":"Point","coordinates":[3.3142,6.8856]}},{"type":"Feature","properties":{"power":"substation","_label":null,"_status_group":"unknown","_states":["Rivers"]},"geometry":{"type":"Point","coordinates":[7.25138,4.85212]}},{"type":"Feature","properties":{"power":"substation","_label":null,"_status_group":"unknown","_states":["Rivers"]},"geometry":{"type":"Point","coordinates":[7.25573,4.84975]}},{"type":"Feature","properties":{"power":"substation","_label":null,"_status_group":"unknown","_states":["Rivers"]},"geometry":{"type":"Point","coordinates":[7.25473,4.85023]}},{"type":"Feature","properties":{"power":"substation","_label":null,"_status_group":"unknown","_states":["Rivers"]},"geometry":{"type":"Point","coordinates":[7.25385,4.85033]}},{"type":"Feature","properties":{"power":"substation","_label":null,"_status_group":"unknown","_states":["Rivers"]},"geometry":{"type":"Point","coordinates":[7.08258,4.84542]}},{"type":"Feature","properties":{"power":"substation","_label":null,"_status_group":"unknown","_states":["Bayelsa"]},"geometry":{"type":"Point","coordinates":[6.32845,4.99019]}},{"type":"Feature","properties":{"power":"substation","_label":null,"_status_group":"unknown","_states":["Bayelsa"]},"geometry":{"type":"Point","coordinates":[6.30143,5.02944]}},{"type":"Feature","properties":{"power":"substation","_label":null,"_status_group":"unknown","_states":[]},"geometry":{"type":"Point","coordinates":[8.68131,9.38809]}},{"type":"Feature","properties":{"power":"substation","voltage":"132000","_label":null,"_status_group":"unknown","_states":["Enugu"]},"geometry":{"type":"Point","coordinates":[7.4295,6.85028]}},{"type":"Feature","properties":{"power":"substation","voltage":"330000;132000","_label":null,"_status_group":"unknown","_states":["Benue"]},"geometry":{"type":"Point","coordinates":[8.56963,7.62661]}},{"type":"Feature","properties":{"power":"substation","name":"Apo Substation","operator":"Transmission Comapny of Nigeria","voltage":"132000","_label":"Apo Substation","_status_group":"unknown","_states":["Abuja Federal Capital Territory"]},"geometry":{"type":"Point","coordinates":[7.49047,9.001]}},{"type":"Feature","properties":{"power":"substation","_label":null,"_status_group":"unknown","_states":["Nasarawa"]},"geometry":{"type":"Point","coordinates":[7.86335,8.80534]}},{"type":"Feature","properties":{"power":"substation","voltage":"132000","_label":null,"_status_group":"unknown","_states":["Nasarawa"]},"geometry":{"type":"Point","coordinates":[8.39702,8.89938]}},{"type":"Feature","properties":{"power":"substation","voltage":"132000","_label":null,"_status_group":"unknown","_states":["Yobe"]},"geometry":{"type":"Point","coordinates":[11.07182,11.70287]}},{"type":"Feature","properties":{"power":"substation","_label":null,"_status_group":"unknown","_states":["Gombe"]},"geometry":{"type":"Point","coordinates":[11.47738,10.93263]}},{"type":"Feature","properties":{"power":"substation","name":"Kankiya Substation","operator":"Transmission Company of Nigeria","voltage":"132000","_label":"Kankiya Substation","_status_group":"unknown","_states":["Katsina"]},"geometry":{"type":"Point","coordinates":[7.84534,12.55102]}},{"type":"Feature","properties":{"power":"substation","name":"Katsina Substation","operator":"Transmission Company of Nigeria","voltage":"132000","_label":"Katsina Substation","_status_group":"unknown","_states":["Katsina"]},"geometry":{"type":"Point","coordinates":[7.61727,12.96869]}},{"type":"Feature","properties":{"power":"substation","voltage":"132000","_label":null,"_status_group":"unknown","_states":["Kogi"]},"geometry":{"type":"Point","coordinates":[6.21773,7.54948]}},{"type":"Feature","properties":{"power":"substation","voltage":"132000","_label":null,"_status_group":"unknown","_states":["Edo"]},"geometry":{"type":"Point","coordinates":[6.36767,7.3154]}},{"type":"Feature","properties":{"power":"substation","name":"Gwagwalada Substation","voltage":"330000","_label":"Gwagwalada Substation","_status_group":"unknown","_states":["Abuja Federal Capital Territory"]},"geometry":{"type":"Point","coordinates":[7.07373,8.97681]}},{"type":"Feature","properties":{"power":"substation","name":"Kukwaba Substation","operator":"Transmission Company of Nigeria","voltage":"132000","_label":"Kukwaba Substation","_status_group":"unknown","_states":["Abuja Federal Capital Territory"]},"geometry":{"type":"Point","coordinates":[7.44201,9.02505]}},{"type":"Feature","properties":{"power":"substation","name":"Daura Substation","operator":"Transmission Company of Nigeria","voltage":"132000","_label":"Daura Substation","_status_group":"unknown","_states":["Katsina"]},"geometry":{"type":"Point","coordinates":[8.30056,13.02575]}},{"type":"Feature","properties":{"power":"substation","_label":null,"_status_group":"unknown","_states":["Katsina"]},"geometry":{"type":"Point","coordinates":[8.30159,13.02514]}},{"type":"Feature","properties":{"power":"substation","_label":null,"_status_group":"unknown","_states":["Enugu"]},"geometry":{"type":"Point","coordinates":[7.55814,6.40295]}},{"type":"Feature","properties":{"power":"substation","name":"Katampe Substation","voltage":"330000;132000","_label":"Katampe Substation","_status_group":"unknown","_states":["Abuja Federal Capital Territory"]},"geometry":{"type":"Point","coordinates":[7.47667,9.11488]}},{"type":"Feature","properties":{"power":"substation","_label":null,"_status_group":"unknown","_states":["Oyo"]},"geometry":{"type":"Point","coordinates":[3.87015,7.45053]}},{"type":"Feature","properties":{"power":"substation","name":"Omotosho Substation","voltage":"330000","_label":"Omotosho Substation","_status_group":"unknown","_states":["Ondo"]},"geometry":{"type":"Point","coordinates":[4.70905,6.73483]}},{"type":"Feature","properties":{"power":"substation","voltage":"132000","_label":null,"_status_group":"unknown","_states":["Akwa Ibom"]},"geometry":{"type":"Point","coordinates":[7.92296,4.65173]}},{"type":"Feature","properties":{"power":"substation","name":"Sokoto Substation","operator":"Transmission Company of Nigeria","voltage":"132000","_label":"Sokoto Substation","_status_group":"unknown","_states":["Sokoto"]},"geometry":{"type":"Point","coordinates":[5.2071,13.02843]}},{"type":"Feature","properties":{"power":"substation","name":"Tegina Substation","operator":"Transmission Company of Nigeria","voltage":"132000","_label":"Tegina Substation","_status_group":"unknown","_states":["Niger"]},"geometry":{"type":"Point","coordinates":[6.17895,10.08068]}},{"type":"Feature","properties":{"power":"substation","_label":null,"_status_group":"unknown","_states":["Borno"]},"geometry":{"type":"Point","coordinates":[13.77571,13.08726]}},{"type":"Feature","properties":{"power":"substation","voltage":"132000","_label":null,"_status_group":"unknown","_states":["Delta"]},"geometry":{"type":"Point","coordinates":[5.79176,5.56021]}},{"type":"Feature","properties":{"power":"substation","voltage":"132000","_label":null,"_status_group":"unknown","_states":["Kaduna"]},"geometry":{"type":"Point","coordinates":[7.37234,10.46059]}},{"type":"Feature","properties":{"power":"substation","voltage":"132000","_label":null,"_status_group":"unknown","_states":["Kaduna"]},"geometry":{"type":"Point","coordinates":[7.73187,9.64564]}},{"type":"Feature","properties":{"power":"substation","name":"Yelwa Substation","operator":"Transmission Company of Nigeria","voltage":"132000","_label":"Yelwa Substation","_status_group":"unknown","_states":["Kebbi"]},"geometry":{"type":"Point","coordinates":[4.75282,10.81156]}},{"type":"Feature","properties":{"power":"substation","voltage":"132000","_label":null,"_status_group":"unknown","_states":["Oyo"]},"geometry":{"type":"Point","coordinates":[3.60959,7.96647]}},{"type":"Feature","properties":{"power":"substation","voltage":"132000","_label":null,"_status_group":"unknown","_states":["Ondo"]},"geometry":{"type":"Point","coordinates":[4.84015,7.05624]}},{"type":"Feature","properties":{"power":"substation","name":"Funtua Substation","operator":"Transmission Company of Nigeria","voltage":"132000","_label":"Funtua Substation","_status_group":"unknown","_states":["Katsina"]},"geometry":{"type":"Point","coordinates":[7.32574,11.52839]}},{"type":"Feature","properties":{"power":"substation","voltage":"132000","_label":null,"_status_group":"unknown","_states":["Abuja Federal Capital Territory"]},"geometry":{"type":"Point","coordinates":[7.50739,9.09166]}},{"type":"Feature","properties":{"power":"substation","name":"Ihovbor","operator":"Transmission Company of Nigeria","voltage":"330000;132000","_label":"Ihovbor","_status_group":"unknown","_states":["Edo"]},"geometry":{"type":"Point","coordinates":[5.68532,6.4072]}},{"type":"Feature","properties":{"power":"substation","_label":null,"_status_group":"unknown","_states":["Rivers"]},"geometry":{"type":"Point","coordinates":[6.6641,5.38935]}},{"type":"Feature","properties":{"power":"substation","_label":null,"_status_group":"unknown","_states":["Plateau"]},"geometry":{"type":"Point","coordinates":[8.86464,9.78345]}},{"type":"Feature","properties":{"power":"substation","_label":null,"_status_group":"unknown","_states":["Abia"]},"geometry":{"type":"Point","coordinates":[7.32295,5.06651]}},{"type":"Feature","properties":{"power":"substation","_label":null,"_status_group":"unknown","_states":["Abia"]},"geometry":{"type":"Point","coordinates":[7.35559,5.10016]}},{"type":"Feature","properties":{"power":"substation","voltage":"330000","_label":null,"_status_group":"unknown","_states":["Delta"]},"geometry":{"type":"Point","coordinates":[6.57542,5.71115]}},{"type":"Feature","properties":{"power":"substation","name":"UNILAG Substation","voltage":"132000","_label":"UNILAG Substation","_status_group":"unknown","_states":["Lagos"]},"geometry":{"type":"Point","coordinates":[3.39602,6.52091]}},{"type":"Feature","properties":{"power":"substation","_label":null,"_status_group":"unknown","_states":["Lagos"]},"geometry":{"type":"Point","coordinates":[3.47623,6.44756]}},{"type":"Feature","properties":{"power":"substation","name":"National Integrated Power Project Lekki Substation","_label":"National Integrated Power Project Lekki Substation","_status_group":"unknown","_states":["Lagos"]},"geometry":{"type":"Point","coordinates":[3.50352,6.43535]}},{"type":"Feature","properties":{"power":"substation","voltage":"330000;132000","_label":null,"_status_group":"unknown","_states":["Borno"]},"geometry":{"type":"Point","coordinates":[13.08207,11.74032]}},{"type":"Feature","properties":{"power":"substation","voltage":"132000","_label":null,"_status_group":"unknown","_states":["Rivers"]},"geometry":{"type":"Point","coordinates":[7.22646,4.8339]}},{"type":"Feature","properties":{"power":"substation","_label":null,"_status_group":"unknown","_states":["Ebonyi"]},"geometry":{"type":"Point","coordinates":[8.08527,6.34459]}},{"type":"Feature","properties":{"power":"substation","name":"Oji River 132KV/33KV Transmission Station","voltage":"132000;33000","_label":"Oji River 132KV/33KV Transmission Station","_status_group":"unknown","_states":["Enugu"]},"geometry":{"type":"Point","coordinates":[7.27261,6.25788]}},{"type":"Feature","properties":{"power":"substation","name":"Hadejia substation","voltage":"132000","_label":"Hadejia substation","_status_group":"unknown","_states":["Jigawa"]},"geometry":{"type":"Point","coordinates":[10.02477,12.47221]}},{"type":"Feature","properties":{"power":"substation","name":"Talata Mafara Substation","operator":"Transmission Company of Nigeria","voltage":"132000","_label":"Talata Mafara Substation","_status_group":"unknown","_states":["Zamfara"]},"geometry":{"type":"Point","coordinates":[6.03236,12.62538]}},{"type":"Feature","properties":{"power":"substation","name":"Kontagora Substation","operator":"Transmission Company of Nigeria","voltage":"132000","_label":"Kontagora Substation","_status_group":"unknown","_states":["Niger"]},"geometry":{"type":"Point","coordinates":[5.46122,10.38028]}},{"type":"Feature","properties":{"power":"substation","name":"Egbin Substation","operator":"Transmission Company of Nigeria","voltage":"330000;132000","_label":"Egbin Substation","_status_group":"unknown","_states":["Lagos"]},"geometry":{"type":"Point","coordinates":[3.61467,6.56552]}},{"type":"Feature","properties":{"power":"substation","voltage":"132000","_label":null,"_status_group":"unknown","_states":["Lagos"]},"geometry":{"type":"Point","coordinates":[3.52986,6.67301]}},{"type":"Feature","properties":{"power":"substation","voltage":"330000;132000","_label":null,"_status_group":"unknown","_states":["Anambra"]},"geometry":{"type":"Point","coordinates":[6.80241,6.11684]}},{"type":"Feature","properties":{"power":"substation","voltage":"132000","_label":null,"_status_group":"unknown","_states":["Niger"]},"geometry":{"type":"Point","coordinates":[4.54173,9.84797]}},{"type":"Feature","properties":{"power":"substation","voltage":"330000;132000","_label":null,"_status_group":"unknown","_states":["Niger"]},"geometry":{"type":"Point","coordinates":[4.60871,9.85654]}},{"type":"Feature","properties":{"power":"substation","voltage":"132000","_label":null,"_status_group":"unknown","_states":["Osun"]},"geometry":{"type":"Point","coordinates":[4.15488,7.62771]}},{"type":"Feature","properties":{"power":"substation","voltage":"132000","_label":null,"_status_group":"unknown","_states":["Kwara"]},"geometry":{"type":"Point","coordinates":[5.0955,8.15233]}},{"type":"Feature","properties":{"power":"substation","_label":null,"_status_group":"unknown","_states":["Kwara"]},"geometry":{"type":"Point","coordinates":[4.70484,8.18328]}},{"type":"Feature","properties":{"power":"substation","voltage":"132000","_label":null,"_status_group":"unknown","_states":["Kaduna"]},"geometry":{"type":"Point","coordinates":[8.3397,9.58811]}},{"type":"Feature","properties":{"power":"substation","voltage":"330000","_label":null,"_status_group":"unknown","_states":["Lagos"]},"geometry":{"type":"Point","coordinates":[3.347,6.49499]}},{"type":"Feature","properties":{"power":"substation","_label":null,"_status_group":"unknown","_states":["Ondo"]},"geometry":{"type":"Point","coordinates":[5.13719,7.29887]}},{"type":"Feature","properties":{"power":"substation","_label":null,"_status_group":"unknown","_states":["Ondo"]},"geometry":{"type":"Point","coordinates":[5.13727,7.29891]}},{"type":"Feature","properties":{"power":"substation","name":"NIPP 132/33KV Sub-station","operator":"NIPP","_label":"NIPP 132/33KV Sub-station","_status_group":"unknown","_states":["Akwa Ibom"]},"geometry":{"type":"Point","coordinates":[7.58301,4.56743]}},{"type":"Feature","properties":{"power":"substation","name":"Gbagada Substation","_label":"Gbagada Substation","_status_group":"unknown","_states":["Lagos"]},"geometry":{"type":"Point","coordinates":[3.38887,6.55041]}},{"type":"Feature","properties":{"power":"substation","_label":null,"_status_group":"unknown","_states":["Lagos"]},"geometry":{"type":"Point","coordinates":[3.3357,6.61815]}},{"type":"Feature","properties":{"power":"substation","_label":null,"_status_group":"unknown","_states":["Lagos"]},"geometry":{"type":"Point","coordinates":[3.52317,6.58612]}},{"type":"Feature","properties":{"power":"substation","_label":null,"_status_group":"unknown","_states":["Lagos"]},"geometry":{"type":"Point","coordinates":[3.50608,6.62505]}},{"type":"Feature","properties":{"power":"substation","_label":null,"_status_group":"unknown","_states":["Lagos"]},"geometry":{"type":"Point","coordinates":[3.52485,6.67892]}},{"type":"Feature","properties":{"power":"substation","voltage":"330000","_label":null,"_status_group":"unknown","_states":["Rivers"]},"geometry":{"type":"Point","coordinates":[7.15633,4.76211]}},{"type":"Feature","properties":{"power":"substation","_label":null,"_status_group":"unknown","_states":["Lagos"]},"geometry":{"type":"Point","coordinates":[3.66972,6.67036]}},{"type":"Feature","properties":{"power":"substation","name":"Electrical Area","_label":"Electrical Area","_status_group":"unknown","_states":["Ondo"]},"geometry":{"type":"Point","coordinates":[5.13658,7.3009]}},{"type":"Feature","properties":{"power":"substation","voltage":"330000","_label":null,"_status_group":"unknown","_states":["Ogun"]},"geometry":{"type":"Point","coordinates":[3.31326,6.88196]}},{"type":"Feature","properties":{"power":"substation","_label":null,"_status_group":"unknown","_states":["Edo"]},"geometry":{"type":"Point","coordinates":[5.68212,6.41064]}},{"type":"Feature","properties":{"power":"substation","_label":null,"_status_group":"unknown","_states":["Kogi"]},"geometry":{"type":"Point","coordinates":[6.65799,7.47009]}},{"type":"Feature","properties":{"power":"substation","_label":null,"_status_group":"unknown","_states":["Akwa Ibom"]},"geometry":{"type":"Point","coordinates":[7.57455,4.56772]}},{"type":"Feature","properties":{"power":"substation","_label":null,"_status_group":"unknown","_states":["Imo"]},"geometry":{"type":"Point","coordinates":[6.73936,5.56529]}},{"type":"Feature","properties":{"power":"substation","_label":null,"_status_group":"unknown","_states":["Edo"]},"geometry":{"type":"Point","coordinates":[5.68184,6.41078]}},{"type":"Feature","properties":{"power":"substation","_label":null,"_status_group":"unknown","_states":["Ogun"]},"geometry":{"type":"Point","coordinates":[3.52791,6.7446]}},{"type":"Feature","properties":{"power":"substation","_label":null,"_status_group":"unknown","_states":["Ogun"]},"geometry":{"type":"Point","coordinates":[3.52807,6.74546]}},{"type":"Feature","properties":{"power":"substation","_label":null,"_status_group":"unknown","_states":["Abia"]},"geometry":{"type":"Point","coordinates":[7.24706,4.90048]}},{"type":"Feature","properties":{"power":"substation","name":"Substation","_label":"Substation","_status_group":"unknown","_states":["Lagos"]},"geometry":{"type":"Point","coordinates":[3.38784,6.41186]}},{"type":"Feature","properties":{"power":"substation","_label":null,"_status_group":"unknown","_states":["Rivers"]},"geometry":{"type":"Point","coordinates":[6.66348,5.38393]}},{"type":"Feature","properties":{"power":"substation","_label":null,"_status_group":"unknown","_states":["Rivers"]},"geometry":{"type":"Point","coordinates":[6.66034,5.06571]}},{"type":"Feature","properties":{"power":"substation","voltage":"330000;132000","_label":null,"_status_group":"unknown","_states":["Delta"]},"geometry":{"type":"Point","coordinates":[6.67235,6.18163]}},{"type":"Feature","properties":{"power":"substation","_label":null,"_status_group":"unknown","_states":["Rivers"]},"geometry":{"type":"Point","coordinates":[7.03512,4.83166]}},{"type":"Feature","properties":{"power":"substation","_label":null,"_status_group":"unknown","_states":["Delta"]},"geometry":{"type":"Point","coordinates":[5.70072,5.93156]}},{"type":"Feature","properties":{"power":"substation","voltage":"132000","_label":null,"_status_group":"unknown","_states":["Edo"]},"geometry":{"type":"Point","coordinates":[5.37793,6.71533]}},{"type":"Feature","properties":{"power":"substation","name":"Dangora Substation","operator":"Transmission Company of Nigeria","voltage":"132000","_label":"Dangora Substation","_status_group":"unknown","_states":["Kano"]},"geometry":{"type":"Point","coordinates":[8.19073,11.47863]}},{"type":"Feature","properties":{"power":"substation","voltage":"132000","_label":null,"_status_group":"unknown","_states":["Delta"]},"geometry":{"type":"Point","coordinates":[6.21632,6.24011]}},{"type":"Feature","properties":{"power":"substation","voltage":"330000;132000","_label":null,"_status_group":"unknown","_states":["Katsina"]},"geometry":{"type":"Point","coordinates":[7.62048,12.95578]}},{"type":"Feature","properties":{"power":"substation","_label":null,"_status_group":"unknown","_states":["Kano"]},"geometry":{"type":"Point","coordinates":[8.43854,12.00271]}},{"type":"Feature","properties":{"power":"substation","_label":null,"_status_group":"unknown","_states":["Sokoto"]},"geometry":{"type":"Point","coordinates":[5.20847,13.12675]}},{"type":"Feature","properties":{"power":"substation","_label":null,"_status_group":"unknown","_states":["Plateau"]},"geometry":{"type":"Point","coordinates":[8.72315,9.40816]}},{"type":"Feature","properties":{"power":"substation","_label":null,"_status_group":"unknown","_states":["Plateau"]},"geometry":{"type":"Point","coordinates":[8.75875,9.36045]}},{"type":"Feature","properties":{"power":"substation","_label":null,"_status_group":"unknown","_states":["Plateau"]},"geometry":{"type":"Point","coordinates":[8.73969,9.36215]}},{"type":"Feature","properties":{"power":"substation","voltage":"330000;132000","_label":null,"_status_group":"unknown","_states":["Abuja Federal Capital Territory"]},"geometry":{"type":"Point","coordinates":[7.37278,9.00808]}},{"type":"Feature","properties":{"power":"substation","_label":null,"_status_group":"unknown","_states":["Benue"]},"geometry":{"type":"Point","coordinates":[8.98753,7.40564]}},{"type":"Feature","properties":{"power":"substation","_label":null,"_status_group":"unknown","_states":["Ogun"]},"geometry":{"type":"Point","coordinates":[3.19537,6.66717]}},{"type":"Feature","properties":{"power":"substation","_label":null,"_status_group":"unknown","_states":["Ogun"]},"geometry":{"type":"Point","coordinates":[3.20148,6.67398]}},{"type":"Feature","properties":{"power":"substation","_label":null,"_status_group":"unknown","_states":["Ogun"]},"geometry":{"type":"Point","coordinates":[3.19862,6.67487]}},{"type":"Feature","properties":{"power":"substation","_label":null,"_status_group":"unknown","_states":["Ogun"]},"geometry":{"type":"Point","coordinates":[3.197,6.67425]}},{"type":"Feature","properties":{"power":"substation","_label":null,"_status_group":"unknown","_states":["Ogun"]},"geometry":{"type":"Point","coordinates":[3.19393,6.67585]}},{"type":"Feature","properties":{"power":"substation","_label":null,"_status_group":"unknown","_states":["Lagos"]},"geometry":{"type":"Point","coordinates":[3.37168,6.47034]}},{"type":"Feature","properties":{"power":"substation","_label":null,"_status_group":"unknown","_states":["Lagos"]},"geometry":{"type":"Point","coordinates":[3.53117,6.6703]}},{"type":"Feature","properties":{"power":"substation","_label":null,"_status_group":"unknown","_states":["Ogun"]},"geometry":{"type":"Point","coordinates":[3.52528,6.73025]}},{"type":"Feature","properties":{"power":"substation","_label":null,"_status_group":"unknown","_states":["Ogun"]},"geometry":{"type":"Point","coordinates":[3.52197,6.7196]}},{"type":"Feature","properties":{"power":"substation","name":"Cadbury Nigeria","_label":"Cadbury Nigeria","_status_group":"unknown","_states":["Lagos"]},"geometry":{"type":"Point","coordinates":[3.34953,6.62217]}},{"type":"Feature","properties":{"power":"substation","_label":null,"_status_group":"unknown","_states":["Delta"]},"geometry":{"type":"Point","coordinates":[5.83848,5.56931]}},{"type":"Feature","properties":{"power":"substation","name":"Dawaki","_label":"Dawaki","_status_group":"unknown","_states":["Abuja Federal Capital Territory"]},"geometry":{"type":"Point","coordinates":[7.40194,9.12519]}},{"type":"Feature","properties":{"power":"substation","_label":null,"_status_group":"unknown","_states":["Taraba"]},"geometry":{"type":"Point","coordinates":[9.81102,7.84071]}},{"type":"Feature","properties":{"power":"substation","_label":null,"_status_group":"unknown","_states":["Ogun"]},"geometry":{"type":"Point","coordinates":[3.62135,6.79543]}},{"type":"Feature","properties":{"power":"substation","voltage":"330000","_label":null,"_status_group":"unknown","_states":["Ogun"]},"geometry":{"type":"Point","coordinates":[3.55449,6.77116]}},{"type":"Feature","properties":{"power":"substation","name":"Substation of Sinohydro Zungeru Hydropower project","voltage":"330000;132000","_label":"Substation of Sinohydro Zungeru Hydropower project","_status_group":"unknown","_states":["Niger"]},"geometry":{"type":"Point","coordinates":[6.2883,9.89794]}},{"type":"Feature","properties":{"power":"substation","_label":null,"_status_group":"unknown","_states":["Kogi"]},"geometry":{"type":"Point","coordinates":[6.65902,7.47212]}},{"type":"Feature","properties":{"power":"substation","_label":null,"_status_group":"unknown","_states":["Abuja Federal Capital Territory"]},"geometry":{"type":"Point","coordinates":[7.47873,9.11423]}},{"type":"Feature","properties":{"power":"substation","voltage":"132000","_label":null,"_status_group":"unknown","_states":["Abuja Federal Capital Territory"]},"geometry":{"type":"Point","coordinates":[7.4523,9.04914]}},{"type":"Feature","properties":{"power":"substation","name":"Gamo Substation","voltage":"330000;132000","_label":"Gamo Substation","_status_group":"unknown","_states":["Kwara"]},"geometry":{"type":"Point","coordinates":[4.60349,8.40931]}},{"type":"Feature","properties":{"power":"substation","voltage":"132000","_label":null,"_status_group":"unknown","_states":["Kwara"]},"geometry":{"type":"Point","coordinates":[4.67358,8.39016]}},{"type":"Feature","properties":{"power":"substation","voltage":"132000","_label":null,"_status_group":"unknown","_states":["Ogun"]},"geometry":{"type":"Point","coordinates":[3.20685,6.65462]}},{"type":"Feature","properties":{"power":"substation","voltage":"132000","_label":null,"_status_group":"unknown","_states":["Gombe"]},"geometry":{"type":"Point","coordinates":[11.47933,10.31982]}},{"type":"Feature","properties":{"power":"substation","_label":null,"_status_group":"unknown","_states":["Taraba"]},"geometry":{"type":"Point","coordinates":[9.91323,7.23973]}},{"type":"Feature","properties":{"power":"substation","_label":null,"_status_group":"unknown","_states":["Niger"]},"geometry":{"type":"Point","coordinates":[6.4059,9.63566]}},{"type":"Feature","properties":{"power":"substation","_label":null,"_status_group":"unknown","_states":["Cross River"]},"geometry":{"type":"Point","coordinates":[8.33204,4.93093]}},{"type":"Feature","properties":{"power":"substation","_label":null,"_status_group":"unknown","_states":["Plateau"]},"geometry":{"type":"Point","coordinates":[9.78916,9.15298]}},{"type":"Feature","properties":{"power":"substation","_label":null,"_status_group":"unknown","_states":["Anambra"]},"geometry":{"type":"Point","coordinates":[7.08251,6.23852]}},{"type":"Feature","properties":{"power":"substation","_label":null,"_status_group":"unknown","_states":["Anambra"]},"geometry":{"type":"Point","coordinates":[6.9576,5.98313]}},{"type":"Feature","properties":{"power":"substation","_label":null,"_status_group":"unknown","_states":["Anambra"]},"geometry":{"type":"Point","coordinates":[7.10533,6.22487]}},{"type":"Feature","properties":{"power":"substation","name":"Oke Ola Power Station Okuku","_label":"Oke Ola Power Station Okuku","_status_group":"unknown","_states":["Osun"]},"geometry":{"type":"Point","coordinates":[4.67905,8.02903]}},{"type":"Feature","properties":{"power":"substation","name":"Ijero Electricity Substation","_label":"Ijero Electricity Substation","_status_group":"unknown","_states":["Ekiti"]},"geometry":{"type":"Point","coordinates":[5.07534,7.82037]}},{"type":"Feature","properties":{"power":"substation","_label":null,"_status_group":"unknown","_states":["Oyo"]},"geometry":{"type":"Point","coordinates":[3.42146,7.62625]}},{"type":"Feature","properties":{"power":"substation","name":"Aguleri Electricity Substation","_label":"Aguleri Electricity Substation","_status_group":"unknown","_states":["Anambra"]},"geometry":{"type":"Point","coordinates":[6.8744,6.33283]}},{"type":"Feature","properties":{"power":"substation","name":"132kv 33kv Transformer Station","voltage":"132000;33000","_label":"132kv 33kv Transformer Station","_status_group":"unknown","_states":["Osun"]},"geometry":{"type":"Point","coordinates":[4.5043,7.49801]}},{"type":"Feature","properties":{"power":"substation","name":"National Integrated Power Project Ilerin","_label":"National Integrated Power Project Ilerin","_status_group":"unknown","_states":["Osun"]},"geometry":{"type":"Point","coordinates":[4.76953,7.60121]}},{"type":"Feature","properties":{"power":"substation","name":"Olunde Electricity","_label":"Olunde Electricity","_status_group":"unknown","_states":["Oyo"]},"geometry":{"type":"Point","coordinates":[3.92366,7.31341]}},{"type":"Feature","properties":{"power":"substation","name":"National Integrated Power Project","_label":"National Integrated Power Project","_status_group":"unknown","_states":["Ekiti"]},"geometry":{"type":"Point","coordinates":[5.23432,7.60071]}},{"type":"Feature","properties":{"power":"substation","name":"33 11kva Injection Substation Mokola","_label":"33 11kva Injection Substation Mokola","_status_group":"unknown","_states":["Oyo"]},"geometry":{"type":"Point","coordinates":[3.89606,7.40464]}},{"type":"Feature","properties":{"power":"substation","name":"Phnc Substation","_label":"Phnc Substation","_status_group":"unknown","_states":["Cross River"]},"geometry":{"type":"Point","coordinates":[8.79239,6.67049]}},{"type":"Feature","properties":{"power":"substation","_label":null,"_status_group":"unknown","_states":["Ekiti"]},"geometry":{"type":"Point","coordinates":[5.39953,7.46426]}},{"type":"Feature","properties":{"power":"substation","name":"Geometrics Power Substation","_label":"Geometrics Power Substation","_status_group":"unknown","_states":["Abia"]},"geometry":{"type":"Point","coordinates":[7.38684,5.14642]}},{"type":"Feature","properties":{"power":"substation","name":"Substation Fadahunsi Road","_label":"Substation Fadahunsi Road","_status_group":"unknown","_states":["Osun"]},"geometry":{"type":"Point","coordinates":[4.7797,7.62619]}},{"type":"Feature","properties":{"power":"substation","name":"Transmission Company Of Nigeria","_label":"Transmission Company Of Nigeria","_status_group":"unknown","_states":["Lagos"]},"geometry":{"type":"Point","coordinates":[3.303,6.53998]}},{"type":"Feature","properties":{"power":"substation","name":"Electricity In Idawojo","_label":"Electricity In Idawojo","_status_group":"unknown","_states":["Lagos"]},"geometry":{"type":"Point","coordinates":[3.08424,6.50459]}},{"type":"Feature","properties":{"power":"substation","name":"National Integrated Power Project 2","_label":"National Integrated Power Project 2","_status_group":"unknown","_states":["Lagos"]},"geometry":{"type":"Point","coordinates":[3.35147,6.6098]}},{"type":"Feature","properties":{"power":"substation","name":"Maryland Transmission Station","_label":"Maryland Transmission Station","_status_group":"unknown","_states":["Lagos"]},"geometry":{"type":"Point","coordinates":[3.36926,6.57288]}},{"type":"Feature","properties":{"power":"substation","name":"National Electrical Power Authority","_label":"National Electrical Power Authority","_status_group":"unknown","_states":["Lagos"]},"geometry":{"type":"Point","coordinates":[3.28715,6.60472]}},{"type":"Feature","properties":{"power":"substation","name":"Ijoga Injection Substation","_label":"Ijoga Injection Substation","_status_group":"unknown","_states":["Ogun"]},"geometry":{"type":"Point","coordinates":[3.02521,7.23016]}},{"type":"Feature","properties":{"power":"substation","name":"Transmission Company Of Nigeria 132/33kv","voltage":"132000;33000","_label":"Transmission Company Of Nigeria 132/33kv","_status_group":"unknown","_states":["Ogun"]},"geometry":{"type":"Point","coordinates":[3.6535,6.86365]}},{"type":"Feature","properties":{"power":"substation","name":"Nipp Distribution Projects","_label":"Nipp Distribution Projects","_status_group":"unknown","_states":["Lagos"]},"geometry":{"type":"Point","coordinates":[3.58785,6.58791]}},{"type":"Feature","properties":{"power":"substation","name":"PHCN 33KVA Substation","_label":"PHCN 33KVA Substation","_status_group":"unknown","_states":["Ogun"]},"geometry":{"type":"Point","coordinates":[3.33433,7.13118]}},{"type":"Feature","properties":{"power":"substation","name":"Ososa Electricity Substation","_label":"Ososa Electricity Substation","_status_group":"unknown","_states":["Ogun"]},"geometry":{"type":"Point","coordinates":[3.85361,6.80872]}},{"type":"Feature","properties":{"power":"substation","name":"Injection Substation","_label":"Injection Substation","_status_group":"unknown","_states":["Oyo"]},"geometry":{"type":"Point","coordinates":[3.91272,7.47776]}},{"type":"Feature","properties":{"power":"substation","_label":null,"_status_group":"unknown","_states":["Ogun"]},"geometry":{"type":"Point","coordinates":[3.36375,7.1307]}},{"type":"Feature","properties":{"power":"substation","name":"Odo Oba Electricity Substation","_label":"Odo Oba Electricity Substation","_status_group":"unknown","_states":["Oyo"]},"geometry":{"type":"Point","coordinates":[3.89676,7.54516]}},{"type":"Feature","properties":{"power":"substation","name":"National Integrated Powers Project","_label":"National Integrated Powers Project","_status_group":"unknown","_states":["Osun"]},"geometry":{"type":"Point","coordinates":[4.53147,7.78717]}},{"type":"Feature","properties":{"power":"substation","name":"Tashan Dukku Substation","_label":"Tashan Dukku Substation","_status_group":"unknown","_states":["Gombe"]},"geometry":{"type":"Point","coordinates":[11.15977,10.30086]}},{"type":"Feature","properties":{"power":"substation","_label":null,"_status_group":"unknown","_states":["Taraba"]},"geometry":{"type":"Point","coordinates":[11.35103,8.91208]}},{"type":"Feature","properties":{"power":"substation","_label":null,"_status_group":"unknown","_states":["Osun"]},"geometry":{"type":"Point","coordinates":[4.56799,7.75234]}},{"type":"Feature","properties":{"power":"substation","name":"Jos Electricity Distribution Plc","_label":"Jos Electricity Distribution Plc","_status_group":"unknown","_states":["Plateau"]},"geometry":{"type":"Point","coordinates":[8.87843,9.88995]}},{"type":"Feature","properties":{"power":"substation","name":"JED PLC, NIPSS Feeder, Bukuru","_label":"JED PLC, NIPSS Feeder, Bukuru","_status_group":"unknown","_states":["Plateau"]},"geometry":{"type":"Point","coordinates":[8.86808,9.7869]}},{"type":"Feature","properties":{"power":"substation","_label":null,"_status_group":"unknown","_states":["Plateau"]},"geometry":{"type":"Point","coordinates":[8.86617,9.94718]}},{"type":"Feature","properties":{"power":"substation","name":"National Integrated Power Project","_label":"National Integrated Power Project","_status_group":"unknown","_states":["Plateau"]},"geometry":{"type":"Point","coordinates":[8.92148,9.88822]}},{"type":"Feature","properties":{"power":"substation","_label":null,"_status_group":"unknown","_states":["Cross River"]},"geometry":{"type":"Point","coordinates":[8.32714,4.98258]}},{"type":"Feature","properties":{"power":"substation","name":"National Intergrated Power Project Ikot Nyong","_label":"National Intergrated Power Project Ikot Nyong","_status_group":"unknown","_states":["Cross River"]},"geometry":{"type":"Point","coordinates":[8.26312,5.18852]}},{"type":"Feature","properties":{"power":"substation","_label":null,"_status_group":"unknown","_states":["Akwa Ibom"]},"geometry":{"type":"Point","coordinates":[7.99477,5.16271]}},{"type":"Feature","properties":{"power":"substation","name":"Irete Substation","_label":"Irete Substation","_status_group":"unknown","_states":["Imo"]},"geometry":{"type":"Point","coordinates":[7.00228,5.50946]}},{"type":"Feature","properties":{"power":"substation","name":"Omoba Mega-Power Station","_label":"Omoba Mega-Power Station","_status_group":"unknown","_states":["Abia"]},"geometry":{"type":"Point","coordinates":[7.40691,5.2432]}},{"type":"Feature","properties":{"power":"substation","name":"Ubuluisiuzor Electricity Station Ihiala","_label":"Ubuluisiuzor Electricity Station Ihiala","_status_group":"unknown","_states":["Anambra"]},"geometry":{"type":"Point","coordinates":[6.88527,5.84248]}},{"type":"Feature","properties":{"power":"substation","name":"Nigeria Eletricity Power Authoity Nepa","_label":"Nigeria Eletricity Power Authoity Nepa","_status_group":"unknown","_states":["Imo"]},"geometry":{"type":"Point","coordinates":[7.16986,5.70373]}},{"type":"Feature","properties":{"power":"substation","_label":null,"_status_group":"unknown","_states":["Taraba"]},"geometry":{"type":"Point","coordinates":[9.76123,6.87495]}},{"type":"Feature","properties":{"power":"substation","_label":null,"_status_group":"unknown","_states":["Taraba"]},"geometry":{"type":"Point","coordinates":[10.03689,7.71163]}},{"type":"Feature","properties":{"power":"substation","_label":null,"_status_group":"unknown","_states":["Taraba"]},"geometry":{"type":"Point","coordinates":[9.89266,7.69581]}},{"type":"Feature","properties":{"power":"substation","_label":null,"_status_group":"unknown","_states":["Osun"]},"geometry":{"type":"Point","coordinates":[4.44636,7.76768]}},{"type":"Feature","properties":{"power":"substation","_label":null,"_status_group":"unknown","_states":["Lagos"]},"geometry":{"type":"Point","coordinates":[3.32138,6.63478]}},{"type":"Feature","properties":{"power":"substation","_label":null,"_status_group":"unknown","_states":["Lagos"]},"geometry":{"type":"Point","coordinates":[3.33443,6.42329]}},{"type":"Feature","properties":{"power":"substation","name":"132/33kV Calabar Transmission Substation","voltage":"132000;33000","_label":"132/33kV Calabar Transmission Substation","_status_group":"unknown","_states":["Cross River"]},"geometry":{"type":"Point","coordinates":[8.32866,4.99232]}},{"type":"Feature","properties":{"power":"substation","_label":null,"_status_group":"unknown","_states":["Delta"]},"geometry":{"type":"Point","coordinates":[6.01339,5.53558]}},{"type":"Feature","properties":{"power":"substation","_label":null,"_status_group":"unknown","_states":["Enugu"]},"geometry":{"type":"Point","coordinates":[7.39203,6.45591]}},{"type":"Feature","properties":{"power":"substation","name":"Uyo 132/33kV Transmission Substation","voltage":"132000;33000","_label":"Uyo 132/33kV Transmission Substation","_status_group":"unknown","_states":["Akwa Ibom"]},"geometry":{"type":"Point","coordinates":[7.90136,5.04155]}},{"type":"Feature","properties":{"power":"substation","_label":null,"_status_group":"unknown","_states":["Ekiti"]},"geometry":{"type":"Point","coordinates":[5.19851,7.59714]}},{"type":"Feature","properties":{"power":"substation","_label":null,"_status_group":"unknown","_states":["Osun"]},"geometry":{"type":"Point","coordinates":[4.725,7.65468]}},{"type":"Feature","properties":{"power":"substation","_label":null,"_status_group":"unknown","_states":["Kaduna"]},"geometry":{"type":"Point","coordinates":[7.41687,10.49923]}},{"type":"Feature","properties":{"power":"substation","_label":null,"_status_group":"unknown","_states":["Abia"]},"geometry":{"type":"Point","coordinates":[7.81799,5.68583]}},{"type":"Feature","properties":{"power":"substation","voltage":"132000","_label":null,"_status_group":"unknown","_states":["Ogun"]},"geometry":{"type":"Point","coordinates":[3.20578,6.89877]}},{"type":"Feature","properties":{"power":"substation","voltage":"132000","_label":null,"_status_group":"unknown","_states":["Lagos"]},"geometry":{"type":"Point","coordinates":[3.21129,6.4605]}},{"type":"Feature","properties":{"power":"substation","_label":null,"_status_group":"unknown","_states":["Ogun"]},"geometry":{"type":"Point","coordinates":[3.23652,6.71252]}},{"type":"Feature","properties":{"power":"substation","_label":null,"_status_group":"unknown","_states":["Ogun"]},"geometry":{"type":"Point","coordinates":[3.34071,6.69377]}},{"type":"Feature","properties":{"power":"substation","_label":null,"_status_group":"unknown","_states":["Ogun"]},"geometry":{"type":"Point","coordinates":[3.16856,6.68094]}},{"type":"Feature","properties":{"power":"substation","name":"33/11KV NIPP Injection Sub-station","operator":"PHED","voltage":"33000/11000","_label":"33/11KV NIPP Injection Sub-station","_status_group":"unknown","_states":["Akwa Ibom"]},"geometry":{"type":"Point","coordinates":[7.58072,4.57659]}},{"type":"Feature","properties":{"power":"substation","_label":null,"_status_group":"unknown","_states":["Gombe"]},"geometry":{"type":"Point","coordinates":[11.22961,9.8907]}},{"type":"Feature","properties":{"power":"substation","_label":null,"_status_group":"unknown","_states":["Akwa Ibom"]},"geometry":{"type":"Point","coordinates":[7.66342,4.61521]}},{"type":"Feature","properties":{"power":"substation","_label":null,"_status_group":"unknown","_states":["Abuja Federal Capital Territory"]},"geometry":{"type":"Point","coordinates":[7.49269,9.06232]}},{"type":"Feature","properties":{"power":"substation","_label":null,"_status_group":"unknown","_states":["Abuja Federal Capital Territory"]},"geometry":{"type":"Point","coordinates":[7.57193,8.99681]}},{"type":"Feature","properties":{"power":"substation","_label":null,"_status_group":"unknown","_states":["Abuja Federal Capital Territory"]},"geometry":{"type":"Point","coordinates":[7.49077,8.96887]}},{"type":"Feature","properties":{"power":"substation","_label":null,"_status_group":"unknown","_states":["Abuja Federal Capital Territory"]},"geometry":{"type":"Point","coordinates":[7.49599,8.9412]}},{"type":"Feature","properties":{"power":"substation","_label":null,"_status_group":"unknown","_states":["Borno"]},"geometry":{"type":"Point","coordinates":[13.26019,10.67856]}},{"type":"Feature","properties":{"power":"substation","_label":null,"_status_group":"unknown","_states":["Borno"]},"geometry":{"type":"Point","coordinates":[13.21492,10.44823]}},{"type":"Feature","properties":{"power":"substation","_label":null,"_status_group":"unknown","_states":["Delta"]},"geometry":{"type":"Point","coordinates":[5.73123,5.84487]}},{"type":"Feature","properties":{"power":"substation","_label":null,"_status_group":"unknown","_states":["Ogun"]},"geometry":{"type":"Point","coordinates":[3.20452,6.89868]}},{"type":"Feature","properties":{"power":"substation","_label":null,"_status_group":"unknown","_states":["Lagos"]},"geometry":{"type":"Point","coordinates":[3.31659,6.45479]}},{"type":"Feature","properties":{"power":"substation","_label":null,"_status_group":"unknown","_states":["Lagos"]},"geometry":{"type":"Point","coordinates":[3.36142,6.55901]}},{"type":"Feature","properties":{"power":"substation","_label":null,"_status_group":"unknown","_states":["Imo"]},"geometry":{"type":"Point","coordinates":[7.06033,5.48106]}},{"type":"Feature","properties":{"power":"substation","_label":null,"_status_group":"unknown","_states":["Kogi"]},"geometry":{"type":"Point","coordinates":[6.44326,7.99499]}},{"type":"Feature","properties":{"power":"substation","_label":null,"_status_group":"unknown","_states":["Lagos"]},"geometry":{"type":"Point","coordinates":[3.42209,6.60921]}},{"type":"Feature","properties":{"power":"substation","_label":null,"_status_group":"unknown","_states":["Borno"]},"geometry":{"type":"Point","coordinates":[12.18664,10.63099]}},{"type":"Feature","properties":{"power":"substation","_label":null,"_status_group":"unknown","_states":["Kano"]},"geometry":{"type":"Point","coordinates":[8.21298,12.2471]}},{"type":"Feature","properties":{"power":"substation","_label":null,"_status_group":"unknown","_states":["Oyo"]},"geometry":{"type":"Point","coordinates":[3.31091,7.42024]}},{"type":"Feature","properties":{"power":"substation","_label":null,"_status_group":"unknown","_states":["Kaduna"]},"geometry":{"type":"Point","coordinates":[7.40219,10.50038]}},{"type":"Feature","properties":{"power":"substation","_label":null,"_status_group":"unknown","_states":["Kano"]},"geometry":{"type":"Point","coordinates":[8.4069,11.46487]}},{"type":"Feature","properties":{"power":"substation","_label":null,"_status_group":"unknown","_states":["Bauchi"]},"geometry":{"type":"Point","coordinates":[9.8476,10.28453]}},{"type":"Feature","properties":{"power":"substation","_label":null,"_status_group":"unknown","_states":["Rivers"]},"geometry":{"type":"Point","coordinates":[7.00561,4.79704]}},{"type":"Feature","properties":{"power":"substation","_label":null,"_status_group":"unknown","_states":["Ebonyi"]},"geometry":{"type":"Point","coordinates":[7.89678,5.90636]}},{"type":"Feature","properties":{"power":"substation","_label":null,"_status_group":"unknown","_states":["Lagos"]},"geometry":{"type":"Point","coordinates":[3.40542,6.6036]}},{"type":"Feature","properties":{"power":"substation","_label":null,"_status_group":"unknown","_states":["Lagos"]},"geometry":{"type":"Point","coordinates":[3.32452,6.50991]}},{"type":"Feature","properties":{"power":"substation","_label":null,"_status_group":"unknown","_states":["Lagos"]},"geometry":{"type":"Point","coordinates":[3.3377,6.53616]}},{"type":"Feature","properties":{"power":"substation","_label":null,"_status_group":"unknown","_states":["Lagos"]},"geometry":{"type":"Point","coordinates":[3.36563,6.45426]}},{"type":"Feature","properties":{"power":"substation","_label":null,"_status_group":"unknown","_states":["Ogun"]},"geometry":{"type":"Point","coordinates":[3.91919,6.83622]}},{"type":"Feature","properties":{"power":"substation","_label":null,"_status_group":"unknown","_states":["Ondo"]},"geometry":{"type":"Point","coordinates":[4.73924,6.46061]}},{"type":"Feature","properties":{"power":"substation","_label":null,"_status_group":"unknown","_states":["Kwara"]},"geometry":{"type":"Point","coordinates":[4.52933,8.47364]}},{"type":"Feature","properties":{"power":"substation","_label":null,"_status_group":"unknown","_states":["Kaduna"]},"geometry":{"type":"Point","coordinates":[7.4624,10.57925]}},{"type":"Feature","properties":{"power":"substation","_label":null,"_status_group":"unknown","_states":["Kaduna"]},"geometry":{"type":"Point","coordinates":[7.40208,10.42131]}},{"type":"Feature","properties":{"power":"substation","_label":null,"_status_group":"unknown","_states":["Kaduna"]},"geometry":{"type":"Point","coordinates":[7.46905,10.45256]}},{"type":"Feature","properties":{"power":"substation","_label":null,"_status_group":"unknown","_states":["Kaduna"]},"geometry":{"type":"Point","coordinates":[7.57059,10.81872]}},{"type":"Feature","properties":{"power":"substation","_label":null,"_status_group":"unknown","_states":["Kaduna"]},"geometry":{"type":"Point","coordinates":[7.70211,11.07936]}},{"type":"Feature","properties":{"power":"substation","_label":null,"_status_group":"unknown","_states":["Ekiti"]},"geometry":{"type":"Point","coordinates":[5.12164,7.67048]}},{"type":"Feature","properties":{"power":"substation","_label":null,"_status_group":"unknown","_states":["Oyo"]},"geometry":{"type":"Point","coordinates":[3.93975,7.42044]}},{"type":"Feature","properties":{"power":"substation","_label":null,"_status_group":"unknown","_states":["Ogun"]},"geometry":{"type":"Point","coordinates":[3.4568,6.81638]}},{"type":"Feature","properties":{"power":"substation","_label":null,"_status_group":"unknown","_states":["Ogun"]},"geometry":{"type":"Point","coordinates":[3.29972,6.69394]}},{"type":"Feature","properties":{"power":"substation","_label":null,"_status_group":"unknown","_states":["Oyo"]},"geometry":{"type":"Point","coordinates":[3.44902,7.5385]}},{"type":"Feature","properties":{"power":"substation","_label":null,"_status_group":"unknown","_states":["Ondo"]},"geometry":{"type":"Point","coordinates":[5.17255,7.26089]}},{"type":"Feature","properties":{"power":"substation","_label":null,"_status_group":"unknown","_states":["Osun"]},"geometry":{"type":"Point","coordinates":[4.19975,7.62265]}},{"type":"Feature","properties":{"power":"substation","_label":null,"_status_group":"unknown","_states":["Oyo"]},"geometry":{"type":"Point","coordinates":[4.22324,8.11576]}},{"type":"Feature","properties":{"power":"substation","_label":null,"_status_group":"unknown","_states":["Enugu"]},"geometry":{"type":"Point","coordinates":[7.51542,6.50981]}},{"type":"Feature","properties":{"power":"substation","_label":null,"_status_group":"unknown","_states":["Edo"]},"geometry":{"type":"Point","coordinates":[6.12882,7.26089]}},{"type":"Feature","properties":{"power":"substation","voltage":"132000","_label":null,"_status_group":"unknown","_states":["Abuja Federal Capital Territory"]},"geometry":{"type":"Point","coordinates":[7.36822,9.14985]}},{"type":"Feature","properties":{"power":"substation","_label":null,"_status_group":"unknown","_states":["Abuja Federal Capital Territory"]},"geometry":{"type":"Point","coordinates":[7.08779,8.943]}},{"type":"Feature","properties":{"power":"substation","_label":null,"_status_group":"unknown","_states":["Niger"]},"geometry":{"type":"Point","coordinates":[6.53427,9.63784]}},{"type":"Feature","properties":{"power":"substation","_label":null,"_status_group":"unknown","_states":["Nasarawa"]},"geometry":{"type":"Point","coordinates":[8.52055,8.5052]}},{"type":"Feature","properties":{"power":"substation","_label":null,"_status_group":"unknown","_states":["Nasarawa"]},"geometry":{"type":"Point","coordinates":[8.57096,8.54572]}},{"type":"Feature","properties":{"power":"substation","_label":null,"_status_group":"unknown","_states":["Plateau"]},"geometry":{"type":"Point","coordinates":[8.8817,9.95915]}},{"type":"Feature","properties":{"power":"substation","_label":null,"_status_group":"unknown","_states":["Kaduna"]},"geometry":{"type":"Point","coordinates":[7.60721,11.17762]}},{"type":"Feature","properties":{"power":"substation","_label":null,"_status_group":"unknown","_states":["Yobe"]},"geometry":{"type":"Point","coordinates":[11.03161,12.86856]}},{"type":"Feature","properties":{"power":"substation","_label":null,"_status_group":"unknown","_states":["Kebbi"]},"geometry":{"type":"Point","coordinates":[4.19844,12.43782]}},{"type":"Feature","properties":{"power":"substation","_label":null,"_status_group":"unknown","_states":["Rivers"]},"geometry":{"type":"Point","coordinates":[7.02661,4.80076]}},{"type":"Feature","properties":{"power":"substation","_label":null,"_status_group":"unknown","_states":["Rivers"]},"geometry":{"type":"Point","coordinates":[7.04745,4.80966]}},{"type":"Feature","properties":{"power":"substation","_label":null,"_status_group":"unknown","_states":["Akwa Ibom"]},"geometry":{"type":"Point","coordinates":[7.75604,4.6351]}},{"type":"Feature","properties":{"power":"substation","_label":null,"_status_group":"unknown","_states":["Abia"]},"geometry":{"type":"Point","coordinates":[7.48802,5.51561]}},{"type":"Feature","properties":{"power":"substation","_label":null,"_status_group":"unknown","_states":["Akwa Ibom"]},"geometry":{"type":"Point","coordinates":[7.89155,5.05558]}},{"type":"Feature","properties":{"power":"substation","_label":null,"_status_group":"unknown","_states":["Lagos"]},"geometry":{"type":"Point","coordinates":[3.31706,6.45101]}},{"type":"Feature","properties":{"power":"substation","_label":null,"_status_group":"unknown","_states":["Lagos"]},"geometry":{"type":"Point","coordinates":[3.46765,6.42483]}},{"type":"Feature","properties":{"power":"substation","_label":null,"_status_group":"unknown","_states":["Lagos"]},"geometry":{"type":"Point","coordinates":[3.24465,6.64658]}},{"type":"Feature","properties":{"power":"substation","_label":null,"_status_group":"unknown","_states":["Lagos"]},"geometry":{"type":"Point","coordinates":[3.34854,6.51691]}},{"type":"Feature","properties":{"power":"substation","_label":null,"_status_group":"unknown","_states":["Lagos"]},"geometry":{"type":"Point","coordinates":[3.40064,6.60485]}},{"type":"Feature","properties":{"power":"substation","name":"Old Sub-station","operator":"PHED","voltage":"11000","_label":"Old Sub-station","_status_group":"unknown","_states":["Akwa Ibom"]},"geometry":{"type":"Point","coordinates":[7.58062,4.577]}},{"type":"Feature","properties":{"power":"substation","_label":null,"_status_group":"unknown","_states":["Abia"]},"geometry":{"type":"Point","coordinates":[7.87188,5.4207]}},{"type":"Feature","properties":{"power":"substation","_label":null,"_status_group":"unknown","_states":["Kano"]},"geometry":{"type":"Point","coordinates":[8.53973,12.03527]}},{"type":"Feature","properties":{"power":"substation","_label":null,"_status_group":"unknown","_states":["Kano"]},"geometry":{"type":"Point","coordinates":[8.56059,12.02005]}},{"type":"Feature","properties":{"power":"substation","_label":null,"_status_group":"unknown","_states":["Kano"]},"geometry":{"type":"Point","coordinates":[8.5508,11.96697]}},{"type":"Feature","properties":{"power":"substation","_label":null,"_status_group":"unknown","_states":["Jigawa"]},"geometry":{"type":"Point","coordinates":[9.8841,11.28118]}},{"type":"Feature","properties":{"power":"substation","_label":null,"_status_group":"unknown","_states":["Kano"]},"geometry":{"type":"Point","coordinates":[8.50898,12.02951]}},{"type":"Feature","properties":{"power":"substation","_label":null,"_status_group":"unknown","_states":["Kano"]},"geometry":{"type":"Point","coordinates":[8.48947,11.99475]}},{"type":"Feature","properties":{"power":"substation","_label":null,"_status_group":"unknown","_states":["Kano"]},"geometry":{"type":"Point","coordinates":[8.42827,11.97159]}},{"type":"Feature","properties":{"power":"substation","_label":null,"_status_group":"unknown","_states":["Enugu"]},"geometry":{"type":"Point","coordinates":[7.40104,6.8463]}},{"type":"Feature","properties":{"power":"substation","_label":null,"_status_group":"unknown","_states":["Anambra"]},"geometry":{"type":"Point","coordinates":[7.06403,6.1883]}},{"type":"Feature","properties":{"power":"substation","_label":null,"_status_group":"unknown","_states":["Jigawa"]},"geometry":{"type":"Point","coordinates":[9.39752,12.63038]}},{"type":"Feature","properties":{"power":"substation","_label":null,"_status_group":"unknown","_states":["Jigawa"]},"geometry":{"type":"Point","coordinates":[9.8777,12.56068]}},{"type":"Feature","properties":{"power":"substation","_label":null,"_status_group":"unknown","_states":["Jigawa"]},"geometry":{"type":"Point","coordinates":[10.02843,12.44315]}},{"type":"Feature","properties":{"power":"substation","_label":null,"_status_group":"unknown","_states":["Kano"]},"geometry":{"type":"Point","coordinates":[8.55126,12.00849]}},{"type":"Feature","properties":{"power":"substation","_label":null,"_status_group":"unknown","_states":["Jigawa"]},"geometry":{"type":"Point","coordinates":[9.35716,11.71887]}},{"type":"Feature","properties":{"power":"substation","_label":null,"_status_group":"unknown","_states":["Jigawa"]},"geometry":{"type":"Point","coordinates":[9.474,11.47196]}},{"type":"Feature","properties":{"power":"substation","_label":null,"_status_group":"unknown","_states":["Imo"]},"geometry":{"type":"Point","coordinates":[7.14606,5.77822]}},{"type":"Feature","properties":{"power":"substation","_label":null,"_status_group":"unknown","_states":["Ogun"]},"geometry":{"type":"Point","coordinates":[3.61744,6.81462]}},{"type":"Feature","properties":{"power":"substation","_label":null,"_status_group":"unknown","_states":["Nasarawa"]},"geometry":{"type":"Point","coordinates":[7.59434,9.02341]}},{"type":"Feature","properties":{"power":"substation","_label":null,"_status_group":"unknown","_states":["Oyo"]},"geometry":{"type":"Point","coordinates":[3.79272,7.39417]}},{"type":"Feature","properties":{"power":"substation","_label":null,"_status_group":"unknown","_states":["Plateau"]},"geometry":{"type":"Point","coordinates":[9.42736,9.32603]}},{"type":"Feature","properties":{"power":"substation","_label":null,"_status_group":"unknown","_states":["Kaduna"]},"geometry":{"type":"Point","coordinates":[6.53069,10.65098]}},{"type":"Feature","properties":{"power":"substation","_label":null,"_status_group":"unknown","_states":["Jigawa"]},"geometry":{"type":"Point","coordinates":[9.58417,12.38915]}},{"type":"Feature","properties":{"power":"substation","_label":null,"_status_group":"unknown","_states":["Borno"]},"geometry":{"type":"Point","coordinates":[13.1777,11.88826]}},{"type":"Feature","properties":{"power":"substation","_label":null,"_status_group":"unknown","_states":["Edo"]},"geometry":{"type":"Point","coordinates":[5.6531,6.25962]}},{"type":"Feature","properties":{"power":"substation","_label":null,"_status_group":"unknown","_states":["Anambra"]},"geometry":{"type":"Point","coordinates":[7.0801,6.22966]}},{"type":"Feature","properties":{"power":"substation","_label":null,"_status_group":"unknown","_states":["Adamawa"]},"geometry":{"type":"Point","coordinates":[12.48639,9.19594]}},{"type":"Feature","properties":{"power":"substation","_label":null,"_status_group":"unknown","_states":["Adamawa"]},"geometry":{"type":"Point","coordinates":[12.50459,9.34151]}},{"type":"Feature","properties":{"power":"substation","_label":null,"_status_group":"unknown","_states":["Ogun"]},"geometry":{"type":"Point","coordinates":[3.0253,6.88868]}},{"type":"Feature","properties":{"power":"substation","_label":null,"_status_group":"unknown","_states":["Oyo"]},"geometry":{"type":"Point","coordinates":[3.87416,7.39136]}},{"type":"Feature","properties":{"power":"substation","_label":null,"_status_group":"unknown","_states":["Adamawa"]},"geometry":{"type":"Point","coordinates":[12.07172,9.0821]}},{"type":"Feature","properties":{"power":"substation","_label":null,"_status_group":"unknown","_states":["Kogi"]},"geometry":{"type":"Point","coordinates":[6.44466,7.89666]}},{"type":"Feature","properties":{"power":"substation","_label":null,"_status_group":"unknown","_states":["Abuja Federal Capital Territory"]},"geometry":{"type":"Point","coordinates":[7.28233,8.86227]}},{"type":"Feature","properties":{"power":"substation","_label":null,"_status_group":"unknown","_states":["Adamawa"]},"geometry":{"type":"Point","coordinates":[11.90959,9.58841]}}]}
